{"type":"FeatureCollection","features":[{"type":"Feature","properties":{"linea":"19-1-1","parcela":"19-1","palmas":3},"geometry":{"type":"LineString","coordinates":[[-72.999843,4.513069],[-72.999844,4.512907]]}},{"type":"Feature","properties":{"linea":"19-1-2","parcela":"19-1","palmas":4},"geometry":{"type":"LineString","coordinates":[[-72.999914,4.51311],[-72.999914,4.512866]]}},{"type":"Feature","properties":{"linea":"19-1-3","parcela":"19-1","palmas":4},"geometry":{"type":"LineString","coordinates":[[-72.999984,4.51307],[-72.999984,4.512826]]}},{"type":"Feature","properties":{"linea":"19-1-4","parcela":"19-1","palmas":4},"geometry":{"type":"LineString","coordinates":[[-73.000054,4.513029],[-73.000054,4.512785]]}},{"type":"Feature","properties":{"linea":"19-1-5","parcela":"19-1","palmas":5},"geometry":{"type":"LineString","coordinates":[[-73.000124,4.51307],[-73.000125,4.512744]]}},{"type":"Feature","properties":{"linea":"19-1-6","parcela":"19-1","palmas":5},"geometry":{"type":"LineString","coordinates":[[-73.000194,4.513029],[-73.000195,4.512704]]}},{"type":"Feature","properties":{"linea":"19-1-7","parcela":"19-1","palmas":6},"geometry":{"type":"LineString","coordinates":[[-73.000265,4.51307],[-73.000265,4.512663]]}},{"type":"Feature","properties":{"linea":"19-1-8","parcela":"19-1","palmas":6},"geometry":{"type":"LineString","coordinates":[[-73.000335,4.513029],[-73.000336,4.512623]]}},{"type":"Feature","properties":{"linea":"19-1-9","parcela":"19-1","palmas":6},"geometry":{"type":"LineString","coordinates":[[-73.000405,4.512989],[-73.000406,4.512582]]}},{"type":"Feature","properties":{"linea":"19-1-10","parcela":"19-1","palmas":7},"geometry":{"type":"LineString","coordinates":[[-73.000475,4.51303],[-73.000476,4.512541]]}},{"type":"Feature","properties":{"linea":"19-1-11","parcela":"19-1","palmas":8},"geometry":{"type":"LineString","coordinates":[[-73.000546,4.512989],[-73.000546,4.512419]]}},{"type":"Feature","properties":{"linea":"19-1-12","parcela":"19-1","palmas":8},"geometry":{"type":"LineString","coordinates":[[-73.000616,4.512949],[-73.000617,4.512379]]}},{"type":"Feature","properties":{"linea":"19-1-13","parcela":"19-1","palmas":9},"geometry":{"type":"LineString","coordinates":[[-73.000686,4.512989],[-73.000687,4.512338]]}},{"type":"Feature","properties":{"linea":"19-1-14","parcela":"19-1","palmas":9},"geometry":{"type":"LineString","coordinates":[[-73.000756,4.512949],[-73.000757,4.512298]]}},{"type":"Feature","properties":{"linea":"19-1-15","parcela":"19-1","palmas":10},"geometry":{"type":"LineString","coordinates":[[-73.000826,4.512989],[-73.000827,4.512257]]}},{"type":"Feature","properties":{"linea":"19-1-16","parcela":"19-1","palmas":11},"geometry":{"type":"LineString","coordinates":[[-73.000897,4.512949],[-73.000898,4.512135]]}},{"type":"Feature","properties":{"linea":"19-1-17","parcela":"19-1","palmas":12},"geometry":{"type":"LineString","coordinates":[[-73.000967,4.51299],[-73.000968,4.512095]]}},{"type":"Feature","properties":{"linea":"19-1-18","parcela":"19-1","palmas":12},"geometry":{"type":"LineString","coordinates":[[-73.001037,4.512949],[-73.001039,4.512054]]}},{"type":"Feature","properties":{"linea":"19-1-19","parcela":"19-1","palmas":13},"geometry":{"type":"LineString","coordinates":[[-73.001108,4.512909],[-73.001109,4.511932]]}},{"type":"Feature","properties":{"linea":"19-1-20","parcela":"19-1","palmas":14},"geometry":{"type":"LineString","coordinates":[[-73.001178,4.512949],[-73.001179,4.511892]]}},{"type":"Feature","properties":{"linea":"19-1-21","parcela":"19-1","palmas":14},"geometry":{"type":"LineString","coordinates":[[-73.001248,4.512909],[-73.001249,4.511851]]}},{"type":"Feature","properties":{"linea":"19-1-22","parcela":"19-1","palmas":15},"geometry":{"type":"LineString","coordinates":[[-73.001318,4.51295],[-73.00132,4.51181]]}},{"type":"Feature","properties":{"linea":"19-1-23","parcela":"19-1","palmas":16},"geometry":{"type":"LineString","coordinates":[[-73.001388,4.512909],[-73.00139,4.511688]]}},{"type":"Feature","properties":{"linea":"19-1-24","parcela":"19-1","palmas":16},"geometry":{"type":"LineString","coordinates":[[-73.001459,4.512868],[-73.001461,4.511648]]}},{"type":"Feature","properties":{"linea":"19-1-25","parcela":"19-1","palmas":17},"geometry":{"type":"LineString","coordinates":[[-73.001529,4.512909],[-73.001531,4.511607]]}},{"type":"Feature","properties":{"linea":"19-1-26","parcela":"19-1","palmas":18},"geometry":{"type":"LineString","coordinates":[[-73.001599,4.512869],[-73.001601,4.511485]]}},{"type":"Feature","properties":{"linea":"19-1-27","parcela":"19-1","palmas":18},"geometry":{"type":"LineString","coordinates":[[-73.001669,4.512828],[-73.001671,4.511445]]}},{"type":"Feature","properties":{"linea":"19-1-28","parcela":"19-1","palmas":19},"geometry":{"type":"LineString","coordinates":[[-73.001739,4.512869],[-73.001742,4.511404]]}},{"type":"Feature","properties":{"linea":"19-1-29","parcela":"19-1","palmas":19},"geometry":{"type":"LineString","coordinates":[[-73.00181,4.512828],[-73.001812,4.511364]]}},{"type":"Feature","properties":{"linea":"19-1-30","parcela":"19-1","palmas":19},"geometry":{"type":"LineString","coordinates":[[-73.00188,4.512869],[-73.001882,4.511404]]}},{"type":"Feature","properties":{"linea":"19-1-31","parcela":"19-1","palmas":19},"geometry":{"type":"LineString","coordinates":[[-73.00195,4.512829],[-73.001953,4.511364]]}},{"type":"Feature","properties":{"linea":"19-1-32","parcela":"19-1","palmas":19},"geometry":{"type":"LineString","coordinates":[[-73.00202,4.512869],[-73.002022,4.511404]]}},{"type":"Feature","properties":{"linea":"19-1-33","parcela":"19-1","palmas":19},"geometry":{"type":"LineString","coordinates":[[-73.002091,4.512829],[-73.002093,4.511364]]}},{"type":"Feature","properties":{"linea":"19-1-34","parcela":"19-1","palmas":18},"geometry":{"type":"LineString","coordinates":[[-73.002161,4.512788],[-73.002163,4.511405]]}},{"type":"Feature","properties":{"linea":"19-1-35","parcela":"19-1","palmas":19},"geometry":{"type":"LineString","coordinates":[[-73.002231,4.512829],[-73.002233,4.511364]]}},{"type":"Feature","properties":{"linea":"19-1-36","parcela":"19-1","palmas":18},"geometry":{"type":"LineString","coordinates":[[-73.002301,4.512788],[-73.002303,4.511405]]}},{"type":"Feature","properties":{"linea":"19-1-37","parcela":"19-1","palmas":19},"geometry":{"type":"LineString","coordinates":[[-73.002372,4.512829],[-73.002374,4.511364]]}},{"type":"Feature","properties":{"linea":"19-1-38","parcela":"19-1","palmas":18},"geometry":{"type":"LineString","coordinates":[[-73.002442,4.512789],[-73.002444,4.511405]]}},{"type":"Feature","properties":{"linea":"19-1-39","parcela":"19-1","palmas":18},"geometry":{"type":"LineString","coordinates":[[-73.002512,4.512748],[-73.002514,4.511365]]}},{"type":"Feature","properties":{"linea":"19-1-40","parcela":"19-1","palmas":18},"geometry":{"type":"LineString","coordinates":[[-73.002582,4.512789],[-73.002584,4.511405]]}},{"type":"Feature","properties":{"linea":"19-1-41","parcela":"19-1","palmas":18},"geometry":{"type":"LineString","coordinates":[[-73.002652,4.512748],[-73.002655,4.511365]]}},{"type":"Feature","properties":{"linea":"19-1-42","parcela":"19-1","palmas":18},"geometry":{"type":"LineString","coordinates":[[-73.002723,4.512789],[-73.002725,4.511406]]}},{"type":"Feature","properties":{"linea":"19-1-43","parcela":"19-1","palmas":18},"geometry":{"type":"LineString","coordinates":[[-73.002793,4.512748],[-73.002795,4.511365]]}},{"type":"Feature","properties":{"linea":"19-1-44","parcela":"19-1","palmas":17},"geometry":{"type":"LineString","coordinates":[[-73.002863,4.512708],[-73.002865,4.511406]]}},{"type":"Feature","properties":{"linea":"19-1-45","parcela":"19-1","palmas":18},"geometry":{"type":"LineString","coordinates":[[-73.002933,4.512749],[-73.002936,4.511365]]}},{"type":"Feature","properties":{"linea":"19-1-46","parcela":"19-1","palmas":17},"geometry":{"type":"LineString","coordinates":[[-73.003004,4.512708],[-73.003006,4.511406]]}},{"type":"Feature","properties":{"linea":"19-1-47","parcela":"19-1","palmas":18},"geometry":{"type":"LineString","coordinates":[[-73.003074,4.512749],[-73.003076,4.511366]]}},{"type":"Feature","properties":{"linea":"19-1-48","parcela":"19-1","palmas":17},"geometry":{"type":"LineString","coordinates":[[-73.003144,4.512708],[-73.003146,4.511406]]}},{"type":"Feature","properties":{"linea":"19-1-49","parcela":"19-1","palmas":17},"geometry":{"type":"LineString","coordinates":[[-73.003214,4.512668],[-73.003216,4.511366]]}},{"type":"Feature","properties":{"linea":"19-1-50","parcela":"19-1","palmas":17},"geometry":{"type":"LineString","coordinates":[[-73.003284,4.512708],[-73.003286,4.511406]]}},{"type":"Feature","properties":{"linea":"19-1-51","parcela":"19-1","palmas":17},"geometry":{"type":"LineString","coordinates":[[-73.003355,4.512668],[-73.003357,4.511366]]}},{"type":"Feature","properties":{"linea":"19-1-52","parcela":"19-1","palmas":17},"geometry":{"type":"LineString","coordinates":[[-73.003425,4.512709],[-73.003427,4.511407]]}},{"type":"Feature","properties":{"linea":"19-1-53","parcela":"19-1","palmas":17},"geometry":{"type":"LineString","coordinates":[[-73.003495,4.512668],[-73.003497,4.511366]]}},{"type":"Feature","properties":{"linea":"19-1-54","parcela":"19-1","palmas":17},"geometry":{"type":"LineString","coordinates":[[-73.003566,4.512709],[-73.003567,4.511407]]}},{"type":"Feature","properties":{"linea":"19-1-55","parcela":"19-1","palmas":17},"geometry":{"type":"LineString","coordinates":[[-73.003636,4.512668],[-73.003637,4.511366]]}},{"type":"Feature","properties":{"linea":"19-1-56","parcela":"19-1","palmas":16},"geometry":{"type":"LineString","coordinates":[[-73.003706,4.512628],[-73.003708,4.511407]]}},{"type":"Feature","properties":{"linea":"19-1-57","parcela":"19-1","palmas":17},"geometry":{"type":"LineString","coordinates":[[-73.003776,4.512668],[-73.003778,4.511366]]}},{"type":"Feature","properties":{"linea":"19-1-58","parcela":"19-1","palmas":16},"geometry":{"type":"LineString","coordinates":[[-73.003846,4.512628],[-73.003848,4.511407]]}},{"type":"Feature","properties":{"linea":"19-1-59","parcela":"19-1","palmas":16},"geometry":{"type":"LineString","coordinates":[[-73.003917,4.512587],[-73.003919,4.511367]]}},{"type":"Feature","properties":{"linea":"19-1-60","parcela":"19-1","palmas":16},"geometry":{"type":"LineString","coordinates":[[-73.003987,4.512628],[-73.003989,4.511407]]}},{"type":"Feature","properties":{"linea":"19-1-61","parcela":"19-1","palmas":16},"geometry":{"type":"LineString","coordinates":[[-73.004057,4.512588],[-73.004059,4.511367]]}},{"type":"Feature","properties":{"linea":"19-1-62","parcela":"19-1","palmas":16},"geometry":{"type":"LineString","coordinates":[[-73.004127,4.512628],[-73.004129,4.511408]]}},{"type":"Feature","properties":{"linea":"19-1-63","parcela":"19-1","palmas":16},"geometry":{"type":"LineString","coordinates":[[-73.004198,4.512588],[-73.004199,4.511367]]}},{"type":"Feature","properties":{"linea":"19-1-64","parcela":"19-1","palmas":15},"geometry":{"type":"LineString","coordinates":[[-73.004268,4.512547],[-73.004269,4.511408]]}},{"type":"Feature","properties":{"linea":"19-1-65","parcela":"19-1","palmas":16},"geometry":{"type":"LineString","coordinates":[[-73.004338,4.512588],[-73.00434,4.511367]]}},{"type":"Feature","properties":{"linea":"19-1-66","parcela":"19-1","palmas":15},"geometry":{"type":"LineString","coordinates":[[-73.004408,4.512547],[-73.00441,4.511408]]}},{"type":"Feature","properties":{"linea":"19-1-67","parcela":"19-1","palmas":15},"geometry":{"type":"LineString","coordinates":[[-73.004479,4.512507],[-73.00448,4.511368]]}},{"type":"Feature","properties":{"linea":"19-1-68","parcela":"19-1","palmas":13},"geometry":{"type":"LineString","coordinates":[[-73.004549,4.512385],[-73.00455,4.511408]]}},{"type":"Feature","properties":{"linea":"19-1-69","parcela":"19-1","palmas":12},"geometry":{"type":"LineString","coordinates":[[-73.004619,4.512263],[-73.004621,4.511368]]}},{"type":"Feature","properties":{"linea":"19-1-70","parcela":"19-1","palmas":10},"geometry":{"type":"LineString","coordinates":[[-73.00469,4.512141],[-73.004691,4.511409]]}},{"type":"Feature","properties":{"linea":"19-1-71","parcela":"19-1","palmas":9},"geometry":{"type":"LineString","coordinates":[[-73.00476,4.512019],[-73.004761,4.511368]]}},{"type":"Feature","properties":{"linea":"19-1-72","parcela":"19-1","palmas":8},"geometry":{"type":"LineString","coordinates":[[-73.004831,4.511978],[-73.004831,4.511409]]}},{"type":"Feature","properties":{"linea":"19-1-73","parcela":"19-1","palmas":7},"geometry":{"type":"LineString","coordinates":[[-73.004901,4.511856],[-73.004902,4.511368]]}},{"type":"Feature","properties":{"linea":"19-1-74","parcela":"19-1","palmas":5},"geometry":{"type":"LineString","coordinates":[[-73.004971,4.511734],[-73.004972,4.511409]]}},{"type":"Feature","properties":{"linea":"19-1-75","parcela":"19-1","palmas":4},"geometry":{"type":"LineString","coordinates":[[-73.005042,4.511613],[-73.005042,4.511368]]}},{"type":"Feature","properties":{"linea":"19-1-76","parcela":"19-1","palmas":3},"geometry":{"type":"LineString","coordinates":[[-73.005112,4.511572],[-73.005112,4.511409]]}},{"type":"Feature","properties":{"linea":"19-1-77","parcela":"19-1","palmas":3},"geometry":{"type":"LineString","coordinates":[[-73.005182,4.511531],[-73.005183,4.511369]]}},{"type":"Feature","properties":{"linea":"19-1-78","parcela":"19-1","palmas":2},"geometry":{"type":"LineString","coordinates":[[-73.005252,4.511491],[-73.005252,4.511409]]}},{"type":"Feature","properties":{"linea":"19-1-79","parcela":"19-1","palmas":2},"geometry":{"type":"LineString","coordinates":[[-73.005323,4.51145],[-73.005323,4.511369]]}},{"type":"Feature","properties":{"linea":"19-1-82","parcela":"19-1","palmas":9},"geometry":{"type":"LineString","coordinates":[[-72.999775,4.511889],[-72.999776,4.511239]]}},{"type":"Feature","properties":{"linea":"19-1-83","parcela":"19-1","palmas":12},"geometry":{"type":"LineString","coordinates":[[-72.999845,4.512012],[-72.999846,4.511116]]}},{"type":"Feature","properties":{"linea":"19-1-84","parcela":"19-1","palmas":22},"geometry":{"type":"LineString","coordinates":[[-72.999914,4.512703],[-72.999917,4.510994]]}},{"type":"Feature","properties":{"linea":"19-1-85","parcela":"19-1","palmas":22},"geometry":{"type":"LineString","coordinates":[[-72.999984,4.512663],[-72.999987,4.510954]]}},{"type":"Feature","properties":{"linea":"19-1-86","parcela":"19-1","palmas":24},"geometry":{"type":"LineString","coordinates":[[-73.000055,4.512622],[-73.000057,4.510751]]}},{"type":"Feature","properties":{"linea":"19-1-87","parcela":"19-1","palmas":24},"geometry":{"type":"LineString","coordinates":[[-73.000125,4.512582],[-73.000128,4.51071]]}},{"type":"Feature","properties":{"linea":"19-1-88","parcela":"19-1","palmas":24},"geometry":{"type":"LineString","coordinates":[[-73.000195,4.512541],[-73.000198,4.510669]]}},{"type":"Feature","properties":{"linea":"19-1-89","parcela":"19-1","palmas":24},"geometry":{"type":"LineString","coordinates":[[-73.000266,4.512501],[-73.000268,4.510629]]}},{"type":"Feature","properties":{"linea":"19-1-90","parcela":"19-1","palmas":24},"geometry":{"type":"LineString","coordinates":[[-73.000336,4.51246],[-73.000339,4.510588]]}},{"type":"Feature","properties":{"linea":"19-1-91","parcela":"19-1","palmas":25},"geometry":{"type":"LineString","coordinates":[[-73.000406,4.512419],[-73.000409,4.510466]]}},{"type":"Feature","properties":{"linea":"19-1-92","parcela":"19-1","palmas":25},"geometry":{"type":"LineString","coordinates":[[-73.000476,4.512379],[-73.000479,4.510426]]}},{"type":"Feature","properties":{"linea":"19-1-93","parcela":"19-1","palmas":24},"geometry":{"type":"LineString","coordinates":[[-73.000547,4.512257],[-73.000549,4.510385]]}},{"type":"Feature","properties":{"linea":"19-1-94","parcela":"19-1","palmas":25},"geometry":{"type":"LineString","coordinates":[[-73.000617,4.512216],[-73.00062,4.510263]]}},{"type":"Feature","properties":{"linea":"19-1-95","parcela":"19-1","palmas":25},"geometry":{"type":"LineString","coordinates":[[-73.000687,4.512176],[-73.00069,4.510223]]}},{"type":"Feature","properties":{"linea":"19-1-96","parcela":"19-1","palmas":27},"geometry":{"type":"LineString","coordinates":[[-73.000758,4.512135],[-73.000761,4.510019]]}},{"type":"Feature","properties":{"linea":"19-1-97","parcela":"19-1","palmas":26},"geometry":{"type":"LineString","coordinates":[[-73.000828,4.512013],[-73.000831,4.509979]]}},{"type":"Feature","properties":{"linea":"19-1-98","parcela":"19-1","palmas":26},"geometry":{"type":"LineString","coordinates":[[-73.000898,4.511972],[-73.000901,4.509938]]}},{"type":"Feature","properties":{"linea":"19-1-99","parcela":"19-1","palmas":26},"geometry":{"type":"LineString","coordinates":[[-73.000969,4.511932],[-73.000972,4.509898]]}},{"type":"Feature","properties":{"linea":"19-1-100","parcela":"19-1","palmas":27},"geometry":{"type":"LineString","coordinates":[[-73.001039,4.511891],[-73.001042,4.509776]]}},{"type":"Feature","properties":{"linea":"19-1-101","parcela":"19-1","palmas":27},"geometry":{"type":"LineString","coordinates":[[-73.001109,4.511851],[-73.001112,4.509735]]}},{"type":"Feature","properties":{"linea":"19-1-102","parcela":"19-1","palmas":27},"geometry":{"type":"LineString","coordinates":[[-73.001179,4.511729],[-73.001182,4.509613]]}},{"type":"Feature","properties":{"linea":"19-1-103","parcela":"19-1","palmas":27},"geometry":{"type":"LineString","coordinates":[[-73.00125,4.511688],[-73.001253,4.509572]]}},{"type":"Feature","properties":{"linea":"19-1-104","parcela":"19-1","palmas":27},"geometry":{"type":"LineString","coordinates":[[-73.00132,4.511648],[-73.001323,4.509532]]}},{"type":"Feature","properties":{"linea":"19-1-105","parcela":"19-1","palmas":26},"geometry":{"type":"LineString","coordinates":[[-73.001391,4.511526],[-73.001393,4.509491]]}},{"type":"Feature","properties":{"linea":"19-1-106","parcela":"19-1","palmas":25},"geometry":{"type":"LineString","coordinates":[[-73.001461,4.511485],[-73.001464,4.509532]]}},{"type":"Feature","properties":{"linea":"19-1-107","parcela":"19-1","palmas":23},"geometry":{"type":"LineString","coordinates":[[-73.001531,4.511363],[-73.001534,4.509573]]}},{"type":"Feature","properties":{"linea":"19-1-108","parcela":"19-1","palmas":22},"geometry":{"type":"LineString","coordinates":[[-73.001601,4.511323],[-73.001604,4.509614]]}},{"type":"Feature","properties":{"linea":"19-1-109","parcela":"19-1","palmas":20},"geometry":{"type":"LineString","coordinates":[[-73.001672,4.511201],[-73.001674,4.509654]]}},{"type":"Feature","properties":{"linea":"19-1-110","parcela":"19-1","palmas":20},"geometry":{"type":"LineString","coordinates":[[-73.001742,4.51116],[-73.001744,4.509614]]}},{"type":"Feature","properties":{"linea":"19-1-111","parcela":"19-1","palmas":20},"geometry":{"type":"LineString","coordinates":[[-73.001812,4.511119],[-73.001815,4.509573]]}},{"type":"Feature","properties":{"linea":"19-1-112","parcela":"19-1","palmas":18},"geometry":{"type":"LineString","coordinates":[[-73.001883,4.510998],[-73.001885,4.509614]]}},{"type":"Feature","properties":{"linea":"19-1-113","parcela":"19-1","palmas":18},"geometry":{"type":"LineString","coordinates":[[-73.001953,4.510957],[-73.001955,4.509574]]}},{"type":"Feature","properties":{"linea":"19-1-114","parcela":"19-1","palmas":18},"geometry":{"type":"LineString","coordinates":[[-73.002023,4.510916],[-73.002025,4.509533]]}},{"type":"Feature","properties":{"linea":"19-1-115","parcela":"19-1","palmas":17},"geometry":{"type":"LineString","coordinates":[[-73.002094,4.510794],[-73.002096,4.509493]]}},{"type":"Feature","properties":{"linea":"19-1-116","parcela":"19-1","palmas":17},"geometry":{"type":"LineString","coordinates":[[-73.002164,4.510754],[-73.002166,4.509452]]}},{"type":"Feature","properties":{"linea":"19-1-117","parcela":"19-1","palmas":15},"geometry":{"type":"LineString","coordinates":[[-73.002234,4.510632],[-73.002236,4.509493]]}},{"type":"Feature","properties":{"linea":"19-1-118","parcela":"19-1","palmas":15},"geometry":{"type":"LineString","coordinates":[[-73.002305,4.51051],[-73.002306,4.509371]]}},{"type":"Feature","properties":{"linea":"19-1-119","parcela":"19-1","palmas":15},"geometry":{"type":"LineString","coordinates":[[-73.002375,4.510469],[-73.002377,4.50933]]}},{"type":"Feature","properties":{"linea":"19-1-120","parcela":"19-1","palmas":14},"geometry":{"type":"LineString","coordinates":[[-73.002446,4.510347],[-73.002447,4.509289]]}},{"type":"Feature","properties":{"linea":"19-1-121","parcela":"19-1","palmas":13},"geometry":{"type":"LineString","coordinates":[[-73.002516,4.510225],[-73.002517,4.509249]]}},{"type":"Feature","properties":{"linea":"19-1-122","parcela":"19-1","palmas":14},"geometry":{"type":"LineString","coordinates":[[-73.002586,4.510185],[-73.002588,4.509127]]}},{"type":"Feature","properties":{"linea":"19-1-123","parcela":"19-1","palmas":13},"geometry":{"type":"LineString","coordinates":[[-73.002656,4.510063],[-73.002658,4.509086]]}},{"type":"Feature","properties":{"linea":"19-1-124","parcela":"19-1","palmas":13},"geometry":{"type":"LineString","coordinates":[[-73.002727,4.509941],[-73.002728,4.508964]]}},{"type":"Feature","properties":{"linea":"19-1-125","parcela":"19-1","palmas":14},"geometry":{"type":"LineString","coordinates":[[-73.002797,4.5099],[-73.002799,4.508843]]}},{"type":"Feature","properties":{"linea":"19-1-126","parcela":"19-1","palmas":13},"geometry":{"type":"LineString","coordinates":[[-73.002867,4.509778],[-73.002869,4.508802]]}},{"type":"Feature","properties":{"linea":"19-1-127","parcela":"19-1","palmas":11},"geometry":{"type":"LineString","coordinates":[[-73.002938,4.509575],[-73.002939,4.508761]]}},{"type":"Feature","properties":{"linea":"19-1-128","parcela":"19-1","palmas":9},"geometry":{"type":"LineString","coordinates":[[-73.003009,4.509209],[-73.00301,4.508558]]}},{"type":"Feature","properties":{"linea":"19-1-129","parcela":"19-1","palmas":6},"geometry":{"type":"LineString","coordinates":[[-73.003079,4.508924],[-73.00308,4.508517]]}},{"type":"Feature","properties":{"linea":"19-1-130","parcela":"19-1","palmas":3},"geometry":{"type":"LineString","coordinates":[[-73.00315,4.508639],[-73.00315,4.508477]]}},{"type":"Feature","properties":{"linea":"19-2-1","parcela":"19-2","palmas":3},"geometry":{"type":"LineString","coordinates":[[-72.994859,4.513584],[-72.994859,4.513421]]}},{"type":"Feature","properties":{"linea":"19-2-2","parcela":"19-2","palmas":6},"geometry":{"type":"LineString","coordinates":[[-72.994929,4.513624],[-72.99493,4.513218]]}},{"type":"Feature","properties":{"linea":"19-2-3","parcela":"19-2","palmas":8},"geometry":{"type":"LineString","coordinates":[[-72.994999,4.513584],[-72.995,4.513014]]}},{"type":"Feature","properties":{"linea":"19-2-4","parcela":"19-2","palmas":11},"geometry":{"type":"LineString","coordinates":[[-72.99507,4.513625],[-72.995071,4.512811]]}},{"type":"Feature","properties":{"linea":"19-2-5","parcela":"19-2","palmas":13},"geometry":{"type":"LineString","coordinates":[[-72.99514,4.513584],[-72.995141,4.512608]]}},{"type":"Feature","properties":{"linea":"19-2-6","parcela":"19-2","palmas":14},"geometry":{"type":"LineString","coordinates":[[-72.99521,4.513544],[-72.995212,4.512486]]}},{"type":"Feature","properties":{"linea":"19-2-7","parcela":"19-2","palmas":16},"geometry":{"type":"LineString","coordinates":[[-72.99528,4.513584],[-72.995282,4.512364]]}},{"type":"Feature","properties":{"linea":"19-2-8","parcela":"19-2","palmas":17},"geometry":{"type":"LineString","coordinates":[[-72.995351,4.513544],[-72.995352,4.512242]]}},{"type":"Feature","properties":{"linea":"19-2-9","parcela":"19-2","palmas":18},"geometry":{"type":"LineString","coordinates":[[-72.995421,4.513585],[-72.995423,4.512201]]}},{"type":"Feature","properties":{"linea":"19-2-10","parcela":"19-2","palmas":19},"geometry":{"type":"LineString","coordinates":[[-72.995491,4.513544],[-72.995493,4.512079]]}},{"type":"Feature","properties":{"linea":"19-2-11","parcela":"19-2","palmas":19},"geometry":{"type":"LineString","coordinates":[[-72.995561,4.513503],[-72.995564,4.512039]]}},{"type":"Feature","properties":{"linea":"19-2-12","parcela":"19-2","palmas":20},"geometry":{"type":"LineString","coordinates":[[-72.995631,4.513544],[-72.995634,4.511998]]}},{"type":"Feature","properties":{"linea":"19-2-13","parcela":"19-2","palmas":20},"geometry":{"type":"LineString","coordinates":[[-72.995702,4.513504],[-72.995704,4.511958]]}},{"type":"Feature","properties":{"linea":"19-2-14","parcela":"19-2","palmas":22},"geometry":{"type":"LineString","coordinates":[[-72.995772,4.513544],[-72.995774,4.511836]]}},{"type":"Feature","properties":{"linea":"19-2-15","parcela":"19-2","palmas":22},"geometry":{"type":"LineString","coordinates":[[-72.995842,4.513504],[-72.995845,4.511795]]}},{"type":"Feature","properties":{"linea":"19-2-16","parcela":"19-2","palmas":23},"geometry":{"type":"LineString","coordinates":[[-72.995913,4.513463],[-72.995915,4.511673]]}},{"type":"Feature","properties":{"linea":"19-2-17","parcela":"19-2","palmas":24},"geometry":{"type":"LineString","coordinates":[[-72.995982,4.513504],[-72.995985,4.511633]]}},{"type":"Feature","properties":{"linea":"19-2-18","parcela":"19-2","palmas":24},"geometry":{"type":"LineString","coordinates":[[-72.996053,4.513464],[-72.996056,4.511592]]}},{"type":"Feature","properties":{"linea":"19-2-19","parcela":"19-2","palmas":26},"geometry":{"type":"LineString","coordinates":[[-72.996123,4.513504],[-72.996126,4.51147]]}},{"type":"Feature","properties":{"linea":"19-2-20","parcela":"19-2","palmas":26},"geometry":{"type":"LineString","coordinates":[[-72.996193,4.513464],[-72.996196,4.511429]]}},{"type":"Feature","properties":{"linea":"19-2-21","parcela":"19-2","palmas":26},"geometry":{"type":"LineString","coordinates":[[-72.996264,4.513423],[-72.996267,4.511389]]}},{"type":"Feature","properties":{"linea":"19-2-22","parcela":"19-2","palmas":27},"geometry":{"type":"LineString","coordinates":[[-72.996334,4.513464],[-72.996337,4.511348]]}},{"type":"Feature","properties":{"linea":"19-2-23","parcela":"19-2","palmas":26},"geometry":{"type":"LineString","coordinates":[[-72.996404,4.513423],[-72.996407,4.511389]]}},{"type":"Feature","properties":{"linea":"19-2-24","parcela":"19-2","palmas":27},"geometry":{"type":"LineString","coordinates":[[-72.996474,4.513464],[-72.996477,4.511348]]}},{"type":"Feature","properties":{"linea":"19-2-25","parcela":"19-2","palmas":26},"geometry":{"type":"LineString","coordinates":[[-72.996544,4.513424],[-72.996548,4.511389]]}},{"type":"Feature","properties":{"linea":"19-2-26","parcela":"19-2","palmas":26},"geometry":{"type":"LineString","coordinates":[[-72.996615,4.513383],[-72.996618,4.511349]]}},{"type":"Feature","properties":{"linea":"19-2-27","parcela":"19-2","palmas":26},"geometry":{"type":"LineString","coordinates":[[-72.996685,4.513424],[-72.996688,4.511389]]}},{"type":"Feature","properties":{"linea":"19-2-28","parcela":"19-2","palmas":26},"geometry":{"type":"LineString","coordinates":[[-72.996755,4.513383],[-72.996758,4.511349]]}},{"type":"Feature","properties":{"linea":"19-2-29","parcela":"19-2","palmas":26},"geometry":{"type":"LineString","coordinates":[[-72.996825,4.513424],[-72.996828,4.51139]]}},{"type":"Feature","properties":{"linea":"19-2-30","parcela":"19-2","palmas":26},"geometry":{"type":"LineString","coordinates":[[-72.996896,4.513383],[-72.996899,4.511349]]}},{"type":"Feature","properties":{"linea":"19-2-31","parcela":"19-2","palmas":25},"geometry":{"type":"LineString","coordinates":[[-72.996966,4.513343],[-72.996969,4.51139]]}},{"type":"Feature","properties":{"linea":"19-2-32","parcela":"19-2","palmas":26},"geometry":{"type":"LineString","coordinates":[[-72.997036,4.513384],[-72.997039,4.511349]]}},{"type":"Feature","properties":{"linea":"19-2-33","parcela":"19-2","palmas":25},"geometry":{"type":"LineString","coordinates":[[-72.997106,4.513343],[-72.997109,4.51139]]}},{"type":"Feature","properties":{"linea":"19-2-34","parcela":"19-2","palmas":26},"geometry":{"type":"LineString","coordinates":[[-72.997176,4.513384],[-72.997179,4.511349]]}},{"type":"Feature","properties":{"linea":"19-2-35","parcela":"19-2","palmas":25},"geometry":{"type":"LineString","coordinates":[[-72.997247,4.513343],[-72.99725,4.51139]]}},{"type":"Feature","properties":{"linea":"19-2-36","parcela":"19-2","palmas":25},"geometry":{"type":"LineString","coordinates":[[-72.997317,4.513303],[-72.99732,4.51135]]}},{"type":"Feature","properties":{"linea":"19-2-37","parcela":"19-2","palmas":25},"geometry":{"type":"LineString","coordinates":[[-72.997387,4.513343],[-72.99739,4.511391]]}},{"type":"Feature","properties":{"linea":"19-2-38","parcela":"19-2","palmas":25},"geometry":{"type":"LineString","coordinates":[[-72.997457,4.513303],[-72.99746,4.51135]]}},{"type":"Feature","properties":{"linea":"19-2-39","parcela":"19-2","palmas":25},"geometry":{"type":"LineString","coordinates":[[-72.997528,4.513344],[-72.997531,4.511391]]}},{"type":"Feature","properties":{"linea":"19-2-40","parcela":"19-2","palmas":25},"geometry":{"type":"LineString","coordinates":[[-72.997598,4.513303],[-72.997601,4.51135]]}},{"type":"Feature","properties":{"linea":"19-2-41","parcela":"19-2","palmas":24},"geometry":{"type":"LineString","coordinates":[[-72.997668,4.513262],[-72.997671,4.511391]]}},{"type":"Feature","properties":{"linea":"19-2-42","parcela":"19-2","palmas":25},"geometry":{"type":"LineString","coordinates":[[-72.997738,4.513303],[-72.997741,4.51135]]}},{"type":"Feature","properties":{"linea":"19-2-43","parcela":"19-2","palmas":24},"geometry":{"type":"LineString","coordinates":[[-72.997809,4.513263],[-72.997811,4.511391]]}},{"type":"Feature","properties":{"linea":"19-2-44","parcela":"19-2","palmas":25},"geometry":{"type":"LineString","coordinates":[[-72.997879,4.513304],[-72.997882,4.511351]]}},{"type":"Feature","properties":{"linea":"19-2-45","parcela":"19-2","palmas":24},"geometry":{"type":"LineString","coordinates":[[-72.997949,4.513263],[-72.997952,4.511391]]}},{"type":"Feature","properties":{"linea":"19-2-46","parcela":"19-2","palmas":24},"geometry":{"type":"LineString","coordinates":[[-72.998019,4.513222],[-72.998022,4.511351]]}},{"type":"Feature","properties":{"linea":"19-2-47","parcela":"19-2","palmas":24},"geometry":{"type":"LineString","coordinates":[[-72.998089,4.513263],[-72.998092,4.511392]]}},{"type":"Feature","properties":{"linea":"19-2-48","parcela":"19-2","palmas":24},"geometry":{"type":"LineString","coordinates":[[-72.99816,4.513223],[-72.998163,4.511351]]}},{"type":"Feature","properties":{"linea":"19-2-49","parcela":"19-2","palmas":24},"geometry":{"type":"LineString","coordinates":[[-72.99823,4.513263],[-72.998233,4.511392]]}},{"type":"Feature","properties":{"linea":"19-2-50","parcela":"19-2","palmas":24},"geometry":{"type":"LineString","coordinates":[[-72.9983,4.513223],[-72.998303,4.511351]]}},{"type":"Feature","properties":{"linea":"19-2-51","parcela":"19-2","palmas":23},"geometry":{"type":"LineString","coordinates":[[-72.998371,4.513182],[-72.998373,4.511392]]}},{"type":"Feature","properties":{"linea":"19-2-52","parcela":"19-2","palmas":24},"geometry":{"type":"LineString","coordinates":[[-72.998441,4.513223],[-72.998443,4.511351]]}},{"type":"Feature","properties":{"linea":"19-2-53","parcela":"19-2","palmas":23},"geometry":{"type":"LineString","coordinates":[[-72.998511,4.513183],[-72.998514,4.511392]]}},{"type":"Feature","properties":{"linea":"19-2-54","parcela":"19-2","palmas":24},"geometry":{"type":"LineString","coordinates":[[-72.998581,4.513223],[-72.998584,4.511352]]}},{"type":"Feature","properties":{"linea":"19-2-55","parcela":"19-2","palmas":23},"geometry":{"type":"LineString","coordinates":[[-72.998651,4.513183],[-72.998654,4.511393]]}},{"type":"Feature","properties":{"linea":"19-2-56","parcela":"19-2","palmas":23},"geometry":{"type":"LineString","coordinates":[[-72.998722,4.513142],[-72.998724,4.511352]]}},{"type":"Feature","properties":{"linea":"19-2-57","parcela":"19-2","palmas":22},"geometry":{"type":"LineString","coordinates":[[-72.998792,4.513101],[-72.998794,4.511393]]}},{"type":"Feature","properties":{"linea":"19-2-58","parcela":"19-2","palmas":22},"geometry":{"type":"LineString","coordinates":[[-72.998862,4.513061],[-72.998865,4.511352]]}},{"type":"Feature","properties":{"linea":"19-2-59","parcela":"19-2","palmas":21},"geometry":{"type":"LineString","coordinates":[[-72.998932,4.51302],[-72.998935,4.511393]]}},{"type":"Feature","properties":{"linea":"19-2-60","parcela":"19-2","palmas":21},"geometry":{"type":"LineString","coordinates":[[-72.999003,4.51298],[-72.999005,4.511352]]}},{"type":"Feature","properties":{"linea":"19-2-61","parcela":"19-2","palmas":21},"geometry":{"type":"LineString","coordinates":[[-72.999073,4.513021],[-72.999075,4.511393]]}},{"type":"Feature","properties":{"linea":"19-2-62","parcela":"19-2","palmas":22},"geometry":{"type":"LineString","coordinates":[[-72.999143,4.513142],[-72.999146,4.511353]]}},{"type":"Feature","properties":{"linea":"19-2-63","parcela":"19-2","palmas":22},"geometry":{"type":"LineString","coordinates":[[-72.999213,4.513183],[-72.999216,4.511393]]}},{"type":"Feature","properties":{"linea":"19-2-64","parcela":"19-2","palmas":22},"geometry":{"type":"LineString","coordinates":[[-72.999283,4.513143],[-72.999286,4.511353]]}},{"type":"Feature","properties":{"linea":"19-2-65","parcela":"19-2","palmas":21},"geometry":{"type":"LineString","coordinates":[[-72.999354,4.513102],[-72.999356,4.511393]]}},{"type":"Feature","properties":{"linea":"19-2-66","parcela":"19-2","palmas":22},"geometry":{"type":"LineString","coordinates":[[-72.999424,4.513143],[-72.999426,4.511353]]}},{"type":"Feature","properties":{"linea":"19-2-67","parcela":"19-2","palmas":21},"geometry":{"type":"LineString","coordinates":[[-72.999494,4.513102],[-72.999497,4.511394]]}},{"type":"Feature","properties":{"linea":"19-2-68","parcela":"19-2","palmas":20},"geometry":{"type":"LineString","coordinates":[[-72.999564,4.512981],[-72.999567,4.511353]]}},{"type":"Feature","properties":{"linea":"19-2-69","parcela":"19-2","palmas":8},"geometry":{"type":"LineString","coordinates":[[-72.999636,4.51237],[-72.999636,4.511801]]}},{"type":"Feature","properties":{"linea":"19-3-1","parcela":"19-3","palmas":2},"geometry":{"type":"LineString","coordinates":[[-73.00189,4.511236],[-73.00189,4.511155]]}},{"type":"Feature","properties":{"linea":"19-3-2","parcela":"19-3","palmas":2},"geometry":{"type":"LineString","coordinates":[[-73.001961,4.511196],[-73.001961,4.511114]]}},{"type":"Feature","properties":{"linea":"19-3-3","parcela":"19-3","palmas":3},"geometry":{"type":"LineString","coordinates":[[-73.002031,4.511236],[-73.002031,4.511074]]}},{"type":"Feature","properties":{"linea":"19-3-4","parcela":"19-3","palmas":4},"geometry":{"type":"LineString","coordinates":[[-73.002101,4.511196],[-73.002101,4.510952]]}},{"type":"Feature","properties":{"linea":"19-3-5","parcela":"19-3","palmas":5},"geometry":{"type":"LineString","coordinates":[[-73.002171,4.511237],[-73.002172,4.510911]]}},{"type":"Feature","properties":{"linea":"19-3-6","parcela":"19-3","palmas":5},"geometry":{"type":"LineString","coordinates":[[-73.002241,4.511196],[-73.002242,4.510871]]}},{"type":"Feature","properties":{"linea":"19-3-7","parcela":"19-3","palmas":7},"geometry":{"type":"LineString","coordinates":[[-73.002312,4.511237],[-73.002312,4.510749]]}},{"type":"Feature","properties":{"linea":"19-3-8","parcela":"19-3","palmas":8},"geometry":{"type":"LineString","coordinates":[[-73.002382,4.511196],[-73.002383,4.510627]]}},{"type":"Feature","properties":{"linea":"19-3-9","parcela":"19-3","palmas":10},"geometry":{"type":"LineString","coordinates":[[-73.002452,4.511237],[-73.002453,4.510505]]}},{"type":"Feature","properties":{"linea":"19-3-10","parcela":"19-3","palmas":10},"geometry":{"type":"LineString","coordinates":[[-73.002522,4.511196],[-73.002523,4.510464]]}},{"type":"Feature","properties":{"linea":"19-3-11","parcela":"19-3","palmas":12},"geometry":{"type":"LineString","coordinates":[[-73.002593,4.511237],[-73.002594,4.510342]]}},{"type":"Feature","properties":{"linea":"19-3-12","parcela":"19-3","palmas":12},"geometry":{"type":"LineString","coordinates":[[-73.002663,4.511197],[-73.002664,4.510301]]}},{"type":"Feature","properties":{"linea":"19-3-13","parcela":"19-3","palmas":14},"geometry":{"type":"LineString","coordinates":[[-73.002733,4.511238],[-73.002734,4.510179]]}},{"type":"Feature","properties":{"linea":"19-3-14","parcela":"19-3","palmas":15},"geometry":{"type":"LineString","coordinates":[[-73.002803,4.511197],[-73.002805,4.510058]]}},{"type":"Feature","properties":{"linea":"19-3-15","parcela":"19-3","palmas":17},"geometry":{"type":"LineString","coordinates":[[-73.002873,4.511238],[-73.002875,4.509936]]}},{"type":"Feature","properties":{"linea":"19-3-16","parcela":"19-3","palmas":18},"geometry":{"type":"LineString","coordinates":[[-73.002944,4.511197],[-73.002946,4.509814]]}},{"type":"Feature","properties":{"linea":"19-3-17","parcela":"19-3","palmas":21},"geometry":{"type":"LineString","coordinates":[[-73.003014,4.511238],[-73.003016,4.50961]]}},{"type":"Feature","properties":{"linea":"19-3-18","parcela":"19-3","palmas":25},"geometry":{"type":"LineString","coordinates":[[-73.003084,4.511197],[-73.003087,4.509244]]}},{"type":"Feature","properties":{"linea":"19-3-19","parcela":"19-3","palmas":27},"geometry":{"type":"LineString","coordinates":[[-73.003154,4.511238],[-73.003157,4.509122]]}},{"type":"Feature","properties":{"linea":"19-3-20","parcela":"19-3","palmas":27},"geometry":{"type":"LineString","coordinates":[[-73.003224,4.511197],[-73.003227,4.509082]]}},{"type":"Feature","properties":{"linea":"19-3-21","parcela":"19-3","palmas":27},"geometry":{"type":"LineString","coordinates":[[-73.003295,4.511238],[-73.003298,4.509123]]}},{"type":"Feature","properties":{"linea":"19-3-22","parcela":"19-3","palmas":27},"geometry":{"type":"LineString","coordinates":[[-73.003365,4.511197],[-73.003368,4.509082]]}},{"type":"Feature","properties":{"linea":"19-3-23","parcela":"19-3","palmas":27},"geometry":{"type":"LineString","coordinates":[[-73.003435,4.511238],[-73.003438,4.509123]]}},{"type":"Feature","properties":{"linea":"19-3-24","parcela":"19-3","palmas":27},"geometry":{"type":"LineString","coordinates":[[-73.003505,4.511198],[-73.003508,4.509082]]}},{"type":"Feature","properties":{"linea":"19-3-25","parcela":"19-3","palmas":27},"geometry":{"type":"LineString","coordinates":[[-73.003576,4.511239],[-73.003579,4.509123]]}},{"type":"Feature","properties":{"linea":"19-3-26","parcela":"19-3","palmas":27},"geometry":{"type":"LineString","coordinates":[[-73.003646,4.511198],[-73.003649,4.509082]]}},{"type":"Feature","properties":{"linea":"19-3-27","parcela":"19-3","palmas":27},"geometry":{"type":"LineString","coordinates":[[-73.003716,4.511239],[-73.003719,4.509123]]}},{"type":"Feature","properties":{"linea":"19-3-28","parcela":"19-3","palmas":27},"geometry":{"type":"LineString","coordinates":[[-73.003786,4.511198],[-73.003789,4.509082]]}},{"type":"Feature","properties":{"linea":"19-3-29","parcela":"19-3","palmas":27},"geometry":{"type":"LineString","coordinates":[[-73.003856,4.511239],[-73.003859,4.509123]]}},{"type":"Feature","properties":{"linea":"19-3-30","parcela":"19-3","palmas":27},"geometry":{"type":"LineString","coordinates":[[-73.003927,4.511198],[-73.00393,4.509083]]}},{"type":"Feature","properties":{"linea":"19-3-31","parcela":"19-3","palmas":27},"geometry":{"type":"LineString","coordinates":[[-73.003997,4.511239],[-73.004,4.509124]]}},{"type":"Feature","properties":{"linea":"19-3-32","parcela":"19-3","palmas":27},"geometry":{"type":"LineString","coordinates":[[-73.004067,4.511199],[-73.00407,4.509083]]}},{"type":"Feature","properties":{"linea":"19-3-33","parcela":"19-3","palmas":27},"geometry":{"type":"LineString","coordinates":[[-73.004137,4.511239],[-73.00414,4.509124]]}},{"type":"Feature","properties":{"linea":"19-3-34","parcela":"19-3","palmas":27},"geometry":{"type":"LineString","coordinates":[[-73.004208,4.511199],[-73.004211,4.509083]]}},{"type":"Feature","properties":{"linea":"19-3-35","parcela":"19-3","palmas":27},"geometry":{"type":"LineString","coordinates":[[-73.004278,4.51124],[-73.004281,4.509124]]}},{"type":"Feature","properties":{"linea":"19-3-36","parcela":"19-3","palmas":27},"geometry":{"type":"LineString","coordinates":[[-73.004348,4.511199],[-73.004351,4.509083]]}},{"type":"Feature","properties":{"linea":"19-3-37","parcela":"19-3","palmas":27},"geometry":{"type":"LineString","coordinates":[[-73.004418,4.51124],[-73.004421,4.509124]]}},{"type":"Feature","properties":{"linea":"19-3-38","parcela":"19-3","palmas":27},"geometry":{"type":"LineString","coordinates":[[-73.004488,4.511199],[-73.004491,4.509084]]}},{"type":"Feature","properties":{"linea":"19-3-39","parcela":"19-3","palmas":27},"geometry":{"type":"LineString","coordinates":[[-73.004559,4.51124],[-73.004562,4.509124]]}},{"type":"Feature","properties":{"linea":"19-3-40","parcela":"19-3","palmas":27},"geometry":{"type":"LineString","coordinates":[[-73.004629,4.511199],[-73.004632,4.509084]]}},{"type":"Feature","properties":{"linea":"19-3-41","parcela":"19-3","palmas":27},"geometry":{"type":"LineString","coordinates":[[-73.004699,4.51124],[-73.004702,4.509125]]}},{"type":"Feature","properties":{"linea":"19-3-42","parcela":"19-3","palmas":27},"geometry":{"type":"LineString","coordinates":[[-73.004769,4.5112],[-73.004772,4.509084]]}},{"type":"Feature","properties":{"linea":"19-3-43","parcela":"19-3","palmas":27},"geometry":{"type":"LineString","coordinates":[[-73.004839,4.511241],[-73.004842,4.509125]]}},{"type":"Feature","properties":{"linea":"19-3-44","parcela":"19-3","palmas":27},"geometry":{"type":"LineString","coordinates":[[-73.00491,4.5112],[-73.004913,4.509084]]}},{"type":"Feature","properties":{"linea":"19-3-45","parcela":"19-3","palmas":27},"geometry":{"type":"LineString","coordinates":[[-73.00498,4.511241],[-73.004983,4.509125]]}},{"type":"Feature","properties":{"linea":"19-3-46","parcela":"19-3","palmas":27},"geometry":{"type":"LineString","coordinates":[[-73.00505,4.5112],[-73.005053,4.509084]]}},{"type":"Feature","properties":{"linea":"19-3-47","parcela":"19-3","palmas":27},"geometry":{"type":"LineString","coordinates":[[-73.00512,4.511241],[-73.005123,4.509125]]}},{"type":"Feature","properties":{"linea":"19-3-48","parcela":"19-3","palmas":27},"geometry":{"type":"LineString","coordinates":[[-73.005191,4.5112],[-73.005194,4.509085]]}},{"type":"Feature","properties":{"linea":"19-3-49","parcela":"19-3","palmas":27},"geometry":{"type":"LineString","coordinates":[[-73.005261,4.511241],[-73.005264,4.509126]]}},{"type":"Feature","properties":{"linea":"19-3-50","parcela":"19-3","palmas":27},"geometry":{"type":"LineString","coordinates":[[-73.005331,4.511201],[-73.005334,4.509085]]}},{"type":"Feature","properties":{"linea":"19-3-51","parcela":"19-3","palmas":27},"geometry":{"type":"LineString","coordinates":[[-73.005401,4.511241],[-73.005404,4.509126]]}},{"type":"Feature","properties":{"linea":"19-3-52","parcela":"19-3","palmas":27},"geometry":{"type":"LineString","coordinates":[[-73.005471,4.511201],[-73.005474,4.509085]]}},{"type":"Feature","properties":{"linea":"19-3-53","parcela":"19-3","palmas":27},"geometry":{"type":"LineString","coordinates":[[-73.005542,4.511242],[-73.005545,4.509126]]}},{"type":"Feature","properties":{"linea":"19-3-54","parcela":"19-3","palmas":27},"geometry":{"type":"LineString","coordinates":[[-73.005612,4.511201],[-73.005615,4.509085]]}},{"type":"Feature","properties":{"linea":"19-3-55","parcela":"19-3","palmas":27},"geometry":{"type":"LineString","coordinates":[[-73.005682,4.511242],[-73.005685,4.509126]]}},{"type":"Feature","properties":{"linea":"19-3-56","parcela":"19-3","palmas":27},"geometry":{"type":"LineString","coordinates":[[-73.005752,4.511201],[-73.005755,4.509086]]}},{"type":"Feature","properties":{"linea":"19-3-57","parcela":"19-3","palmas":24},"geometry":{"type":"LineString","coordinates":[[-73.005823,4.510998],[-73.005826,4.509126]]}},{"type":"Feature","properties":{"linea":"19-3-58","parcela":"19-3","palmas":24},"geometry":{"type":"LineString","coordinates":[[-73.005893,4.510957],[-73.005896,4.509086]]}},{"type":"Feature","properties":{"linea":"19-3-59","parcela":"19-3","palmas":23},"geometry":{"type":"LineString","coordinates":[[-73.005963,4.510917],[-73.005966,4.509126]]}},{"type":"Feature","properties":{"linea":"19-3-60","parcela":"19-3","palmas":23},"geometry":{"type":"LineString","coordinates":[[-73.006034,4.510876],[-73.006036,4.509086]]}},{"type":"Feature","properties":{"linea":"19-3-61","parcela":"19-3","palmas":22},"geometry":{"type":"LineString","coordinates":[[-73.006104,4.510836],[-73.006106,4.509127]]}},{"type":"Feature","properties":{"linea":"19-3-62","parcela":"19-3","palmas":22},"geometry":{"type":"LineString","coordinates":[[-73.006174,4.510795],[-73.006177,4.509086]]}},{"type":"Feature","properties":{"linea":"19-3-63","parcela":"19-3","palmas":18},"geometry":{"type":"LineString","coordinates":[[-73.006244,4.510754],[-73.006247,4.509127]]}},{"type":"Feature","properties":{"linea":"19-3-64","parcela":"19-3","palmas":12},"geometry":{"type":"LineString","coordinates":[[-73.006315,4.510551],[-73.006317,4.509086]]}},{"type":"Feature","properties":{"linea":"19-3-65","parcela":"19-3","palmas":8},"geometry":{"type":"LineString","coordinates":[[-73.006385,4.510429],[-73.006386,4.509859]]}},{"type":"Feature","properties":{"linea":"19-3-66","parcela":"19-3","palmas":2},"geometry":{"type":"LineString","coordinates":[[-73.006456,4.510063],[-73.006456,4.509982]]}},{"type":"Feature","properties":{"linea":"19-4-2","parcela":"19-4","palmas":3},"geometry":{"type":"LineString","coordinates":[[-72.996545,4.511219],[-72.996545,4.511056]]}},{"type":"Feature","properties":{"linea":"19-4-3","parcela":"19-4","palmas":3},"geometry":{"type":"LineString","coordinates":[[-72.996615,4.511178],[-72.996615,4.511016]]}},{"type":"Feature","properties":{"linea":"19-4-4","parcela":"19-4","palmas":4},"geometry":{"type":"LineString","coordinates":[[-72.996685,4.511219],[-72.996686,4.510975]]}},{"type":"Feature","properties":{"linea":"19-4-5","parcela":"19-4","palmas":5},"geometry":{"type":"LineString","coordinates":[[-72.996755,4.511178],[-72.996756,4.510853]]}},{"type":"Feature","properties":{"linea":"19-4-6","parcela":"19-4","palmas":6},"geometry":{"type":"LineString","coordinates":[[-72.996826,4.511219],[-72.996826,4.510813]]}},{"type":"Feature","properties":{"linea":"19-4-7","parcela":"19-4","palmas":6},"geometry":{"type":"LineString","coordinates":[[-72.996896,4.511179],[-72.996896,4.510772]]}},{"type":"Feature","properties":{"linea":"19-4-8","parcela":"19-4","palmas":8},"geometry":{"type":"LineString","coordinates":[[-72.996966,4.511219],[-72.996967,4.51065]]}},{"type":"Feature","properties":{"linea":"19-4-9","parcela":"19-4","palmas":8},"geometry":{"type":"LineString","coordinates":[[-72.997036,4.511179],[-72.997037,4.510609]]}},{"type":"Feature","properties":{"linea":"19-4-10","parcela":"19-4","palmas":10},"geometry":{"type":"LineString","coordinates":[[-72.997106,4.51122],[-72.997107,4.510487]]}},{"type":"Feature","properties":{"linea":"19-4-11","parcela":"19-4","palmas":10},"geometry":{"type":"LineString","coordinates":[[-72.997177,4.511179],[-72.997178,4.510447]]}},{"type":"Feature","properties":{"linea":"19-4-12","parcela":"19-4","palmas":12},"geometry":{"type":"LineString","coordinates":[[-72.997247,4.51122],[-72.997248,4.510325]]}},{"type":"Feature","properties":{"linea":"19-4-13","parcela":"19-4","palmas":12},"geometry":{"type":"LineString","coordinates":[[-72.997317,4.511179],[-72.997318,4.510284]]}},{"type":"Feature","properties":{"linea":"19-4-14","parcela":"19-4","palmas":13},"geometry":{"type":"LineString","coordinates":[[-72.997387,4.51122],[-72.997389,4.510244]]}},{"type":"Feature","properties":{"linea":"19-4-15","parcela":"19-4","palmas":14},"geometry":{"type":"LineString","coordinates":[[-72.997457,4.511179],[-72.997459,4.510122]]}},{"type":"Feature","properties":{"linea":"19-4-16","parcela":"19-4","palmas":15},"geometry":{"type":"LineString","coordinates":[[-72.997528,4.51122],[-72.997529,4.510081]]}},{"type":"Feature","properties":{"linea":"19-4-17","parcela":"19-4","palmas":15},"geometry":{"type":"LineString","coordinates":[[-72.997598,4.51118],[-72.9976,4.510041]]}},{"type":"Feature","properties":{"linea":"19-4-18","parcela":"19-4","palmas":17},"geometry":{"type":"LineString","coordinates":[[-72.997668,4.511221],[-72.99767,4.509919]]}},{"type":"Feature","properties":{"linea":"19-4-19","parcela":"19-4","palmas":17},"geometry":{"type":"LineString","coordinates":[[-72.997738,4.51118],[-72.99774,4.509878]]}},{"type":"Feature","properties":{"linea":"19-4-20","parcela":"19-4","palmas":19},"geometry":{"type":"LineString","coordinates":[[-72.997809,4.511221],[-72.997811,4.509756]]}},{"type":"Feature","properties":{"linea":"19-4-21","parcela":"19-4","palmas":19},"geometry":{"type":"LineString","coordinates":[[-72.997879,4.51118],[-72.997881,4.509716]]}},{"type":"Feature","properties":{"linea":"19-4-22","parcela":"19-4","palmas":21},"geometry":{"type":"LineString","coordinates":[[-72.997949,4.511221],[-72.997951,4.509593]]}},{"type":"Feature","properties":{"linea":"19-4-23","parcela":"19-4","palmas":21},"geometry":{"type":"LineString","coordinates":[[-72.998019,4.51118],[-72.998022,4.509553]]}},{"type":"Feature","properties":{"linea":"19-4-24","parcela":"19-4","palmas":22},"geometry":{"type":"LineString","coordinates":[[-72.998089,4.511221],[-72.998092,4.509512]]}},{"type":"Feature","properties":{"linea":"19-4-25","parcela":"19-4","palmas":23},"geometry":{"type":"LineString","coordinates":[[-72.99816,4.511181],[-72.998163,4.50939]]}},{"type":"Feature","properties":{"linea":"19-4-26","parcela":"19-4","palmas":24},"geometry":{"type":"LineString","coordinates":[[-72.99823,4.511221],[-72.998233,4.50935]]}},{"type":"Feature","properties":{"linea":"19-4-27","parcela":"19-4","palmas":24},"geometry":{"type":"LineString","coordinates":[[-72.9983,4.511181],[-72.998303,4.509309]]}},{"type":"Feature","properties":{"linea":"19-4-28","parcela":"19-4","palmas":26},"geometry":{"type":"LineString","coordinates":[[-72.99837,4.511222],[-72.998373,4.509187]]}},{"type":"Feature","properties":{"linea":"19-4-29","parcela":"19-4","palmas":26},"geometry":{"type":"LineString","coordinates":[[-72.998441,4.511181],[-72.998444,4.509147]]}},{"type":"Feature","properties":{"linea":"19-4-30","parcela":"19-4","palmas":27},"geometry":{"type":"LineString","coordinates":[[-72.998511,4.511222],[-72.998514,4.509106]]}},{"type":"Feature","properties":{"linea":"19-4-31","parcela":"19-4","palmas":27},"geometry":{"type":"LineString","coordinates":[[-72.998581,4.511181],[-72.998584,4.509066]]}},{"type":"Feature","properties":{"linea":"19-4-32","parcela":"19-4","palmas":27},"geometry":{"type":"LineString","coordinates":[[-72.998651,4.511222],[-72.998654,4.509106]]}},{"type":"Feature","properties":{"linea":"19-4-33","parcela":"19-4","palmas":27},"geometry":{"type":"LineString","coordinates":[[-72.998721,4.511181],[-72.998725,4.509066]]}},{"type":"Feature","properties":{"linea":"19-4-34","parcela":"19-4","palmas":27},"geometry":{"type":"LineString","coordinates":[[-72.998792,4.511222],[-72.998795,4.509106]]}},{"type":"Feature","properties":{"linea":"19-4-35","parcela":"19-4","palmas":27},"geometry":{"type":"LineString","coordinates":[[-72.998862,4.511182],[-72.998865,4.509066]]}},{"type":"Feature","properties":{"linea":"19-4-36","parcela":"19-4","palmas":27},"geometry":{"type":"LineString","coordinates":[[-72.998932,4.511222],[-72.998935,4.509107]]}},{"type":"Feature","properties":{"linea":"19-4-37","parcela":"19-4","palmas":27},"geometry":{"type":"LineString","coordinates":[[-72.999002,4.511182],[-72.999006,4.509066]]}},{"type":"Feature","properties":{"linea":"19-4-38","parcela":"19-4","palmas":27},"geometry":{"type":"LineString","coordinates":[[-72.999072,4.511222],[-72.999076,4.509107]]}},{"type":"Feature","properties":{"linea":"19-4-39","parcela":"19-4","palmas":27},"geometry":{"type":"LineString","coordinates":[[-72.999143,4.511182],[-72.999146,4.509066]]}},{"type":"Feature","properties":{"linea":"19-4-40","parcela":"19-4","palmas":27},"geometry":{"type":"LineString","coordinates":[[-72.999213,4.511223],[-72.999216,4.509107]]}},{"type":"Feature","properties":{"linea":"19-4-41","parcela":"19-4","palmas":27},"geometry":{"type":"LineString","coordinates":[[-72.999283,4.511182],[-72.999286,4.509067]]}},{"type":"Feature","properties":{"linea":"19-4-42","parcela":"19-4","palmas":27},"geometry":{"type":"LineString","coordinates":[[-72.999353,4.511223],[-72.999356,4.509107]]}},{"type":"Feature","properties":{"linea":"19-4-43","parcela":"19-4","palmas":27},"geometry":{"type":"LineString","coordinates":[[-72.999424,4.511183],[-72.999427,4.509067]]}},{"type":"Feature","properties":{"linea":"19-4-44","parcela":"19-4","palmas":27},"geometry":{"type":"LineString","coordinates":[[-72.999494,4.511223],[-72.999497,4.509107]]}},{"type":"Feature","properties":{"linea":"19-4-45","parcela":"19-4","palmas":27},"geometry":{"type":"LineString","coordinates":[[-72.999564,4.511183],[-72.999567,4.509067]]}},{"type":"Feature","properties":{"linea":"19-4-46","parcela":"19-4","palmas":24},"geometry":{"type":"LineString","coordinates":[[-72.999635,4.510979],[-72.999638,4.509108]]}},{"type":"Feature","properties":{"linea":"19-4-47","parcela":"19-4","palmas":23},"geometry":{"type":"LineString","coordinates":[[-72.999705,4.510858],[-72.999708,4.509067]]}},{"type":"Feature","properties":{"linea":"19-4-48","parcela":"19-4","palmas":20},"geometry":{"type":"LineString","coordinates":[[-72.999776,4.510654],[-72.999778,4.509108]]}},{"type":"Feature","properties":{"linea":"19-4-49","parcela":"19-4","palmas":19},"geometry":{"type":"LineString","coordinates":[[-72.999846,4.510532],[-72.999848,4.509067]]}},{"type":"Feature","properties":{"linea":"19-4-50","parcela":"19-4","palmas":16},"geometry":{"type":"LineString","coordinates":[[-72.999916,4.510329],[-72.999918,4.509108]]}},{"type":"Feature","properties":{"linea":"19-4-51","parcela":"19-4","palmas":12},"geometry":{"type":"LineString","coordinates":[[-72.999987,4.509963],[-72.999989,4.509067]]}},{"type":"Feature","properties":{"linea":"19-4-52","parcela":"19-4","palmas":10},"geometry":{"type":"LineString","coordinates":[[-73.000057,4.509841],[-73.000059,4.509108]]}},{"type":"Feature","properties":{"linea":"19-4-53","parcela":"19-4","palmas":10},"geometry":{"type":"LineString","coordinates":[[-73.000128,4.5098],[-73.000129,4.509068]]}},{"type":"Feature","properties":{"linea":"19-4-54","parcela":"19-4","palmas":9},"geometry":{"type":"LineString","coordinates":[[-73.000198,4.509759],[-73.000199,4.509109]]}},{"type":"Feature","properties":{"linea":"19-4-55","parcela":"19-4","palmas":8},"geometry":{"type":"LineString","coordinates":[[-73.000269,4.509638],[-73.000269,4.509068]]}},{"type":"Feature","properties":{"linea":"19-4-56","parcela":"19-4","palmas":6},"geometry":{"type":"LineString","coordinates":[[-73.000339,4.509516],[-73.000339,4.509109]]}},{"type":"Feature","properties":{"linea":"19-4-57","parcela":"19-4","palmas":6},"geometry":{"type":"LineString","coordinates":[[-73.000409,4.509475],[-73.00041,4.509068]]}},{"type":"Feature","properties":{"linea":"19-4-58","parcela":"19-4","palmas":5},"geometry":{"type":"LineString","coordinates":[[-73.000479,4.509434],[-73.00048,4.509109]]}},{"type":"Feature","properties":{"linea":"19-4-59","parcela":"19-4","palmas":5},"geometry":{"type":"LineString","coordinates":[[-73.00055,4.509394],[-73.00055,4.509068]]}},{"type":"Feature","properties":{"linea":"19-4-60","parcela":"19-4","palmas":4},"geometry":{"type":"LineString","coordinates":[[-73.00062,4.509353],[-73.00062,4.509109]]}},{"type":"Feature","properties":{"linea":"19-4-61","parcela":"19-4","palmas":4},"geometry":{"type":"LineString","coordinates":[[-73.00069,4.509313],[-73.000691,4.509069]]}},{"type":"Feature","properties":{"linea":"19-4-62","parcela":"19-4","palmas":3},"geometry":{"type":"LineString","coordinates":[[-73.000761,4.509272],[-73.000761,4.509109]]}},{"type":"Feature","properties":{"linea":"19-4-63","parcela":"19-4","palmas":3},"geometry":{"type":"LineString","coordinates":[[-73.000831,4.509232],[-73.000831,4.509069]]}},{"type":"Feature","properties":{"linea":"19-5-1","parcela":"19-5","palmas":4},"geometry":{"type":"LineString","coordinates":[[-73.00323,4.508916],[-73.00323,4.508672]]}},{"type":"Feature","properties":{"linea":"19-5-2","parcela":"19-5","palmas":7},"geometry":{"type":"LineString","coordinates":[[-73.0033,4.508957],[-73.003301,4.508468]]}},{"type":"Feature","properties":{"linea":"19-5-3","parcela":"19-5","palmas":8},"geometry":{"type":"LineString","coordinates":[[-73.003371,4.508672],[-73.003371,4.508102]]}},{"type":"Feature","properties":{"linea":"19-5-4","parcela":"19-5","palmas":20},"geometry":{"type":"LineString","coordinates":[[-73.00344,4.508957],[-73.003443,4.507411]]}},{"type":"Feature","properties":{"linea":"19-5-5","parcela":"19-5","palmas":27},"geometry":{"type":"LineString","coordinates":[[-73.003511,4.508916],[-73.003514,4.506801]]}},{"type":"Feature","properties":{"linea":"19-5-6","parcela":"19-5","palmas":27},"geometry":{"type":"LineString","coordinates":[[-73.003581,4.508957],[-73.003584,4.506841]]}},{"type":"Feature","properties":{"linea":"19-5-7","parcela":"19-5","palmas":27},"geometry":{"type":"LineString","coordinates":[[-73.003651,4.508916],[-73.003654,4.506801]]}},{"type":"Feature","properties":{"linea":"19-5-8","parcela":"19-5","palmas":27},"geometry":{"type":"LineString","coordinates":[[-73.003721,4.508957],[-73.003724,4.506842]]}},{"type":"Feature","properties":{"linea":"19-5-9","parcela":"19-5","palmas":27},"geometry":{"type":"LineString","coordinates":[[-73.003791,4.508917],[-73.003794,4.506801]]}},{"type":"Feature","properties":{"linea":"19-5-10","parcela":"19-5","palmas":27},"geometry":{"type":"LineString","coordinates":[[-73.003862,4.508958],[-73.003865,4.506842]]}},{"type":"Feature","properties":{"linea":"19-5-11","parcela":"19-5","palmas":27},"geometry":{"type":"LineString","coordinates":[[-73.003932,4.508917],[-73.003935,4.506801]]}},{"type":"Feature","properties":{"linea":"19-5-12","parcela":"19-5","palmas":27},"geometry":{"type":"LineString","coordinates":[[-73.004002,4.508958],[-73.004005,4.506842]]}},{"type":"Feature","properties":{"linea":"19-5-13","parcela":"19-5","palmas":27},"geometry":{"type":"LineString","coordinates":[[-73.004072,4.508917],[-73.004076,4.506801]]}},{"type":"Feature","properties":{"linea":"19-5-14","parcela":"19-5","palmas":27},"geometry":{"type":"LineString","coordinates":[[-73.004143,4.508958],[-73.004146,4.506842]]}},{"type":"Feature","properties":{"linea":"19-5-15","parcela":"19-5","palmas":27},"geometry":{"type":"LineString","coordinates":[[-73.004213,4.508917],[-73.004216,4.506802]]}},{"type":"Feature","properties":{"linea":"19-5-16","parcela":"19-5","palmas":27},"geometry":{"type":"LineString","coordinates":[[-73.004283,4.508958],[-73.004286,4.506843]]}},{"type":"Feature","properties":{"linea":"19-5-17","parcela":"19-5","palmas":27},"geometry":{"type":"LineString","coordinates":[[-73.004353,4.508917],[-73.004356,4.506802]]}},{"type":"Feature","properties":{"linea":"19-5-18","parcela":"19-5","palmas":27},"geometry":{"type":"LineString","coordinates":[[-73.004423,4.508958],[-73.004426,4.506843]]}},{"type":"Feature","properties":{"linea":"19-5-19","parcela":"19-5","palmas":27},"geometry":{"type":"LineString","coordinates":[[-73.004494,4.508918],[-73.004497,4.506802]]}},{"type":"Feature","properties":{"linea":"19-5-20","parcela":"19-5","palmas":27},"geometry":{"type":"LineString","coordinates":[[-73.004564,4.508959],[-73.004567,4.506843]]}},{"type":"Feature","properties":{"linea":"19-5-21","parcela":"19-5","palmas":27},"geometry":{"type":"LineString","coordinates":[[-73.004634,4.508918],[-73.004637,4.506802]]}},{"type":"Feature","properties":{"linea":"19-5-22","parcela":"19-5","palmas":27},"geometry":{"type":"LineString","coordinates":[[-73.004704,4.508959],[-73.004707,4.506843]]}},{"type":"Feature","properties":{"linea":"19-5-23","parcela":"19-5","palmas":27},"geometry":{"type":"LineString","coordinates":[[-73.004774,4.508918],[-73.004778,4.506803]]}},{"type":"Feature","properties":{"linea":"19-5-24","parcela":"19-5","palmas":27},"geometry":{"type":"LineString","coordinates":[[-73.004845,4.508959],[-73.004848,4.506843]]}},{"type":"Feature","properties":{"linea":"19-5-25","parcela":"19-5","palmas":27},"geometry":{"type":"LineString","coordinates":[[-73.004915,4.508918],[-73.004918,4.506803]]}},{"type":"Feature","properties":{"linea":"19-5-26","parcela":"19-5","palmas":27},"geometry":{"type":"LineString","coordinates":[[-73.004985,4.508959],[-73.004988,4.506843]]}},{"type":"Feature","properties":{"linea":"19-5-27","parcela":"19-5","palmas":27},"geometry":{"type":"LineString","coordinates":[[-73.005055,4.508919],[-73.005059,4.506803]]}},{"type":"Feature","properties":{"linea":"19-5-28","parcela":"19-5","palmas":27},"geometry":{"type":"LineString","coordinates":[[-73.005126,4.508959],[-73.005129,4.506844]]}},{"type":"Feature","properties":{"linea":"19-5-29","parcela":"19-5","palmas":27},"geometry":{"type":"LineString","coordinates":[[-73.005196,4.508919],[-73.005199,4.506803]]}},{"type":"Feature","properties":{"linea":"19-5-30","parcela":"19-5","palmas":27},"geometry":{"type":"LineString","coordinates":[[-73.005266,4.508959],[-73.005269,4.506844]]}},{"type":"Feature","properties":{"linea":"19-5-31","parcela":"19-5","palmas":27},"geometry":{"type":"LineString","coordinates":[[-73.005336,4.508919],[-73.005339,4.506803]]}},{"type":"Feature","properties":{"linea":"19-5-32","parcela":"19-5","palmas":27},"geometry":{"type":"LineString","coordinates":[[-73.005406,4.50896],[-73.005409,4.506844]]}},{"type":"Feature","properties":{"linea":"19-5-33","parcela":"19-5","palmas":27},"geometry":{"type":"LineString","coordinates":[[-73.005477,4.508919],[-73.00548,4.506804]]}},{"type":"Feature","properties":{"linea":"19-5-34","parcela":"19-5","palmas":27},"geometry":{"type":"LineString","coordinates":[[-73.005547,4.50896],[-73.00555,4.506844]]}},{"type":"Feature","properties":{"linea":"19-5-35","parcela":"19-5","palmas":27},"geometry":{"type":"LineString","coordinates":[[-73.005617,4.508919],[-73.00562,4.506804]]}},{"type":"Feature","properties":{"linea":"19-5-36","parcela":"19-5","palmas":27},"geometry":{"type":"LineString","coordinates":[[-73.005687,4.50896],[-73.00569,4.506844]]}},{"type":"Feature","properties":{"linea":"19-5-37","parcela":"19-5","palmas":27},"geometry":{"type":"LineString","coordinates":[[-73.005758,4.50892],[-73.005761,4.506804]]}},{"type":"Feature","properties":{"linea":"19-5-38","parcela":"19-5","palmas":27},"geometry":{"type":"LineString","coordinates":[[-73.005828,4.50896],[-73.005831,4.506845]]}},{"type":"Feature","properties":{"linea":"19-5-39","parcela":"19-5","palmas":27},"geometry":{"type":"LineString","coordinates":[[-73.005898,4.50892],[-73.005901,4.506804]]}},{"type":"Feature","properties":{"linea":"19-5-40","parcela":"19-5","palmas":27},"geometry":{"type":"LineString","coordinates":[[-73.005968,4.508961],[-73.005971,4.506845]]}},{"type":"Feature","properties":{"linea":"19-5-41","parcela":"19-5","palmas":27},"geometry":{"type":"LineString","coordinates":[[-73.006038,4.50892],[-73.006041,4.506804]]}},{"type":"Feature","properties":{"linea":"19-5-42","parcela":"19-5","palmas":27},"geometry":{"type":"LineString","coordinates":[[-73.006109,4.508961],[-73.006112,4.506845]]}},{"type":"Feature","properties":{"linea":"19-5-43","parcela":"19-5","palmas":27},"geometry":{"type":"LineString","coordinates":[[-73.006179,4.50892],[-73.006182,4.506804]]}},{"type":"Feature","properties":{"linea":"19-5-44","parcela":"19-5","palmas":27},"geometry":{"type":"LineString","coordinates":[[-73.006249,4.508961],[-73.006252,4.506845]]}},{"type":"Feature","properties":{"linea":"19-5-45","parcela":"19-5","palmas":27},"geometry":{"type":"LineString","coordinates":[[-73.006319,4.508921],[-73.006322,4.506805]]}},{"type":"Feature","properties":{"linea":"19-5-46","parcela":"19-5","palmas":27},"geometry":{"type":"LineString","coordinates":[[-73.006389,4.508961],[-73.006393,4.506846]]}},{"type":"Feature","properties":{"linea":"19-5-47","parcela":"19-5","palmas":27},"geometry":{"type":"LineString","coordinates":[[-73.00646,4.508921],[-73.006463,4.506805]]}},{"type":"Feature","properties":{"linea":"19-5-48","parcela":"19-5","palmas":26},"geometry":{"type":"LineString","coordinates":[[-73.00653,4.50888],[-73.006533,4.506846]]}},{"type":"Feature","properties":{"linea":"19-5-49","parcela":"19-5","palmas":27},"geometry":{"type":"LineString","coordinates":[[-73.0066,4.508921],[-73.006603,4.506805]]}},{"type":"Feature","properties":{"linea":"19-5-50","parcela":"19-5","palmas":26},"geometry":{"type":"LineString","coordinates":[[-73.006671,4.50888],[-73.006673,4.506846]]}},{"type":"Feature","properties":{"linea":"19-5-51","parcela":"19-5","palmas":26},"geometry":{"type":"LineString","coordinates":[[-73.006741,4.50884],[-73.006744,4.506805]]}},{"type":"Feature","properties":{"linea":"19-5-52","parcela":"19-5","palmas":25},"geometry":{"type":"LineString","coordinates":[[-73.006811,4.508799],[-73.006814,4.506846]]}},{"type":"Feature","properties":{"linea":"19-5-53","parcela":"19-5","palmas":25},"geometry":{"type":"LineString","coordinates":[[-73.006881,4.50884],[-73.006884,4.506887]]}},{"type":"Feature","properties":{"linea":"19-5-54","parcela":"19-5","palmas":24},"geometry":{"type":"LineString","coordinates":[[-73.006951,4.508799],[-73.006954,4.506928]]}},{"type":"Feature","properties":{"linea":"19-5-55","parcela":"19-5","palmas":23},"geometry":{"type":"LineString","coordinates":[[-73.007022,4.508759],[-73.007024,4.506969]]}},{"type":"Feature","properties":{"linea":"19-5-56","parcela":"19-5","palmas":23},"geometry":{"type":"LineString","coordinates":[[-73.007092,4.508799],[-73.007094,4.507009]]}},{"type":"Feature","properties":{"linea":"19-5-57","parcela":"19-5","palmas":21},"geometry":{"type":"LineString","coordinates":[[-73.007162,4.508678],[-73.007165,4.50705]]}},{"type":"Feature","properties":{"linea":"19-5-58","parcela":"19-5","palmas":20},"geometry":{"type":"LineString","coordinates":[[-73.007233,4.508637],[-73.007235,4.507091]]}},{"type":"Feature","properties":{"linea":"19-5-59","parcela":"19-5","palmas":14},"geometry":{"type":"LineString","coordinates":[[-73.007303,4.508515],[-73.007305,4.507132]]}},{"type":"Feature","properties":{"linea":"19-6-1","parcela":"19-6","palmas":2},"geometry":{"type":"LineString","coordinates":[[-72.998725,4.508912],[-72.998726,4.508831]]}},{"type":"Feature","properties":{"linea":"19-6-2","parcela":"19-6","palmas":3},"geometry":{"type":"LineString","coordinates":[[-72.998796,4.508953],[-72.998796,4.50879]]}},{"type":"Feature","properties":{"linea":"19-6-3","parcela":"19-6","palmas":3},"geometry":{"type":"LineString","coordinates":[[-72.998866,4.508912],[-72.998866,4.508749]]}},{"type":"Feature","properties":{"linea":"19-6-4","parcela":"19-6","palmas":5},"geometry":{"type":"LineString","coordinates":[[-72.998936,4.508953],[-72.998936,4.508628]]}},{"type":"Feature","properties":{"linea":"19-6-5","parcela":"19-6","palmas":5},"geometry":{"type":"LineString","coordinates":[[-72.999006,4.508913],[-72.999007,4.508587]]}},{"type":"Feature","properties":{"linea":"19-6-6","parcela":"19-6","palmas":6},"geometry":{"type":"LineString","coordinates":[[-72.999076,4.508953],[-72.999077,4.508546]]}},{"type":"Feature","properties":{"linea":"19-6-7","parcela":"19-6","palmas":7},"geometry":{"type":"LineString","coordinates":[[-72.999147,4.508913],[-72.999147,4.508424]]}},{"type":"Feature","properties":{"linea":"19-6-8","parcela":"19-6","palmas":9},"geometry":{"type":"LineString","coordinates":[[-72.999217,4.508953],[-72.999218,4.508303]]}},{"type":"Feature","properties":{"linea":"19-6-9","parcela":"19-6","palmas":9},"geometry":{"type":"LineString","coordinates":[[-72.999287,4.508913],[-72.999288,4.508262]]}},{"type":"Feature","properties":{"linea":"19-6-10","parcela":"19-6","palmas":10},"geometry":{"type":"LineString","coordinates":[[-72.999357,4.508954],[-72.999358,4.508221]]}},{"type":"Feature","properties":{"linea":"19-6-11","parcela":"19-6","palmas":10},"geometry":{"type":"LineString","coordinates":[[-72.999427,4.508913],[-72.999429,4.508181]]}},{"type":"Feature","properties":{"linea":"19-6-12","parcela":"19-6","palmas":12},"geometry":{"type":"LineString","coordinates":[[-72.999498,4.508954],[-72.999499,4.508059]]}},{"type":"Feature","properties":{"linea":"19-6-13","parcela":"19-6","palmas":12},"geometry":{"type":"LineString","coordinates":[[-72.999568,4.508913],[-72.999569,4.508018]]}},{"type":"Feature","properties":{"linea":"19-6-14","parcela":"19-6","palmas":13},"geometry":{"type":"LineString","coordinates":[[-72.999638,4.508954],[-72.999639,4.507977]]}},{"type":"Feature","properties":{"linea":"19-6-15","parcela":"19-6","palmas":14},"geometry":{"type":"LineString","coordinates":[[-72.999708,4.508914],[-72.99971,4.507856]]}},{"type":"Feature","properties":{"linea":"19-6-16","parcela":"19-6","palmas":15},"geometry":{"type":"LineString","coordinates":[[-72.999779,4.508954],[-72.99978,4.507815]]}},{"type":"Feature","properties":{"linea":"19-6-17","parcela":"19-6","palmas":16},"geometry":{"type":"LineString","coordinates":[[-72.999849,4.508914],[-72.999851,4.507693]]}},{"type":"Feature","properties":{"linea":"19-6-18","parcela":"19-6","palmas":17},"geometry":{"type":"LineString","coordinates":[[-72.999919,4.508954],[-72.999921,4.507652]]}},{"type":"Feature","properties":{"linea":"19-6-19","parcela":"19-6","palmas":17},"geometry":{"type":"LineString","coordinates":[[-72.999989,4.508914],[-72.999991,4.507612]]}},{"type":"Feature","properties":{"linea":"19-6-20","parcela":"19-6","palmas":19},"geometry":{"type":"LineString","coordinates":[[-73.000059,4.508955],[-73.000062,4.50749]]}},{"type":"Feature","properties":{"linea":"19-6-21","parcela":"19-6","palmas":19},"geometry":{"type":"LineString","coordinates":[[-73.00013,4.508914],[-73.000132,4.507449]]}},{"type":"Feature","properties":{"linea":"19-6-22","parcela":"19-6","palmas":21},"geometry":{"type":"LineString","coordinates":[[-73.0002,4.508955],[-73.000202,4.507327]]}},{"type":"Feature","properties":{"linea":"19-6-23","parcela":"19-6","palmas":21},"geometry":{"type":"LineString","coordinates":[[-73.00027,4.508914],[-73.000272,4.507287]]}},{"type":"Feature","properties":{"linea":"19-6-24","parcela":"19-6","palmas":22},"geometry":{"type":"LineString","coordinates":[[-73.00034,4.508955],[-73.000343,4.507246]]}},{"type":"Feature","properties":{"linea":"19-6-25","parcela":"19-6","palmas":23},"geometry":{"type":"LineString","coordinates":[[-73.000411,4.508914],[-73.000413,4.507124]]}},{"type":"Feature","properties":{"linea":"19-6-26","parcela":"19-6","palmas":24},"geometry":{"type":"LineString","coordinates":[[-73.000481,4.508955],[-73.000483,4.507084]]}},{"type":"Feature","properties":{"linea":"19-6-27","parcela":"19-6","palmas":21},"geometry":{"type":"LineString","coordinates":[[-73.000551,4.508915],[-73.000554,4.507043]]}},{"type":"Feature","properties":{"linea":"19-6-28","parcela":"19-6","palmas":21},"geometry":{"type":"LineString","coordinates":[[-73.000621,4.508956],[-73.000624,4.506921]]}},{"type":"Feature","properties":{"linea":"19-6-29","parcela":"19-6","palmas":22},"geometry":{"type":"LineString","coordinates":[[-73.000691,4.508915],[-73.000694,4.506799]]}},{"type":"Feature","properties":{"linea":"19-6-30","parcela":"19-6","palmas":21},"geometry":{"type":"LineString","coordinates":[[-73.000762,4.508956],[-73.000765,4.50684]]}},{"type":"Feature","properties":{"linea":"19-6-31","parcela":"19-6","palmas":20},"geometry":{"type":"LineString","coordinates":[[-73.000832,4.508915],[-73.000835,4.506799]]}},{"type":"Feature","properties":{"linea":"19-6-32","parcela":"19-6","palmas":19},"geometry":{"type":"LineString","coordinates":[[-73.000902,4.508956],[-73.000905,4.50684]]}},{"type":"Feature","properties":{"linea":"19-6-33","parcela":"19-6","palmas":16},"geometry":{"type":"LineString","coordinates":[[-73.000974,4.50802],[-73.000975,4.5068]]}},{"type":"Feature","properties":{"linea":"19-6-34","parcela":"19-6","palmas":15},"geometry":{"type":"LineString","coordinates":[[-73.001044,4.50798],[-73.001046,4.506841]]}},{"type":"Feature","properties":{"linea":"19-6-35","parcela":"19-6","palmas":15},"geometry":{"type":"LineString","coordinates":[[-73.001114,4.507939],[-73.001116,4.5068]]}},{"type":"Feature","properties":{"linea":"19-6-36","parcela":"19-6","palmas":8},"geometry":{"type":"LineString","coordinates":[[-73.001185,4.50741],[-73.001186,4.506841]]}},{"type":"Feature","properties":{"linea":"19-6-37","parcela":"19-6","palmas":8},"geometry":{"type":"LineString","coordinates":[[-73.001255,4.50737],[-73.001256,4.5068]]}},{"type":"Feature","properties":{"linea":"19-6-38","parcela":"19-6","palmas":7},"geometry":{"type":"LineString","coordinates":[[-73.001326,4.507329],[-73.001326,4.506841]]}},{"type":"Feature","properties":{"linea":"19-6-39","parcela":"19-6","palmas":7},"geometry":{"type":"LineString","coordinates":[[-73.001396,4.507289],[-73.001397,4.5068]]}},{"type":"Feature","properties":{"linea":"19-6-40","parcela":"19-6","palmas":6},"geometry":{"type":"LineString","coordinates":[[-73.001466,4.507248],[-73.001467,4.506841]]}},{"type":"Feature","properties":{"linea":"19-6-41","parcela":"19-6","palmas":5},"geometry":{"type":"LineString","coordinates":[[-73.001537,4.507126],[-73.001537,4.506801]]}},{"type":"Feature","properties":{"linea":"19-6-42","parcela":"19-6","palmas":4},"geometry":{"type":"LineString","coordinates":[[-73.001607,4.507086],[-73.001607,4.506841]]}},{"type":"Feature","properties":{"linea":"19-6-43","parcela":"19-6","palmas":4},"geometry":{"type":"LineString","coordinates":[[-73.001677,4.507045],[-73.001677,4.506801]]}},{"type":"Feature","properties":{"linea":"19-6-44","parcela":"19-6","palmas":3},"geometry":{"type":"LineString","coordinates":[[-73.001747,4.507004],[-73.001748,4.506842]]}},{"type":"Feature","properties":{"linea":"19-6-45","parcela":"19-6","palmas":3},"geometry":{"type":"LineString","coordinates":[[-73.001818,4.506964],[-73.001818,4.506801]]}},{"type":"Feature","properties":{"linea":"19-6-46","parcela":"19-6","palmas":3},"geometry":{"type":"LineString","coordinates":[[-73.001888,4.507004],[-73.001888,4.506842]]}},{"type":"Feature","properties":{"linea":"19-6-47","parcela":"19-6","palmas":2},"geometry":{"type":"LineString","coordinates":[[-73.001958,4.506882],[-73.001958,4.506801]]}},{"type":"Feature","properties":{"linea":"19-7-1","parcela":"19-7","palmas":3},"geometry":{"type":"LineString","coordinates":[[-73.003389,4.504679],[-73.003389,4.504516]]}},{"type":"Feature","properties":{"linea":"19-7-2","parcela":"19-7","palmas":5},"geometry":{"type":"LineString","coordinates":[[-73.003458,4.504883],[-73.003459,4.504557]]}},{"type":"Feature","properties":{"linea":"19-7-3","parcela":"19-7","palmas":9},"geometry":{"type":"LineString","coordinates":[[-73.003528,4.505168],[-73.003529,4.504517]]}},{"type":"Feature","properties":{"linea":"19-7-4","parcela":"19-7","palmas":19},"geometry":{"type":"LineString","coordinates":[[-73.003596,4.506673],[-73.003599,4.504557]]}},{"type":"Feature","properties":{"linea":"19-7-5","parcela":"19-7","palmas":27},"geometry":{"type":"LineString","coordinates":[[-73.003667,4.506633],[-73.00367,4.504517]]}},{"type":"Feature","properties":{"linea":"19-7-6","parcela":"19-7","palmas":27},"geometry":{"type":"LineString","coordinates":[[-73.003737,4.506673],[-73.00374,4.504558]]}},{"type":"Feature","properties":{"linea":"19-7-7","parcela":"19-7","palmas":27},"geometry":{"type":"LineString","coordinates":[[-73.003807,4.506633],[-73.00381,4.504517]]}},{"type":"Feature","properties":{"linea":"19-7-8","parcela":"19-7","palmas":27},"geometry":{"type":"LineString","coordinates":[[-73.003877,4.506674],[-73.00388,4.504558]]}},{"type":"Feature","properties":{"linea":"19-7-9","parcela":"19-7","palmas":27},"geometry":{"type":"LineString","coordinates":[[-73.003947,4.506633],[-73.003951,4.504517]]}},{"type":"Feature","properties":{"linea":"19-7-10","parcela":"19-7","palmas":27},"geometry":{"type":"LineString","coordinates":[[-73.004018,4.506674],[-73.004021,4.504558]]}},{"type":"Feature","properties":{"linea":"19-7-11","parcela":"19-7","palmas":27},"geometry":{"type":"LineString","coordinates":[[-73.004088,4.506633],[-73.004091,4.504518]]}},{"type":"Feature","properties":{"linea":"19-7-12","parcela":"19-7","palmas":27},"geometry":{"type":"LineString","coordinates":[[-73.004158,4.506674],[-73.004161,4.504558]]}},{"type":"Feature","properties":{"linea":"19-7-13","parcela":"19-7","palmas":27},"geometry":{"type":"LineString","coordinates":[[-73.004228,4.506633],[-73.004231,4.504518]]}},{"type":"Feature","properties":{"linea":"19-7-14","parcela":"19-7","palmas":27},"geometry":{"type":"LineString","coordinates":[[-73.004298,4.506674],[-73.004302,4.504559]]}},{"type":"Feature","properties":{"linea":"19-7-15","parcela":"19-7","palmas":27},"geometry":{"type":"LineString","coordinates":[[-73.004369,4.506634],[-73.004372,4.504518]]}},{"type":"Feature","properties":{"linea":"19-7-16","parcela":"19-7","palmas":27},"geometry":{"type":"LineString","coordinates":[[-73.004439,4.506674],[-73.004442,4.504559]]}},{"type":"Feature","properties":{"linea":"19-7-17","parcela":"19-7","palmas":27},"geometry":{"type":"LineString","coordinates":[[-73.004509,4.506634],[-73.004512,4.504518]]}},{"type":"Feature","properties":{"linea":"19-7-18","parcela":"19-7","palmas":27},"geometry":{"type":"LineString","coordinates":[[-73.004579,4.506675],[-73.004582,4.504559]]}},{"type":"Feature","properties":{"linea":"19-7-19","parcela":"19-7","palmas":27},"geometry":{"type":"LineString","coordinates":[[-73.004649,4.506634],[-73.004653,4.504518]]}},{"type":"Feature","properties":{"linea":"19-7-20","parcela":"19-7","palmas":27},"geometry":{"type":"LineString","coordinates":[[-73.00472,4.506675],[-73.004723,4.504559]]}},{"type":"Feature","properties":{"linea":"19-7-21","parcela":"19-7","palmas":27},"geometry":{"type":"LineString","coordinates":[[-73.00479,4.506634],[-73.004793,4.504519]]}},{"type":"Feature","properties":{"linea":"19-7-22","parcela":"19-7","palmas":27},"geometry":{"type":"LineString","coordinates":[[-73.00486,4.506675],[-73.004863,4.504559]]}},{"type":"Feature","properties":{"linea":"19-7-23","parcela":"19-7","palmas":18},"geometry":{"type":"LineString","coordinates":[[-73.004931,4.506634],[-73.004932,4.505251]]}},{"type":"Feature","properties":{"linea":"19-7-24","parcela":"19-7","palmas":17},"geometry":{"type":"LineString","coordinates":[[-73.005001,4.506675],[-73.005003,4.505373]]}},{"type":"Feature","properties":{"linea":"19-7-25","parcela":"19-7","palmas":15},"geometry":{"type":"LineString","coordinates":[[-73.005071,4.506635],[-73.005072,4.505496]]}},{"type":"Feature","properties":{"linea":"19-7-26","parcela":"19-7","palmas":13},"geometry":{"type":"LineString","coordinates":[[-73.005141,4.506676],[-73.005143,4.505699]]}},{"type":"Feature","properties":{"linea":"19-7-27","parcela":"19-7","palmas":12},"geometry":{"type":"LineString","coordinates":[[-73.005211,4.506635],[-73.005212,4.50574]]}},{"type":"Feature","properties":{"linea":"19-7-28","parcela":"19-7","palmas":12},"geometry":{"type":"LineString","coordinates":[[-73.005281,4.506676],[-73.005283,4.505781]]}},{"type":"Feature","properties":{"linea":"19-7-29","parcela":"19-7","palmas":11},"geometry":{"type":"LineString","coordinates":[[-73.005352,4.506635],[-73.005353,4.505821]]}},{"type":"Feature","properties":{"linea":"19-7-30","parcela":"19-7","palmas":11},"geometry":{"type":"LineString","coordinates":[[-73.005422,4.506676],[-73.005423,4.505862]]}},{"type":"Feature","properties":{"linea":"19-7-31","parcela":"19-7","palmas":10},"geometry":{"type":"LineString","coordinates":[[-73.005492,4.506635],[-73.005493,4.505903]]}},{"type":"Feature","properties":{"linea":"19-7-32","parcela":"19-7","palmas":9},"geometry":{"type":"LineString","coordinates":[[-73.005562,4.506676],[-73.005563,4.506025]]}},{"type":"Feature","properties":{"linea":"19-7-33","parcela":"19-7","palmas":8},"geometry":{"type":"LineString","coordinates":[[-73.005633,4.506636],[-73.005633,4.506066]]}},{"type":"Feature","properties":{"linea":"19-7-34","parcela":"19-7","palmas":8},"geometry":{"type":"LineString","coordinates":[[-73.005703,4.506676],[-73.005704,4.506107]]}},{"type":"Feature","properties":{"linea":"19-7-35","parcela":"19-7","palmas":7},"geometry":{"type":"LineString","coordinates":[[-73.005773,4.506636],[-73.005774,4.506147]]}},{"type":"Feature","properties":{"linea":"19-7-36","parcela":"19-7","palmas":6},"geometry":{"type":"LineString","coordinates":[[-73.005843,4.506676],[-73.005844,4.50627]]}},{"type":"Feature","properties":{"linea":"19-7-37","parcela":"19-7","palmas":5},"geometry":{"type":"LineString","coordinates":[[-73.005914,4.506636],[-73.005914,4.50631]]}},{"type":"Feature","properties":{"linea":"19-7-38","parcela":"19-7","palmas":4},"geometry":{"type":"LineString","coordinates":[[-73.005984,4.506677],[-73.005984,4.506432]]}},{"type":"Feature","properties":{"linea":"19-7-39","parcela":"19-7","palmas":3},"geometry":{"type":"LineString","coordinates":[[-73.006054,4.506636],[-73.006054,4.506473]]}},{"type":"Feature","properties":{"linea":"19-7-40","parcela":"19-7","palmas":3},"geometry":{"type":"LineString","coordinates":[[-73.006124,4.506677],[-73.006124,4.506514]]}},{"type":"Feature","properties":{"linea":"19-7-41","parcela":"19-7","palmas":2},"geometry":{"type":"LineString","coordinates":[[-73.006194,4.506636],[-73.006194,4.506555]]}},{"type":"Feature","properties":{"linea":"19-7-42","parcela":"19-7","palmas":2},"geometry":{"type":"LineString","coordinates":[[-73.006264,4.506677],[-73.006265,4.506596]]}},{"type":"Feature","properties":{"linea":"19-7-43","parcela":"19-7","palmas":2},"geometry":{"type":"LineString","coordinates":[[-73.006335,4.506636],[-73.006335,4.506555]]}},{"type":"Feature","properties":{"linea":"19-7-44","parcela":"19-7","palmas":2},"geometry":{"type":"LineString","coordinates":[[-73.006405,4.506677],[-73.006405,4.506596]]}},{"type":"Feature","properties":{"linea":"19-8-1","parcela":"19-8","palmas":2},"geometry":{"type":"LineString","coordinates":[[-73.000981,4.506631],[-73.000981,4.50655]]}},{"type":"Feature","properties":{"linea":"19-8-2","parcela":"19-8","palmas":3},"geometry":{"type":"LineString","coordinates":[[-73.001051,4.506672],[-73.001052,4.506509]]}},{"type":"Feature","properties":{"linea":"19-8-3","parcela":"19-8","palmas":4},"geometry":{"type":"LineString","coordinates":[[-73.001122,4.506631],[-73.001122,4.506387]]}},{"type":"Feature","properties":{"linea":"19-8-4","parcela":"19-8","palmas":5},"geometry":{"type":"LineString","coordinates":[[-73.001192,4.506672],[-73.001193,4.506347]]}},{"type":"Feature","properties":{"linea":"19-8-5","parcela":"19-8","palmas":6},"geometry":{"type":"LineString","coordinates":[[-73.001262,4.506632],[-73.001263,4.506225]]}},{"type":"Feature","properties":{"linea":"19-8-6","parcela":"19-8","palmas":7},"geometry":{"type":"LineString","coordinates":[[-73.001333,4.506672],[-73.001333,4.506184]]}},{"type":"Feature","properties":{"linea":"19-8-7","parcela":"19-8","palmas":7},"geometry":{"type":"LineString","coordinates":[[-73.001403,4.506632],[-73.001403,4.506144]]}},{"type":"Feature","properties":{"linea":"19-8-8","parcela":"19-8","palmas":9},"geometry":{"type":"LineString","coordinates":[[-73.001473,4.506672],[-73.001474,4.506022]]}},{"type":"Feature","properties":{"linea":"19-8-9","parcela":"19-8","palmas":9},"geometry":{"type":"LineString","coordinates":[[-73.001543,4.506632],[-73.001544,4.505981]]}},{"type":"Feature","properties":{"linea":"19-8-10","parcela":"19-8","palmas":10},"geometry":{"type":"LineString","coordinates":[[-73.001613,4.506673],[-73.001614,4.505941]]}},{"type":"Feature","properties":{"linea":"19-8-11","parcela":"19-8","palmas":11},"geometry":{"type":"LineString","coordinates":[[-73.001684,4.506632],[-73.001685,4.505819]]}},{"type":"Feature","properties":{"linea":"19-8-12","parcela":"19-8","palmas":12},"geometry":{"type":"LineString","coordinates":[[-73.001754,4.506673],[-73.001755,4.505778]]}},{"type":"Feature","properties":{"linea":"19-8-13","parcela":"19-8","palmas":13},"geometry":{"type":"LineString","coordinates":[[-73.001824,4.506633],[-73.001825,4.505656]]}},{"type":"Feature","properties":{"linea":"19-8-14","parcela":"19-8","palmas":14},"geometry":{"type":"LineString","coordinates":[[-73.001894,4.506673],[-73.001896,4.505616]]}},{"type":"Feature","properties":{"linea":"19-8-15","parcela":"19-8","palmas":14},"geometry":{"type":"LineString","coordinates":[[-73.001964,4.506633],[-73.001966,4.505575]]}},{"type":"Feature","properties":{"linea":"19-8-16","parcela":"19-8","palmas":16},"geometry":{"type":"LineString","coordinates":[[-73.002034,4.506673],[-73.002036,4.505453]]}},{"type":"Feature","properties":{"linea":"19-8-17","parcela":"19-8","palmas":16},"geometry":{"type":"LineString","coordinates":[[-73.002105,4.506633],[-73.002107,4.505412]]}},{"type":"Feature","properties":{"linea":"19-8-18","parcela":"19-8","palmas":18},"geometry":{"type":"LineString","coordinates":[[-73.002175,4.506674],[-73.002177,4.50529]]}},{"type":"Feature","properties":{"linea":"19-8-19","parcela":"19-8","palmas":18},"geometry":{"type":"LineString","coordinates":[[-73.002245,4.506633],[-73.002247,4.50525]]}},{"type":"Feature","properties":{"linea":"19-8-20","parcela":"19-8","palmas":18},"geometry":{"type":"LineString","coordinates":[[-73.002316,4.506593],[-73.002318,4.505209]]}},{"type":"Feature","properties":{"linea":"19-8-21","parcela":"19-8","palmas":10},"geometry":{"type":"LineString","coordinates":[[-73.002386,4.506471],[-73.002387,4.505657]]}},{"type":"Feature","properties":{"linea":"19-9-1","parcela":"19-9","palmas":2},"geometry":{"type":"LineString","coordinates":[[-73.002405,4.501988],[-73.002405,4.501906]]}},{"type":"Feature","properties":{"linea":"19-9-2","parcela":"19-9","palmas":5},"geometry":{"type":"LineString","coordinates":[[-73.002475,4.502191],[-73.002476,4.501866]]}},{"type":"Feature","properties":{"linea":"19-9-3","parcela":"19-9","palmas":6},"geometry":{"type":"LineString","coordinates":[[-73.002545,4.502314],[-73.002546,4.501907]]}},{"type":"Feature","properties":{"linea":"19-9-4","parcela":"19-9","palmas":8},"geometry":{"type":"LineString","coordinates":[[-73.002615,4.502436],[-73.002616,4.501866]]}},{"type":"Feature","properties":{"linea":"19-9-5","parcela":"19-9","palmas":10},"geometry":{"type":"LineString","coordinates":[[-73.002685,4.502558],[-73.002686,4.501826]]}},{"type":"Feature","properties":{"linea":"19-9-6","parcela":"19-9","palmas":12},"geometry":{"type":"LineString","coordinates":[[-73.002755,4.502761],[-73.002756,4.501866]]}},{"type":"Feature","properties":{"linea":"19-9-7","parcela":"19-9","palmas":14},"geometry":{"type":"LineString","coordinates":[[-73.002825,4.502965],[-73.002827,4.501826]]}},{"type":"Feature","properties":{"linea":"19-9-8","parcela":"19-9","palmas":16},"geometry":{"type":"LineString","coordinates":[[-73.002895,4.503087],[-73.002897,4.501867]]}},{"type":"Feature","properties":{"linea":"19-9-9","parcela":"19-9","palmas":19},"geometry":{"type":"LineString","coordinates":[[-73.002965,4.503291],[-73.002967,4.501826]]}},{"type":"Feature","properties":{"linea":"19-9-10","parcela":"19-9","palmas":22},"geometry":{"type":"LineString","coordinates":[[-73.003035,4.503494],[-73.003038,4.501785]]}},{"type":"Feature","properties":{"linea":"19-9-11","parcela":"19-9","palmas":24},"geometry":{"type":"LineString","coordinates":[[-73.003105,4.503698],[-73.003107,4.501826]]}},{"type":"Feature","properties":{"linea":"19-9-12","parcela":"19-9","palmas":27},"geometry":{"type":"LineString","coordinates":[[-73.003175,4.503901],[-73.003178,4.501786]]}},{"type":"Feature","properties":{"linea":"19-9-13","parcela":"19-9","palmas":32},"geometry":{"type":"LineString","coordinates":[[-73.003244,4.504268],[-73.003248,4.501745]]}},{"type":"Feature","properties":{"linea":"19-9-14","parcela":"19-9","palmas":33},"geometry":{"type":"LineString","coordinates":[[-73.003314,4.50439],[-73.003318,4.501786]]}},{"type":"Feature","properties":{"linea":"19-9-15","parcela":"19-9","palmas":33},"geometry":{"type":"LineString","coordinates":[[-73.003385,4.504349],[-73.003389,4.501745]]}},{"type":"Feature","properties":{"linea":"19-9-16","parcela":"19-9","palmas":33},"geometry":{"type":"LineString","coordinates":[[-73.003455,4.50439],[-73.003459,4.501786]]}},{"type":"Feature","properties":{"linea":"19-9-17","parcela":"19-9","palmas":33},"geometry":{"type":"LineString","coordinates":[[-73.003525,4.504349],[-73.003529,4.501746]]}},{"type":"Feature","properties":{"linea":"19-9-18","parcela":"19-9","palmas":34},"geometry":{"type":"LineString","coordinates":[[-73.003595,4.50439],[-73.003599,4.501705]]}},{"type":"Feature","properties":{"linea":"19-9-19","parcela":"19-9","palmas":33},"geometry":{"type":"LineString","coordinates":[[-73.003666,4.50435],[-73.003669,4.501746]]}},{"type":"Feature","properties":{"linea":"19-9-20","parcela":"19-9","palmas":34},"geometry":{"type":"LineString","coordinates":[[-73.003736,4.50439],[-73.00374,4.501705]]}},{"type":"Feature","properties":{"linea":"19-9-21","parcela":"19-9","palmas":33},"geometry":{"type":"LineString","coordinates":[[-73.003806,4.50435],[-73.00381,4.501746]]}},{"type":"Feature","properties":{"linea":"19-9-22","parcela":"19-9","palmas":34},"geometry":{"type":"LineString","coordinates":[[-73.003876,4.504391],[-73.00388,4.501705]]}},{"type":"Feature","properties":{"linea":"19-9-23","parcela":"19-9","palmas":34},"geometry":{"type":"LineString","coordinates":[[-73.003946,4.50435],[-73.003951,4.501665]]}},{"type":"Feature","properties":{"linea":"19-9-24","parcela":"19-9","palmas":34},"geometry":{"type":"LineString","coordinates":[[-73.004017,4.504391],[-73.004021,4.501706]]}},{"type":"Feature","properties":{"linea":"19-9-25","parcela":"19-9","palmas":34},"geometry":{"type":"LineString","coordinates":[[-73.004087,4.50435],[-73.004091,4.501665]]}},{"type":"Feature","properties":{"linea":"19-9-26","parcela":"19-9","palmas":34},"geometry":{"type":"LineString","coordinates":[[-73.004157,4.504391],[-73.004161,4.501706]]}},{"type":"Feature","properties":{"linea":"19-9-27","parcela":"19-9","palmas":34},"geometry":{"type":"LineString","coordinates":[[-73.004227,4.504351],[-73.004231,4.501665]]}},{"type":"Feature","properties":{"linea":"19-9-28","parcela":"19-9","palmas":35},"geometry":{"type":"LineString","coordinates":[[-73.004298,4.504391],[-73.004302,4.501624]]}},{"type":"Feature","properties":{"linea":"19-9-29","parcela":"19-9","palmas":34},"geometry":{"type":"LineString","coordinates":[[-73.004368,4.504351],[-73.004372,4.501665]]}},{"type":"Feature","properties":{"linea":"19-9-30","parcela":"19-9","palmas":35},"geometry":{"type":"LineString","coordinates":[[-73.004438,4.504391],[-73.004442,4.501625]]}},{"type":"Feature","properties":{"linea":"19-9-31","parcela":"19-9","palmas":35},"geometry":{"type":"LineString","coordinates":[[-73.004508,4.504351],[-73.004512,4.501584]]}},{"type":"Feature","properties":{"linea":"19-9-32","parcela":"19-9","palmas":35},"geometry":{"type":"LineString","coordinates":[[-73.004578,4.504392],[-73.004582,4.501625]]}},{"type":"Feature","properties":{"linea":"19-9-33","parcela":"19-9","palmas":35},"geometry":{"type":"LineString","coordinates":[[-73.004649,4.504351],[-73.004653,4.501584]]}},{"type":"Feature","properties":{"linea":"19-9-34","parcela":"19-9","palmas":35},"geometry":{"type":"LineString","coordinates":[[-73.004719,4.504392],[-73.004723,4.501625]]}},{"type":"Feature","properties":{"linea":"19-9-35","parcela":"19-9","palmas":35},"geometry":{"type":"LineString","coordinates":[[-73.004789,4.504351],[-73.004793,4.501584]]}},{"type":"Feature","properties":{"linea":"19-9-36","parcela":"19-9","palmas":32},"geometry":{"type":"LineString","coordinates":[[-73.004859,4.504392],[-73.004863,4.501625]]}},{"type":"Feature","properties":{"linea":"19-9-37","parcela":"19-9","palmas":27},"geometry":{"type":"LineString","coordinates":[[-73.00493,4.504189],[-73.004934,4.501585]]}},{"type":"Feature","properties":{"linea":"19-9-38","parcela":"19-9","palmas":19},"geometry":{"type":"LineString","coordinates":[[-73.005,4.504067],[-73.005002,4.502602]]}},{"type":"Feature","properties":{"linea":"19-9-39","parcela":"19-9","palmas":16},"geometry":{"type":"LineString","coordinates":[[-73.005071,4.503945],[-73.005072,4.502724]]}},{"type":"Feature","properties":{"linea":"19-9-40","parcela":"19-9","palmas":14},"geometry":{"type":"LineString","coordinates":[[-73.005141,4.503823],[-73.005143,4.502765]]}},{"type":"Feature","properties":{"linea":"19-9-41","parcela":"19-9","palmas":12},"geometry":{"type":"LineString","coordinates":[[-73.005211,4.503701],[-73.005213,4.502806]]}},{"type":"Feature","properties":{"linea":"19-9-42","parcela":"19-9","palmas":10},"geometry":{"type":"LineString","coordinates":[[-73.005282,4.50366],[-73.005283,4.502928]]}},{"type":"Feature","properties":{"linea":"19-9-43","parcela":"19-9","palmas":9},"geometry":{"type":"LineString","coordinates":[[-73.005352,4.50362],[-73.005353,4.502969]]}},{"type":"Feature","properties":{"linea":"19-9-44","parcela":"19-9","palmas":6},"geometry":{"type":"LineString","coordinates":[[-73.005422,4.503498],[-73.005423,4.503091]]}}]}