{"type":"FeatureCollection","features":[{"type":"Feature","properties":{"clase":"parcela","texto":"P.1","cod_bp":"B.1-P.1"},"geometry":{"type":"Point","coordinates":[-72.973755,4.517159]}},{"type":"Feature","properties":{"clase":"parcela","texto":"P.2","cod_bp":"B.1-P.2"},"geometry":{"type":"Point","coordinates":[-72.969998,4.514838]}},{"type":"Feature","properties":{"clase":"parcela","texto":"P.3","cod_bp":"B.1-P.3"},"geometry":{"type":"Point","coordinates":[-72.971032,4.520357]}},{"type":"Feature","properties":{"clase":"parcela","texto":"P.4","cod_bp":"B.1-P.4"},"geometry":{"type":"Point","coordinates":[-72.968935,4.523726]}},{"type":"Feature","properties":{"clase":"parcela","texto":"P.5","cod_bp":"B.1-P.5"},"geometry":{"type":"Point","coordinates":[-72.966529,4.520632]}},{"type":"Feature","properties":{"clase":"parcela","texto":"P.6","cod_bp":"B.1-P.6"},"geometry":{"type":"Point","coordinates":[-72.964067,4.516871]}},{"type":"Feature","properties":{"clase":"parcela","texto":"P.1","cod_bp":"B.10-P.1"},"geometry":{"type":"Point","coordinates":[-72.996973,4.470172]}},{"type":"Feature","properties":{"clase":"parcela","texto":"P.10","cod_bp":"B.10-P.10"},"geometry":{"type":"Point","coordinates":[-72.99722,4.44668]}},{"type":"Feature","properties":{"clase":"parcela","texto":"P.2","cod_bp":"B.10-P.2"},"geometry":{"type":"Point","coordinates":[-72.996898,4.467305]}},{"type":"Feature","properties":{"clase":"parcela","texto":"P.3","cod_bp":"B.10-P.3"},"geometry":{"type":"Point","coordinates":[-72.997671,4.464822]}},{"type":"Feature","properties":{"clase":"parcela","texto":"P.4","cod_bp":"B.10-P.4"},"geometry":{"type":"Point","coordinates":[-72.996705,4.462404]}},{"type":"Feature","properties":{"clase":"parcela","texto":"P.5","cod_bp":"B.10-P.5"},"geometry":{"type":"Point","coordinates":[-73.000583,4.459719]}},{"type":"Feature","properties":{"clase":"parcela","texto":"P.6","cod_bp":"B.10-P.6"},"geometry":{"type":"Point","coordinates":[-72.996512,4.457451]}},{"type":"Feature","properties":{"clase":"parcela","texto":"P.7","cod_bp":"B.10-P.7"},"geometry":{"type":"Point","coordinates":[-72.996553,4.454966]}},{"type":"Feature","properties":{"clase":"parcela","texto":"P.8","cod_bp":"B.10-P.8"},"geometry":{"type":"Point","coordinates":[-73.000318,4.452279]}},{"type":"Feature","properties":{"clase":"parcela","texto":"P.9","cod_bp":"B.10-P.9"},"geometry":{"type":"Point","coordinates":[-72.99567,4.450393]}},{"type":"Feature","properties":{"clase":"parcela","texto":"P.1","cod_bp":"B.11-P.1"},"geometry":{"type":"Point","coordinates":[-72.973665,4.453306]}},{"type":"Feature","properties":{"clase":"parcela","texto":"P.10","cod_bp":"B.11-P.10"},"geometry":{"type":"Point","coordinates":[-72.980124,4.439861]}},{"type":"Feature","properties":{"clase":"parcela","texto":"P.11","cod_bp":"B.11-P.11"},"geometry":{"type":"Point","coordinates":[-72.980899,4.443664]}},{"type":"Feature","properties":{"clase":"parcela","texto":"P.12","cod_bp":"B.11-P.12"},"geometry":{"type":"Point","coordinates":[-72.9788,4.443304]}},{"type":"Feature","properties":{"clase":"parcela","texto":"P.13","cod_bp":"B.11-P.13"},"geometry":{"type":"Point","coordinates":[-72.976275,4.441434]}},{"type":"Feature","properties":{"clase":"parcela","texto":"P.14","cod_bp":"B.11-P.14"},"geometry":{"type":"Point","coordinates":[-72.975397,4.444153]}},{"type":"Feature","properties":{"clase":"parcela","texto":"P.15","cod_bp":"B.11-P.15"},"geometry":{"type":"Point","coordinates":[-72.972917,4.442473]}},{"type":"Feature","properties":{"clase":"parcela","texto":"P.16","cod_bp":"B.11-P.16"},"geometry":{"type":"Point","coordinates":[-72.971737,4.439933]}},{"type":"Feature","properties":{"clase":"parcela","texto":"P.17","cod_bp":"B.11-P.17"},"geometry":{"type":"Point","coordinates":[-72.976417,4.431294]}},{"type":"Feature","properties":{"clase":"parcela","texto":"P.19","cod_bp":"B.11-P.19"},"geometry":{"type":"Point","coordinates":[-72.973232,4.430776]}},{"type":"Feature","properties":{"clase":"parcela","texto":"P.2","cod_bp":"B.11-P.2"},"geometry":{"type":"Point","coordinates":[-72.973528,4.446151]}},{"type":"Feature","properties":{"clase":"parcela","texto":"P.20","cod_bp":"B.11-P.20"},"geometry":{"type":"Point","coordinates":[-72.971997,4.427681]}},{"type":"Feature","properties":{"clase":"parcela","texto":"P.21","cod_bp":"B.11-P.21"},"geometry":{"type":"Point","coordinates":[-72.96858,4.430027]}},{"type":"Feature","properties":{"clase":"parcela","texto":"P.22","cod_bp":"B.11-P.22"},"geometry":{"type":"Point","coordinates":[-72.966561,4.435061]}},{"type":"Feature","properties":{"clase":"parcela","texto":"P.23","cod_bp":"B.11-P.23"},"geometry":{"type":"Point","coordinates":[-72.974559,4.43432]}},{"type":"Feature","properties":{"clase":"parcela","texto":"P.24","cod_bp":"B.11-P.24"},"geometry":{"type":"Point","coordinates":[-72.970087,4.433583]}},{"type":"Feature","properties":{"clase":"parcela","texto":"P.25","cod_bp":"B.11-P.25"},"geometry":{"type":"Point","coordinates":[-72.970994,4.43623]}},{"type":"Feature","properties":{"clase":"parcela","texto":"P.26","cod_bp":"B.11-P.26"},"geometry":{"type":"Point","coordinates":[-72.9768,4.427823]}},{"type":"Feature","properties":{"clase":"parcela","texto":"P.27","cod_bp":"B.11-P.27"},"geometry":{"type":"Point","coordinates":[-72.993156,4.451102]}},{"type":"Feature","properties":{"clase":"parcela","texto":"P.3","cod_bp":"B.11-P.3"},"geometry":{"type":"Point","coordinates":[-72.975554,4.447671]}},{"type":"Feature","properties":{"clase":"parcela","texto":"P.37","cod_bp":"B.11-P.37"},"geometry":{"type":"Point","coordinates":[-72.979778,4.429335]}},{"type":"Feature","properties":{"clase":"parcela","texto":"P.4","cod_bp":"B.11-P.4"},"geometry":{"type":"Point","coordinates":[-72.977718,4.448778]}},{"type":"Feature","properties":{"clase":"parcela","texto":"P.5","cod_bp":"B.11-P.5"},"geometry":{"type":"Point","coordinates":[-72.979298,4.451698]}},{"type":"Feature","properties":{"clase":"parcela","texto":"P.6","cod_bp":"B.11-P.6"},"geometry":{"type":"Point","coordinates":[-72.981165,4.449125]}},{"type":"Feature","properties":{"clase":"parcela","texto":"P.60","cod_bp":"B.11-P.60"},"geometry":{"type":"Point","coordinates":[-72.988942,4.456106]}},{"type":"Feature","properties":{"clase":"parcela","texto":"P.7","cod_bp":"B.11-P.7"},"geometry":{"type":"Point","coordinates":[-72.983423,4.44697]}},{"type":"Feature","properties":{"clase":"parcela","texto":"P.9","cod_bp":"B.11-P.9"},"geometry":{"type":"Point","coordinates":[-72.98351,4.443045]}},{"type":"Feature","properties":{"clase":"parcela","texto":"P.1","cod_bp":"B.12-P.1"},"geometry":{"type":"Point","coordinates":[-72.989056,4.442827]}},{"type":"Feature","properties":{"clase":"parcela","texto":"P.2","cod_bp":"B.12-P.2"},"geometry":{"type":"Point","coordinates":[-72.989249,4.441254]}},{"type":"Feature","properties":{"clase":"parcela","texto":"P.3","cod_bp":"B.12-P.3"},"geometry":{"type":"Point","coordinates":[-72.989151,4.440035]}},{"type":"Feature","properties":{"clase":"parcela","texto":"P.4","cod_bp":"B.12-P.4"},"geometry":{"type":"Point","coordinates":[-72.987649,4.438853]}},{"type":"Feature","properties":{"clase":"parcela","texto":"P.5","cod_bp":"B.12-P.5"},"geometry":{"type":"Point","coordinates":[-72.985312,4.437051]}},{"type":"Feature","properties":{"clase":"parcela","texto":"P.6","cod_bp":"B.12-P.6"},"geometry":{"type":"Point","coordinates":[-72.98646,4.434606]}},{"type":"Feature","properties":{"clase":"parcela","texto":"P.7","cod_bp":"B.12-P.7"},"geometry":{"type":"Point","coordinates":[-72.985518,4.43255]}},{"type":"Feature","properties":{"clase":"parcela","texto":"P.8","cod_bp":"B.12-P.8"},"geometry":{"type":"Point","coordinates":[-72.983156,4.432201]}},{"type":"Feature","properties":{"clase":"parcela","texto":"P.9","cod_bp":"B.12-P.9"},"geometry":{"type":"Point","coordinates":[-72.982196,4.42986]}},{"type":"Feature","properties":{"clase":"parcela","texto":"P.1","cod_bp":"B.13-P.1"},"geometry":{"type":"Point","coordinates":[-72.991502,4.467881]}},{"type":"Feature","properties":{"clase":"parcela","texto":"P.10","cod_bp":"B.13-P.10"},"geometry":{"type":"Point","coordinates":[-72.986964,4.45094]}},{"type":"Feature","properties":{"clase":"parcela","texto":"P.2","cod_bp":"B.13-P.2"},"geometry":{"type":"Point","coordinates":[-72.994294,4.467785]}},{"type":"Feature","properties":{"clase":"parcela","texto":"P.3","cod_bp":"B.13-P.3"},"geometry":{"type":"Point","coordinates":[-72.992318,4.462355]}},{"type":"Feature","properties":{"clase":"parcela","texto":"P.4","cod_bp":"B.13-P.4"},"geometry":{"type":"Point","coordinates":[-72.994223,4.460098]}},{"type":"Feature","properties":{"clase":"parcela","texto":"P.5","cod_bp":"B.13-P.5"},"geometry":{"type":"Point","coordinates":[-72.992471,4.457971]}},{"type":"Feature","properties":{"clase":"parcela","texto":"P.6","cod_bp":"B.13-P.6"},"geometry":{"type":"Point","coordinates":[-72.988629,4.466202]}},{"type":"Feature","properties":{"clase":"parcela","texto":"P.7","cod_bp":"B.13-P.7"},"geometry":{"type":"Point","coordinates":[-72.986852,4.462466]}},{"type":"Feature","properties":{"clase":"parcela","texto":"P.8","cod_bp":"B.13-P.8"},"geometry":{"type":"Point","coordinates":[-72.987827,4.458699]}},{"type":"Feature","properties":{"clase":"parcela","texto":"P.9","cod_bp":"B.13-P.9"},"geometry":{"type":"Point","coordinates":[-72.993602,4.455965]}},{"type":"Feature","properties":{"clase":"parcela","texto":"P.1","cod_bp":"B.14-P.1"},"geometry":{"type":"Point","coordinates":[-72.979672,4.533499]}},{"type":"Feature","properties":{"clase":"parcela","texto":"P.10","cod_bp":"B.14-P.10"},"geometry":{"type":"Point","coordinates":[-72.975583,4.530167]}},{"type":"Feature","properties":{"clase":"parcela","texto":"P.11","cod_bp":"B.14-P.11"},"geometry":{"type":"Point","coordinates":[-72.974945,4.528214]}},{"type":"Feature","properties":{"clase":"parcela","texto":"P.12","cod_bp":"B.14-P.12"},"geometry":{"type":"Point","coordinates":[-72.975855,4.525593]}},{"type":"Feature","properties":{"clase":"parcela","texto":"P.13","cod_bp":"B.14-P.13"},"geometry":{"type":"Point","coordinates":[-72.973957,4.530814]}},{"type":"Feature","properties":{"clase":"parcela","texto":"P.14","cod_bp":"B.14-P.14"},"geometry":{"type":"Point","coordinates":[-72.972997,4.524875]}},{"type":"Feature","properties":{"clase":"parcela","texto":"P.15","cod_bp":"B.14-P.15"},"geometry":{"type":"Point","coordinates":[-72.973418,4.522281]}},{"type":"Feature","properties":{"clase":"parcela","texto":"P.16","cod_bp":"B.14-P.16"},"geometry":{"type":"Point","coordinates":[-72.977371,4.518859]}},{"type":"Feature","properties":{"clase":"parcela","texto":"P.17","cod_bp":"B.14-P.17"},"geometry":{"type":"Point","coordinates":[-72.972421,4.533319]}},{"type":"Feature","properties":{"clase":"parcela","texto":"P.18","cod_bp":"B.14-P.18"},"geometry":{"type":"Point","coordinates":[-72.97068,4.531074]}},{"type":"Feature","properties":{"clase":"parcela","texto":"P.19","cod_bp":"B.14-P.19"},"geometry":{"type":"Point","coordinates":[-72.97141,4.528854]}},{"type":"Feature","properties":{"clase":"parcela","texto":"P.2","cod_bp":"B.14-P.2"},"geometry":{"type":"Point","coordinates":[-72.979733,4.53147]}},{"type":"Feature","properties":{"clase":"parcela","texto":"P.20","cod_bp":"B.14-P.20"},"geometry":{"type":"Point","coordinates":[-72.970286,4.526417]}},{"type":"Feature","properties":{"clase":"parcela","texto":"P.3","cod_bp":"B.14-P.3"},"geometry":{"type":"Point","coordinates":[-72.979098,4.52952]}},{"type":"Feature","properties":{"clase":"parcela","texto":"P.4","cod_bp":"B.14-P.4"},"geometry":{"type":"Point","coordinates":[-72.982856,4.526776]}},{"type":"Feature","properties":{"clase":"parcela","texto":"P.5","cod_bp":"B.14-P.5"},"geometry":{"type":"Point","coordinates":[-72.978568,4.525489]}},{"type":"Feature","properties":{"clase":"parcela","texto":"P.6","cod_bp":"B.14-P.6"},"geometry":{"type":"Point","coordinates":[-72.982267,4.522754]}},{"type":"Feature","properties":{"clase":"parcela","texto":"P.7","cod_bp":"B.14-P.7"},"geometry":{"type":"Point","coordinates":[-72.980701,4.52074]}},{"type":"Feature","properties":{"clase":"parcela","texto":"P.8","cod_bp":"B.14-P.8"},"geometry":{"type":"Point","coordinates":[-72.975594,4.53452]}},{"type":"Feature","properties":{"clase":"parcela","texto":"P.9","cod_bp":"B.14-P.9"},"geometry":{"type":"Point","coordinates":[-72.977307,4.531934]}},{"type":"Feature","properties":{"clase":"parcela","texto":"P.1","cod_bp":"B.15-P.1"},"geometry":{"type":"Point","coordinates":[-72.964075,4.528001]}},{"type":"Feature","properties":{"clase":"parcela","texto":"P.2","cod_bp":"B.15-P.2"},"geometry":{"type":"Point","coordinates":[-72.961431,4.528647]}},{"type":"Feature","properties":{"clase":"parcela","texto":"P.3","cod_bp":"B.15-P.3"},"geometry":{"type":"Point","coordinates":[-72.959977,4.532159]}},{"type":"Feature","properties":{"clase":"parcela","texto":"P.4","cod_bp":"B.15-P.4"},"geometry":{"type":"Point","coordinates":[-72.958566,4.528351]}},{"type":"Feature","properties":{"clase":"parcela","texto":"P.5","cod_bp":"B.15-P.5"},"geometry":{"type":"Point","coordinates":[-72.956295,4.528467]}},{"type":"Feature","properties":{"clase":"parcela","texto":"P.6","cod_bp":"B.15-P.6"},"geometry":{"type":"Point","coordinates":[-72.963522,4.524589]}},{"type":"Feature","properties":{"clase":"parcela","texto":"P.7","cod_bp":"B.15-P.7"},"geometry":{"type":"Point","coordinates":[-72.963411,4.521987]}},{"type":"Feature","properties":{"clase":"parcela","texto":"P.8","cod_bp":"B.15-P.8"},"geometry":{"type":"Point","coordinates":[-72.961434,4.521097]}},{"type":"Feature","properties":{"clase":"parcela","texto":"P.1","cod_bp":"B.16-P.1"},"geometry":{"type":"Point","coordinates":[-72.96681,4.428682]}},{"type":"Feature","properties":{"clase":"parcela","texto":"P.2","cod_bp":"B.16-P.2"},"geometry":{"type":"Point","coordinates":[-72.968499,4.427374]}},{"type":"Feature","properties":{"clase":"parcela","texto":"P.3 / P.4 / P.8","cod_bp":"B.16-P.3 / P.4 / P.8"},"geometry":{"type":"Point","coordinates":[-72.96905,4.424807]}},{"type":"Feature","properties":{"clase":"parcela","texto":"P.6","cod_bp":"B.16-P.6"},"geometry":{"type":"Point","coordinates":[-72.970339,4.42219]}},{"type":"Feature","properties":{"clase":"parcela","texto":"P.7","cod_bp":"B.16-P.7"},"geometry":{"type":"Point","coordinates":[-72.971688,4.422427]}},{"type":"Feature","properties":{"clase":"parcela","texto":"P.1","cod_bp":"B.17-P.1"},"geometry":{"type":"Point","coordinates":[-72.953647,4.535772]}},{"type":"Feature","properties":{"clase":"parcela","texto":"P.2","cod_bp":"B.17-P.2"},"geometry":{"type":"Point","coordinates":[-72.954537,4.531665]}},{"type":"Feature","properties":{"clase":"parcela","texto":"P.3","cod_bp":"B.17-P.3"},"geometry":{"type":"Point","coordinates":[-72.954273,4.534006]}},{"type":"Feature","properties":{"clase":"parcela","texto":"P.4","cod_bp":"B.17-P.4"},"geometry":{"type":"Point","coordinates":[-72.950503,4.532849]}},{"type":"Feature","properties":{"clase":"parcela","texto":"P.5","cod_bp":"B.17-P.5"},"geometry":{"type":"Point","coordinates":[-72.951335,4.531007]}},{"type":"Feature","properties":{"clase":"parcela","texto":"P.6","cod_bp":"B.17-P.6"},"geometry":{"type":"Point","coordinates":[-72.952395,4.528217]}},{"type":"Feature","properties":{"clase":"parcela","texto":"P.7","cod_bp":"B.17-P.7"},"geometry":{"type":"Point","coordinates":[-72.94699,4.530572]}},{"type":"Feature","properties":{"clase":"parcela","texto":"P.1","cod_bp":"B.18-P.1"},"geometry":{"type":"Point","coordinates":[-72.983643,4.516013]}},{"type":"Feature","properties":{"clase":"parcela","texto":"P.2","cod_bp":"B.18-P.2"},"geometry":{"type":"Point","coordinates":[-72.983086,4.518033]}},{"type":"Feature","properties":{"clase":"parcela","texto":"P.3","cod_bp":"B.18-P.3"},"geometry":{"type":"Point","coordinates":[-72.984406,4.519758]}},{"type":"Feature","properties":{"clase":"parcela","texto":"P.4","cod_bp":"B.18-P.4"},"geometry":{"type":"Point","coordinates":[-72.985574,4.526219]}},{"type":"Feature","properties":{"clase":"parcela","texto":"P.5","cod_bp":"B.18-P.5"},"geometry":{"type":"Point","coordinates":[-72.985955,4.516606]}},{"type":"Feature","properties":{"clase":"parcela","texto":"P.1 / P.3","cod_bp":"B.19-P.1 / P.3"},"geometry":{"type":"Point","coordinates":[-73.004041,4.510169]}},{"type":"Feature","properties":{"clase":"parcela","texto":"P.2","cod_bp":"B.19-P.2"},"geometry":{"type":"Point","coordinates":[-72.996587,4.512424]}},{"type":"Feature","properties":{"clase":"parcela","texto":"P.4","cod_bp":"B.19-P.4"},"geometry":{"type":"Point","coordinates":[-72.998868,4.510157]}},{"type":"Feature","properties":{"clase":"parcela","texto":"P.5","cod_bp":"B.19-P.5"},"geometry":{"type":"Point","coordinates":[-73.006267,4.507896]}},{"type":"Feature","properties":{"clase":"parcela","texto":"P.6","cod_bp":"B.19-P.6"},"geometry":{"type":"Point","coordinates":[-73.000037,4.508327]}},{"type":"Feature","properties":{"clase":"parcela","texto":"P.7","cod_bp":"B.19-P.7"},"geometry":{"type":"Point","coordinates":[-73.004427,4.505926]}},{"type":"Feature","properties":{"clase":"parcela","texto":"P.8","cod_bp":"B.19-P.8"},"geometry":{"type":"Point","coordinates":[-73.001934,4.506195]}},{"type":"Feature","properties":{"clase":"parcela","texto":"P.9","cod_bp":"B.19-P.9"},"geometry":{"type":"Point","coordinates":[-73.004166,4.503304]}},{"type":"Feature","properties":{"clase":"parcela","texto":"P.1","cod_bp":"B.2-P.1"},"geometry":{"type":"Point","coordinates":[-72.969903,4.484159]}},{"type":"Feature","properties":{"clase":"parcela","texto":"P.2","cod_bp":"B.2-P.2"},"geometry":{"type":"Point","coordinates":[-72.971088,4.490777]}},{"type":"Feature","properties":{"clase":"parcela","texto":"P.3","cod_bp":"B.2-P.3"},"geometry":{"type":"Point","coordinates":[-72.967501,4.495724]}},{"type":"Feature","properties":{"clase":"parcela","texto":"P.4","cod_bp":"B.2-P.4"},"geometry":{"type":"Point","coordinates":[-72.969757,4.492879]}},{"type":"Feature","properties":{"clase":"parcela","texto":"P.5","cod_bp":"B.2-P.5"},"geometry":{"type":"Point","coordinates":[-72.972683,4.495009]}},{"type":"Feature","properties":{"clase":"parcela","texto":"P.6","cod_bp":"B.2-P.6"},"geometry":{"type":"Point","coordinates":[-72.96793,4.499127]}},{"type":"Feature","properties":{"clase":"parcela","texto":"P.7","cod_bp":"B.2-P.7"},"geometry":{"type":"Point","coordinates":[-72.969962,4.503302]}},{"type":"Feature","properties":{"clase":"parcela","texto":"P.8","cod_bp":"B.2-P.8"},"geometry":{"type":"Point","coordinates":[-72.974273,4.492372]}},{"type":"Feature","properties":{"clase":"parcela","texto":"P.1","cod_bp":"B.20-P.1"},"geometry":{"type":"Point","coordinates":[-72.944008,4.529857]}},{"type":"Feature","properties":{"clase":"parcela","texto":"P.10","cod_bp":"B.20-P.10"},"geometry":{"type":"Point","coordinates":[-72.940751,4.509474]}},{"type":"Feature","properties":{"clase":"parcela","texto":"P.11","cod_bp":"B.20-P.11"},"geometry":{"type":"Point","coordinates":[-72.945231,4.507386]}},{"type":"Feature","properties":{"clase":"parcela","texto":"P.12","cod_bp":"B.20-P.12"},"geometry":{"type":"Point","coordinates":[-72.947961,4.504829]}},{"type":"Feature","properties":{"clase":"parcela","texto":"P.13","cod_bp":"B.20-P.13"},"geometry":{"type":"Point","coordinates":[-72.948794,4.523425]}},{"type":"Feature","properties":{"clase":"parcela","texto":"P.14","cod_bp":"B.20-P.14"},"geometry":{"type":"Point","coordinates":[-72.949347,4.521058]}},{"type":"Feature","properties":{"clase":"parcela","texto":"P.15","cod_bp":"B.20-P.15"},"geometry":{"type":"Point","coordinates":[-72.949434,4.518774]}},{"type":"Feature","properties":{"clase":"parcela","texto":"P.16","cod_bp":"B.20-P.16"},"geometry":{"type":"Point","coordinates":[-72.949082,4.516756]}},{"type":"Feature","properties":{"clase":"parcela","texto":"P.17","cod_bp":"B.20-P.17"},"geometry":{"type":"Point","coordinates":[-72.953517,4.519471]}},{"type":"Feature","properties":{"clase":"parcela","texto":"P.18","cod_bp":"B.20-P.18"},"geometry":{"type":"Point","coordinates":[-72.949817,4.503722]}},{"type":"Feature","properties":{"clase":"parcela","texto":"P.2","cod_bp":"B.20-P.2"},"geometry":{"type":"Point","coordinates":[-72.943109,4.527869]}},{"type":"Feature","properties":{"clase":"parcela","texto":"P.3","cod_bp":"B.20-P.3"},"geometry":{"type":"Point","coordinates":[-72.94393,4.525601]}},{"type":"Feature","properties":{"clase":"parcela","texto":"P.4","cod_bp":"B.20-P.4"},"geometry":{"type":"Point","coordinates":[-72.94637,4.523325]}},{"type":"Feature","properties":{"clase":"parcela","texto":"P.5","cod_bp":"B.20-P.5"},"geometry":{"type":"Point","coordinates":[-72.943021,4.521042]}},{"type":"Feature","properties":{"clase":"parcela","texto":"P.6","cod_bp":"B.20-P.6"},"geometry":{"type":"Point","coordinates":[-72.94498,4.518766]}},{"type":"Feature","properties":{"clase":"parcela","texto":"P.7","cod_bp":"B.20-P.7"},"geometry":{"type":"Point","coordinates":[-72.946306,4.51649]}},{"type":"Feature","properties":{"clase":"parcela","texto":"P.8","cod_bp":"B.20-P.8"},"geometry":{"type":"Point","coordinates":[-72.946706,4.514212]}},{"type":"Feature","properties":{"clase":"parcela","texto":"P.9","cod_bp":"B.20-P.9"},"geometry":{"type":"Point","coordinates":[-72.939279,4.511913]}},{"type":"Feature","properties":{"clase":"parcela","texto":"P.1","cod_bp":"B.21-P.1"},"geometry":{"type":"Point","coordinates":[-72.973843,4.455287]}},{"type":"Feature","properties":{"clase":"parcela","texto":"P.10","cod_bp":"B.21-P.10"},"geometry":{"type":"Point","coordinates":[-72.978602,4.456808]}},{"type":"Feature","properties":{"clase":"parcela","texto":"P.11","cod_bp":"B.21-P.11"},"geometry":{"type":"Point","coordinates":[-72.980334,4.454443]}},{"type":"Feature","properties":{"clase":"parcela","texto":"P.12","cod_bp":"B.21-P.12"},"geometry":{"type":"Point","coordinates":[-72.98491,4.456742]}},{"type":"Feature","properties":{"clase":"parcela","texto":"P.13","cod_bp":"B.21-P.13"},"geometry":{"type":"Point","coordinates":[-72.983657,4.454529]}},{"type":"Feature","properties":{"clase":"parcela","texto":"P.14","cod_bp":"B.21-P.14"},"geometry":{"type":"Point","coordinates":[-72.972817,4.461708]}},{"type":"Feature","properties":{"clase":"parcela","texto":"P.15","cod_bp":"B.21-P.15"},"geometry":{"type":"Point","coordinates":[-72.971875,4.459866]}},{"type":"Feature","properties":{"clase":"parcela","texto":"P.16","cod_bp":"B.21-P.16"},"geometry":{"type":"Point","coordinates":[-72.971829,4.457985]}},{"type":"Feature","properties":{"clase":"parcela","texto":"P.2","cod_bp":"B.21-P.2"},"geometry":{"type":"Point","coordinates":[-72.973489,4.457429]}},{"type":"Feature","properties":{"clase":"parcela","texto":"P.3","cod_bp":"B.21-P.3"},"geometry":{"type":"Point","coordinates":[-72.973625,4.459404]}},{"type":"Feature","properties":{"clase":"parcela","texto":"P.4","cod_bp":"B.21-P.4"},"geometry":{"type":"Point","coordinates":[-72.975923,4.454792]}},{"type":"Feature","properties":{"clase":"parcela","texto":"P.5","cod_bp":"B.21-P.5"},"geometry":{"type":"Point","coordinates":[-72.975506,4.456586]}},{"type":"Feature","properties":{"clase":"parcela","texto":"P.6","cod_bp":"B.21-P.6"},"geometry":{"type":"Point","coordinates":[-72.975091,4.458753]}},{"type":"Feature","properties":{"clase":"parcela","texto":"P.7","cod_bp":"B.21-P.7"},"geometry":{"type":"Point","coordinates":[-72.974728,4.461182]}},{"type":"Feature","properties":{"clase":"parcela","texto":"P.8","cod_bp":"B.21-P.8"},"geometry":{"type":"Point","coordinates":[-72.975898,4.460704]}},{"type":"Feature","properties":{"clase":"parcela","texto":"P.9","cod_bp":"B.21-P.9"},"geometry":{"type":"Point","coordinates":[-72.977156,4.459098]}},{"type":"Feature","properties":{"clase":"parcela","texto":"P.1","cod_bp":"B.231-P.1"},"geometry":{"type":"Point","coordinates":[-72.896651,4.394272]}},{"type":"Feature","properties":{"clase":"parcela","texto":"P.10","cod_bp":"B.231-P.10"},"geometry":{"type":"Point","coordinates":[-72.895853,4.411099]}},{"type":"Feature","properties":{"clase":"parcela","texto":"P.11","cod_bp":"B.231-P.11"},"geometry":{"type":"Point","coordinates":[-72.899284,4.412134]}},{"type":"Feature","properties":{"clase":"parcela","texto":"P.12","cod_bp":"B.231-P.12"},"geometry":{"type":"Point","coordinates":[-72.901597,4.415378]}},{"type":"Feature","properties":{"clase":"parcela","texto":"P.13","cod_bp":"B.231-P.13"},"geometry":{"type":"Point","coordinates":[-72.904914,4.418612]}},{"type":"Feature","properties":{"clase":"parcela","texto":"P.2","cod_bp":"B.231-P.2"},"geometry":{"type":"Point","coordinates":[-72.897262,4.398691]}},{"type":"Feature","properties":{"clase":"parcela","texto":"P.3","cod_bp":"B.231-P.3"},"geometry":{"type":"Point","coordinates":[-72.897846,4.402869]}},{"type":"Feature","properties":{"clase":"parcela","texto":"P.4","cod_bp":"B.231-P.4"},"geometry":{"type":"Point","coordinates":[-72.900383,4.407251]}},{"type":"Feature","properties":{"clase":"parcela","texto":"P.5","cod_bp":"B.231-P.5"},"geometry":{"type":"Point","coordinates":[-72.904998,4.411033]}},{"type":"Feature","properties":{"clase":"parcela","texto":"P.6","cod_bp":"B.231-P.6"},"geometry":{"type":"Point","coordinates":[-72.892915,4.395871]}},{"type":"Feature","properties":{"clase":"parcela","texto":"P.7","cod_bp":"B.231-P.7"},"geometry":{"type":"Point","coordinates":[-72.892969,4.397738]}},{"type":"Feature","properties":{"clase":"parcela","texto":"P.8","cod_bp":"B.231-P.8"},"geometry":{"type":"Point","coordinates":[-72.892831,4.402001]}},{"type":"Feature","properties":{"clase":"parcela","texto":"P.9","cod_bp":"B.231-P.9"},"geometry":{"type":"Point","coordinates":[-72.894808,4.407329]}},{"type":"Feature","properties":{"clase":"parcela","texto":"P.1","cod_bp":"B.3-P.1"},"geometry":{"type":"Point","coordinates":[-72.976109,4.483351]}},{"type":"Feature","properties":{"clase":"parcela","texto":"P.10","cod_bp":"B.3-P.10"},"geometry":{"type":"Point","coordinates":[-72.979135,4.513135]}},{"type":"Feature","properties":{"clase":"parcela","texto":"P.2","cod_bp":"B.3-P.2"},"geometry":{"type":"Point","coordinates":[-72.973385,4.487945]}},{"type":"Feature","properties":{"clase":"parcela","texto":"P.3","cod_bp":"B.3-P.3"},"geometry":{"type":"Point","coordinates":[-72.977404,4.489226]}},{"type":"Feature","properties":{"clase":"parcela","texto":"P.4","cod_bp":"B.3-P.4"},"geometry":{"type":"Point","coordinates":[-72.980512,4.492626]}},{"type":"Feature","properties":{"clase":"parcela","texto":"P.5","cod_bp":"B.3-P.5"},"geometry":{"type":"Point","coordinates":[-72.976554,4.498579]}},{"type":"Feature","properties":{"clase":"parcela","texto":"P.6","cod_bp":"B.3-P.6"},"geometry":{"type":"Point","coordinates":[-72.978031,4.502104]}},{"type":"Feature","properties":{"clase":"parcela","texto":"P.7","cod_bp":"B.3-P.7"},"geometry":{"type":"Point","coordinates":[-72.975321,4.504869]}},{"type":"Feature","properties":{"clase":"parcela","texto":"P.8","cod_bp":"B.3-P.8"},"geometry":{"type":"Point","coordinates":[-72.975341,4.509535]}},{"type":"Feature","properties":{"clase":"parcela","texto":"P.9","cod_bp":"B.3-P.9"},"geometry":{"type":"Point","coordinates":[-72.980136,4.501014]}},{"type":"Feature","properties":{"clase":"parcela","texto":"P.1","cod_bp":"B.30-P.1"},"geometry":{"type":"Point","coordinates":[-72.970795,4.416797]}},{"type":"Feature","properties":{"clase":"parcela","texto":"P.2","cod_bp":"B.30-P.2"},"geometry":{"type":"Point","coordinates":[-72.96894,4.412739]}},{"type":"Feature","properties":{"clase":"parcela","texto":"P.3","cod_bp":"B.30-P.3"},"geometry":{"type":"Point","coordinates":[-72.973048,4.41099]}},{"type":"Feature","properties":{"clase":"parcela","texto":"P.1","cod_bp":"B.31-P.1"},"geometry":{"type":"Point","coordinates":[-73.055789,4.408572]}},{"type":"Feature","properties":{"clase":"parcela","texto":"P.10","cod_bp":"B.31-P.10"},"geometry":{"type":"Point","coordinates":[-73.069237,4.424287]}},{"type":"Feature","properties":{"clase":"parcela","texto":"P.11","cod_bp":"B.31-P.11"},"geometry":{"type":"Point","coordinates":[-73.076851,4.419566]}},{"type":"Feature","properties":{"clase":"parcela","texto":"P.12","cod_bp":"B.31-P.12"},"geometry":{"type":"Point","coordinates":[-73.082503,4.424596]}},{"type":"Feature","properties":{"clase":"parcela","texto":"P.13","cod_bp":"B.31-P.13"},"geometry":{"type":"Point","coordinates":[-73.07687,4.426079]}},{"type":"Feature","properties":{"clase":"parcela","texto":"P.14","cod_bp":"B.31-P.14"},"geometry":{"type":"Point","coordinates":[-73.080538,4.427001]}},{"type":"Feature","properties":{"clase":"parcela","texto":"P.15","cod_bp":"B.31-P.15"},"geometry":{"type":"Point","coordinates":[-73.08683,4.427497]}},{"type":"Feature","properties":{"clase":"parcela","texto":"P.16","cod_bp":"B.31-P.16"},"geometry":{"type":"Point","coordinates":[-73.094528,4.421392]}},{"type":"Feature","properties":{"clase":"parcela","texto":"P.17","cod_bp":"B.31-P.17"},"geometry":{"type":"Point","coordinates":[-73.089015,4.421056]}},{"type":"Feature","properties":{"clase":"parcela","texto":"P.18","cod_bp":"B.31-P.18"},"geometry":{"type":"Point","coordinates":[-73.08751,4.416167]}},{"type":"Feature","properties":{"clase":"parcela","texto":"P.19","cod_bp":"B.31-P.19"},"geometry":{"type":"Point","coordinates":[-73.080886,4.41907]}},{"type":"Feature","properties":{"clase":"parcela","texto":"P.2","cod_bp":"B.31-P.2"},"geometry":{"type":"Point","coordinates":[-73.056941,4.399014]}},{"type":"Feature","properties":{"clase":"parcela","texto":"P.20","cod_bp":"B.31-P.20"},"geometry":{"type":"Point","coordinates":[-73.082682,4.413657]}},{"type":"Feature","properties":{"clase":"parcela","texto":"P.21","cod_bp":"B.31-P.21"},"geometry":{"type":"Point","coordinates":[-73.078817,4.410426]}},{"type":"Feature","properties":{"clase":"parcela","texto":"P.22","cod_bp":"B.31-P.22"},"geometry":{"type":"Point","coordinates":[-73.088465,4.412562]}},{"type":"Feature","properties":{"clase":"parcela","texto":"P.23","cod_bp":"B.31-P.23"},"geometry":{"type":"Point","coordinates":[-73.099512,4.423173]}},{"type":"Feature","properties":{"clase":"parcela","texto":"P.24","cod_bp":"B.31-P.24"},"geometry":{"type":"Point","coordinates":[-73.093539,4.412391]}},{"type":"Feature","properties":{"clase":"parcela","texto":"P.25","cod_bp":"B.31-P.25"},"geometry":{"type":"Point","coordinates":[-73.1013,4.410128]}},{"type":"Feature","properties":{"clase":"parcela","texto":"P.3","cod_bp":"B.31-P.3"},"geometry":{"type":"Point","coordinates":[-73.051769,4.400306]}},{"type":"Feature","properties":{"clase":"parcela","texto":"P.4","cod_bp":"B.31-P.4"},"geometry":{"type":"Point","coordinates":[-73.045697,4.402645]}},{"type":"Feature","properties":{"clase":"parcela","texto":"P.5","cod_bp":"B.31-P.5"},"geometry":{"type":"Point","coordinates":[-73.046011,4.407553]}},{"type":"Feature","properties":{"clase":"parcela","texto":"P.6","cod_bp":"B.31-P.6"},"geometry":{"type":"Point","coordinates":[-73.046766,4.412628]}},{"type":"Feature","properties":{"clase":"parcela","texto":"P.7","cod_bp":"B.31-P.7"},"geometry":{"type":"Point","coordinates":[-73.050546,4.410116]}},{"type":"Feature","properties":{"clase":"parcela","texto":"P.8","cod_bp":"B.31-P.8"},"geometry":{"type":"Point","coordinates":[-73.053825,4.411996]}},{"type":"Feature","properties":{"clase":"parcela","texto":"P.9","cod_bp":"B.31-P.9"},"geometry":{"type":"Point","coordinates":[-73.053173,4.42008]}},{"type":"Feature","properties":{"clase":"parcela","texto":"P.1","cod_bp":"B.323-P.1"},"geometry":{"type":"Point","coordinates":[-72.986013,4.467897]}},{"type":"Feature","properties":{"clase":"parcela","texto":"P.10","cod_bp":"B.323-P.10"},"geometry":{"type":"Point","coordinates":[-72.983825,4.470612]}},{"type":"Feature","properties":{"clase":"parcela","texto":"P.11","cod_bp":"B.323-P.11"},"geometry":{"type":"Point","coordinates":[-72.978154,4.476107]}},{"type":"Feature","properties":{"clase":"parcela","texto":"P.2","cod_bp":"B.323-P.2"},"geometry":{"type":"Point","coordinates":[-72.983712,4.466169]}},{"type":"Feature","properties":{"clase":"parcela","texto":"P.3","cod_bp":"B.323-P.3"},"geometry":{"type":"Point","coordinates":[-72.982984,4.458142]}},{"type":"Feature","properties":{"clase":"parcela","texto":"P.4","cod_bp":"B.323-P.4"},"geometry":{"type":"Point","coordinates":[-72.980849,4.459203]}},{"type":"Feature","properties":{"clase":"parcela","texto":"P.5","cod_bp":"B.323-P.5"},"geometry":{"type":"Point","coordinates":[-72.978889,4.472104]}},{"type":"Feature","properties":{"clase":"parcela","texto":"P.6","cod_bp":"B.323-P.6"},"geometry":{"type":"Point","coordinates":[-72.976948,4.471635]}},{"type":"Feature","properties":{"clase":"parcela","texto":"P.7","cod_bp":"B.323-P.7"},"geometry":{"type":"Point","coordinates":[-72.975022,4.467415]}},{"type":"Feature","properties":{"clase":"parcela","texto":"P.8","cod_bp":"B.323-P.8"},"geometry":{"type":"Point","coordinates":[-72.972605,4.468779]}},{"type":"Feature","properties":{"clase":"parcela","texto":"P.9","cod_bp":"B.323-P.9"},"geometry":{"type":"Point","coordinates":[-72.980472,4.474085]}},{"type":"Feature","properties":{"clase":"parcela","texto":"P.1","cod_bp":"B.324-P.1"},"geometry":{"type":"Point","coordinates":[-72.956382,4.526233]}},{"type":"Feature","properties":{"clase":"parcela","texto":"P.2","cod_bp":"B.324-P.2"},"geometry":{"type":"Point","coordinates":[-72.955294,4.522332]}},{"type":"Feature","properties":{"clase":"parcela","texto":"P.3","cod_bp":"B.324-P.3"},"geometry":{"type":"Point","coordinates":[-72.956765,4.519396]}},{"type":"Feature","properties":{"clase":"parcela","texto":"P.4","cod_bp":"B.324-P.4"},"geometry":{"type":"Point","coordinates":[-72.958476,4.518391]}},{"type":"Feature","properties":{"clase":"parcela","texto":"P.5","cod_bp":"B.324-P.5"},"geometry":{"type":"Point","coordinates":[-72.959969,4.519469]}},{"type":"Feature","properties":{"clase":"parcela","texto":"P.7","cod_bp":"B.324-P.7"},"geometry":{"type":"Point","coordinates":[-72.958917,4.52276]}},{"type":"Feature","properties":{"clase":"parcela","texto":"P.8","cod_bp":"B.324-P.8"},"geometry":{"type":"Point","coordinates":[-72.958436,4.524765]}},{"type":"Feature","properties":{"clase":"parcela","texto":"P.1","cod_bp":"B.325-P.1"},"geometry":{"type":"Point","coordinates":[-72.951805,4.504988]}},{"type":"Feature","properties":{"clase":"parcela","texto":"P.2","cod_bp":"B.325-P.2"},"geometry":{"type":"Point","coordinates":[-72.958702,4.50422]}},{"type":"Feature","properties":{"clase":"parcela","texto":"P.3","cod_bp":"B.325-P.3"},"geometry":{"type":"Point","coordinates":[-72.959666,4.506194]}},{"type":"Feature","properties":{"clase":"parcela","texto":"P.4","cod_bp":"B.325-P.4"},"geometry":{"type":"Point","coordinates":[-72.953475,4.508402]}},{"type":"Feature","properties":{"clase":"parcela","texto":"P.5","cod_bp":"B.325-P.5"},"geometry":{"type":"Point","coordinates":[-72.963625,4.50518]}},{"type":"Feature","properties":{"clase":"parcela","texto":"P.1","cod_bp":"B.326-P.1"},"geometry":{"type":"Point","coordinates":[-72.972085,4.451512]}},{"type":"Feature","properties":{"clase":"parcela","texto":"P.2","cod_bp":"B.326-P.2"},"geometry":{"type":"Point","coordinates":[-72.968752,4.449796]}},{"type":"Feature","properties":{"clase":"parcela","texto":"P.1","cod_bp":"B.327-P.1"},"geometry":{"type":"Point","coordinates":[-72.934857,4.458925]}},{"type":"Feature","properties":{"clase":"parcela","texto":"P.2","cod_bp":"B.327-P.2"},"geometry":{"type":"Point","coordinates":[-72.938767,4.455083]}},{"type":"Feature","properties":{"clase":"parcela","texto":"P.3","cod_bp":"B.327-P.3"},"geometry":{"type":"Point","coordinates":[-72.939524,4.450935]}},{"type":"Feature","properties":{"clase":"parcela","texto":"P.4","cod_bp":"B.327-P.4"},"geometry":{"type":"Point","coordinates":[-72.936493,4.446591]}},{"type":"Feature","properties":{"clase":"parcela","texto":"P.5","cod_bp":"B.327-P.5"},"geometry":{"type":"Point","coordinates":[-72.93577,4.442553]}},{"type":"Feature","properties":{"clase":"parcela","texto":"P.6","cod_bp":"B.327-P.6"},"geometry":{"type":"Point","coordinates":[-72.931068,4.438189]}},{"type":"Feature","properties":{"clase":"parcela","texto":"P.7","cod_bp":"B.327-P.7"},"geometry":{"type":"Point","coordinates":[-72.942074,4.447701]}},{"type":"Feature","properties":{"clase":"parcela","texto":"P.1","cod_bp":"B.328-P.1"},"geometry":{"type":"Point","coordinates":[-72.978282,4.432621]}},{"type":"Feature","properties":{"clase":"parcela","texto":"P.2","cod_bp":"B.328-P.2"},"geometry":{"type":"Point","coordinates":[-72.979902,4.433684]}},{"type":"Feature","properties":{"clase":"parcela","texto":"P.1","cod_bp":"B.329-P.1"},"geometry":{"type":"Point","coordinates":[-72.931207,4.422908]}},{"type":"Feature","properties":{"clase":"parcela","texto":"P.10","cod_bp":"B.329-P.10"},"geometry":{"type":"Point","coordinates":[-72.92089,4.391133]}},{"type":"Feature","properties":{"clase":"parcela","texto":"P.11","cod_bp":"B.329-P.11"},"geometry":{"type":"Point","coordinates":[-72.913646,4.377999]}},{"type":"Feature","properties":{"clase":"parcela","texto":"P.12","cod_bp":"B.329-P.12"},"geometry":{"type":"Point","coordinates":[-72.921726,4.415004]}},{"type":"Feature","properties":{"clase":"parcela","texto":"P.13","cod_bp":"B.329-P.13"},"geometry":{"type":"Point","coordinates":[-72.917961,4.411541]}},{"type":"Feature","properties":{"clase":"parcela","texto":"P.14","cod_bp":"B.329-P.14"},"geometry":{"type":"Point","coordinates":[-72.925432,4.411446]}},{"type":"Feature","properties":{"clase":"parcela","texto":"P.15","cod_bp":"B.329-P.15"},"geometry":{"type":"Point","coordinates":[-72.923871,4.408863]}},{"type":"Feature","properties":{"clase":"parcela","texto":"P.16","cod_bp":"B.329-P.16"},"geometry":{"type":"Point","coordinates":[-72.916453,4.403742]}},{"type":"Feature","properties":{"clase":"parcela","texto":"P.17","cod_bp":"B.329-P.17"},"geometry":{"type":"Point","coordinates":[-72.917991,4.400066]}},{"type":"Feature","properties":{"clase":"parcela","texto":"P.18","cod_bp":"B.329-P.18"},"geometry":{"type":"Point","coordinates":[-72.915978,4.396616]}},{"type":"Feature","properties":{"clase":"parcela","texto":"P.19","cod_bp":"B.329-P.19"},"geometry":{"type":"Point","coordinates":[-72.91619,4.393295]}},{"type":"Feature","properties":{"clase":"parcela","texto":"P.2","cod_bp":"B.329-P.2"},"geometry":{"type":"Point","coordinates":[-72.931227,4.419538]}},{"type":"Feature","properties":{"clase":"parcela","texto":"P.20","cod_bp":"B.329-P.20"},"geometry":{"type":"Point","coordinates":[-72.917558,4.390126]}},{"type":"Feature","properties":{"clase":"parcela","texto":"P.21","cod_bp":"B.329-P.21"},"geometry":{"type":"Point","coordinates":[-72.914005,4.398676]}},{"type":"Feature","properties":{"clase":"parcela","texto":"P.22","cod_bp":"B.329-P.22"},"geometry":{"type":"Point","coordinates":[-72.916604,4.387742]}},{"type":"Feature","properties":{"clase":"parcela","texto":"P.23","cod_bp":"B.329-P.23"},"geometry":{"type":"Point","coordinates":[-72.912841,4.411743]}},{"type":"Feature","properties":{"clase":"parcela","texto":"P.24","cod_bp":"B.329-P.24"},"geometry":{"type":"Point","coordinates":[-72.911956,4.401939]}},{"type":"Feature","properties":{"clase":"parcela","texto":"P.25","cod_bp":"B.329-P.25"},"geometry":{"type":"Point","coordinates":[-72.912321,4.390449]}},{"type":"Feature","properties":{"clase":"parcela","texto":"P.26","cod_bp":"B.329-P.26"},"geometry":{"type":"Point","coordinates":[-72.90996,4.411585]}},{"type":"Feature","properties":{"clase":"parcela","texto":"P.27","cod_bp":"B.329-P.27"},"geometry":{"type":"Point","coordinates":[-72.9094,4.390761]}},{"type":"Feature","properties":{"clase":"parcela","texto":"P.28","cod_bp":"B.329-P.28"},"geometry":{"type":"Point","coordinates":[-72.906414,4.407004]}},{"type":"Feature","properties":{"clase":"parcela","texto":"P.29","cod_bp":"B.329-P.29"},"geometry":{"type":"Point","coordinates":[-72.908417,4.394722]}},{"type":"Feature","properties":{"clase":"parcela","texto":"P.3","cod_bp":"B.329-P.3"},"geometry":{"type":"Point","coordinates":[-72.92984,4.417141]}},{"type":"Feature","properties":{"clase":"parcela","texto":"P.30","cod_bp":"B.329-P.30"},"geometry":{"type":"Point","coordinates":[-72.909112,4.3986]}},{"type":"Feature","properties":{"clase":"parcela","texto":"P.31","cod_bp":"B.329-P.31"},"geometry":{"type":"Point","coordinates":[-72.906751,4.402976]}},{"type":"Feature","properties":{"clase":"parcela","texto":"P.32","cod_bp":"B.329-P.32"},"geometry":{"type":"Point","coordinates":[-72.904548,4.396732]}},{"type":"Feature","properties":{"clase":"parcela","texto":"P.33","cod_bp":"B.329-P.33"},"geometry":{"type":"Point","coordinates":[-72.914608,4.408753]}},{"type":"Feature","properties":{"clase":"parcela","texto":"P.4","cod_bp":"B.329-P.4"},"geometry":{"type":"Point","coordinates":[-72.930911,4.41394]}},{"type":"Feature","properties":{"clase":"parcela","texto":"P.5","cod_bp":"B.329-P.5"},"geometry":{"type":"Point","coordinates":[-72.930419,4.410254]}},{"type":"Feature","properties":{"clase":"parcela","texto":"P.6","cod_bp":"B.329-P.6"},"geometry":{"type":"Point","coordinates":[-72.928071,4.403145]}},{"type":"Feature","properties":{"clase":"parcela","texto":"P.7","cod_bp":"B.329-P.7"},"geometry":{"type":"Point","coordinates":[-72.924138,4.400133]}},{"type":"Feature","properties":{"clase":"parcela","texto":"P.8","cod_bp":"B.329-P.8"},"geometry":{"type":"Point","coordinates":[-72.921978,4.396538]}},{"type":"Feature","properties":{"clase":"parcela","texto":"P.9","cod_bp":"B.329-P.9"},"geometry":{"type":"Point","coordinates":[-72.920688,4.393427]}},{"type":"Feature","properties":{"clase":"parcela","texto":"P.1","cod_bp":"B.330-P.1"},"geometry":{"type":"Point","coordinates":[-72.903084,4.401409]}},{"type":"Feature","properties":{"clase":"parcela","texto":"P.2","cod_bp":"B.330-P.2"},"geometry":{"type":"Point","coordinates":[-72.903341,4.38946]}},{"type":"Feature","properties":{"clase":"parcela","texto":"P.3","cod_bp":"B.330-P.3"},"geometry":{"type":"Point","coordinates":[-72.903306,4.384278]}},{"type":"Feature","properties":{"clase":"parcela","texto":"P.4","cod_bp":"B.330-P.4"},"geometry":{"type":"Point","coordinates":[-72.898878,4.379647]}},{"type":"Feature","properties":{"clase":"parcela","texto":"P.5","cod_bp":"B.330-P.5"},"geometry":{"type":"Point","coordinates":[-72.90197,4.375177]}},{"type":"Feature","properties":{"clase":"parcela","texto":"P.6","cod_bp":"B.330-P.6"},"geometry":{"type":"Point","coordinates":[-72.904898,4.370219]}},{"type":"Feature","properties":{"clase":"parcela","texto":"P.1","cod_bp":"B.332-P.1"},"geometry":{"type":"Point","coordinates":[-72.946083,4.440665]}},{"type":"Feature","properties":{"clase":"parcela","texto":"P.10","cod_bp":"B.332-P.10"},"geometry":{"type":"Point","coordinates":[-72.953849,4.424147]}},{"type":"Feature","properties":{"clase":"parcela","texto":"P.11","cod_bp":"B.332-P.11"},"geometry":{"type":"Point","coordinates":[-72.95378,4.432898]}},{"type":"Feature","properties":{"clase":"parcela","texto":"P.12","cod_bp":"B.332-P.12"},"geometry":{"type":"Point","coordinates":[-72.953031,4.43523]}},{"type":"Feature","properties":{"clase":"parcela","texto":"P.13","cod_bp":"B.332-P.13"},"geometry":{"type":"Point","coordinates":[-72.956459,4.4351]}},{"type":"Feature","properties":{"clase":"parcela","texto":"P.14","cod_bp":"B.332-P.14"},"geometry":{"type":"Point","coordinates":[-72.954977,4.438858]}},{"type":"Feature","properties":{"clase":"parcela","texto":"P.15","cod_bp":"B.332-P.15"},"geometry":{"type":"Point","coordinates":[-72.953363,4.442202]}},{"type":"Feature","properties":{"clase":"parcela","texto":"P.16","cod_bp":"B.332-P.16"},"geometry":{"type":"Point","coordinates":[-72.959498,4.441441]}},{"type":"Feature","properties":{"clase":"parcela","texto":"P.17","cod_bp":"B.332-P.17"},"geometry":{"type":"Point","coordinates":[-72.960248,4.434294]}},{"type":"Feature","properties":{"clase":"parcela","texto":"P.18","cod_bp":"B.332-P.18"},"geometry":{"type":"Point","coordinates":[-72.960518,4.426231]}},{"type":"Feature","properties":{"clase":"parcela","texto":"P.19","cod_bp":"B.332-P.19"},"geometry":{"type":"Point","coordinates":[-72.960491,4.431645]}},{"type":"Feature","properties":{"clase":"parcela","texto":"P.2","cod_bp":"B.332-P.2"},"geometry":{"type":"Point","coordinates":[-72.949638,4.442794]}},{"type":"Feature","properties":{"clase":"parcela","texto":"P.20","cod_bp":"B.332-P.20"},"geometry":{"type":"Point","coordinates":[-72.958205,4.430432]}},{"type":"Feature","properties":{"clase":"parcela","texto":"P.3","cod_bp":"B.332-P.3"},"geometry":{"type":"Point","coordinates":[-72.950039,4.436675]}},{"type":"Feature","properties":{"clase":"parcela","texto":"P.4","cod_bp":"B.332-P.4"},"geometry":{"type":"Point","coordinates":[-72.949303,4.43156]}},{"type":"Feature","properties":{"clase":"parcela","texto":"P.5","cod_bp":"B.332-P.5"},"geometry":{"type":"Point","coordinates":[-72.967295,4.418868]}},{"type":"Feature","properties":{"clase":"parcela","texto":"P.6","cod_bp":"B.332-P.6"},"geometry":{"type":"Point","coordinates":[-72.960486,4.420855]}},{"type":"Feature","properties":{"clase":"parcela","texto":"P.7","cod_bp":"B.332-P.7"},"geometry":{"type":"Point","coordinates":[-72.9662,4.413886]}},{"type":"Feature","properties":{"clase":"parcela","texto":"P.8","cod_bp":"B.332-P.8"},"geometry":{"type":"Point","coordinates":[-72.949828,4.428288]}},{"type":"Feature","properties":{"clase":"parcela","texto":"P.9","cod_bp":"B.332-P.9"},"geometry":{"type":"Point","coordinates":[-72.947102,4.425989]}},{"type":"Feature","properties":{"clase":"parcela","texto":"P.1","cod_bp":"B.334-P.1"},"geometry":{"type":"Point","coordinates":[-72.894817,4.390395]}},{"type":"Feature","properties":{"clase":"parcela","texto":"P.10","cod_bp":"B.334-P.10"},"geometry":{"type":"Point","coordinates":[-72.897603,4.366234]}},{"type":"Feature","properties":{"clase":"parcela","texto":"P.11","cod_bp":"B.334-P.11"},"geometry":{"type":"Point","coordinates":[-72.897814,4.362485]}},{"type":"Feature","properties":{"clase":"parcela","texto":"P.12","cod_bp":"B.334-P.12"},"geometry":{"type":"Point","coordinates":[-72.904072,4.363341]}},{"type":"Feature","properties":{"clase":"parcela","texto":"P.13","cod_bp":"B.334-P.13"},"geometry":{"type":"Point","coordinates":[-72.909134,4.363665]}},{"type":"Feature","properties":{"clase":"parcela","texto":"P.14","cod_bp":"B.334-P.14"},"geometry":{"type":"Point","coordinates":[-72.908911,4.359218]}},{"type":"Feature","properties":{"clase":"parcela","texto":"P.15","cod_bp":"B.334-P.15"},"geometry":{"type":"Point","coordinates":[-72.900224,4.389577]}},{"type":"Feature","properties":{"clase":"parcela","texto":"P.2","cod_bp":"B.334-P.2"},"geometry":{"type":"Point","coordinates":[-72.894725,4.386926]}},{"type":"Feature","properties":{"clase":"parcela","texto":"P.3","cod_bp":"B.334-P.3"},"geometry":{"type":"Point","coordinates":[-72.893772,4.380624]}},{"type":"Feature","properties":{"clase":"parcela","texto":"P.4","cod_bp":"B.334-P.4"},"geometry":{"type":"Point","coordinates":[-72.894015,4.37634]}},{"type":"Feature","properties":{"clase":"parcela","texto":"P.5","cod_bp":"B.334-P.5"},"geometry":{"type":"Point","coordinates":[-72.894225,4.372095]}},{"type":"Feature","properties":{"clase":"parcela","texto":"P.6","cod_bp":"B.334-P.6"},"geometry":{"type":"Point","coordinates":[-72.893694,4.368664]}},{"type":"Feature","properties":{"clase":"parcela","texto":"P.7","cod_bp":"B.334-P.7"},"geometry":{"type":"Point","coordinates":[-72.893704,4.364708]}},{"type":"Feature","properties":{"clase":"parcela","texto":"P.8","cod_bp":"B.334-P.8"},"geometry":{"type":"Point","coordinates":[-72.897194,4.374768]}},{"type":"Feature","properties":{"clase":"parcela","texto":"P.9","cod_bp":"B.334-P.9"},"geometry":{"type":"Point","coordinates":[-72.898485,4.370701]}},{"type":"Feature","properties":{"clase":"parcela","texto":"P.1","cod_bp":"B.335-P.1"},"geometry":{"type":"Point","coordinates":[-72.940611,4.43981]}},{"type":"Feature","properties":{"clase":"parcela","texto":"P.2","cod_bp":"B.335-P.2"},"geometry":{"type":"Point","coordinates":[-72.938745,4.436407]}},{"type":"Feature","properties":{"clase":"parcela","texto":"P.3","cod_bp":"B.335-P.3"},"geometry":{"type":"Point","coordinates":[-72.937501,4.432582]}},{"type":"Feature","properties":{"clase":"parcela","texto":"P.4","cod_bp":"B.335-P.4"},"geometry":{"type":"Point","coordinates":[-72.935448,4.428715]}},{"type":"Feature","properties":{"clase":"parcela","texto":"P.5","cod_bp":"B.335-P.5"},"geometry":{"type":"Point","coordinates":[-72.934525,4.42519]}},{"type":"Feature","properties":{"clase":"parcela","texto":"P.6","cod_bp":"B.335-P.6"},"geometry":{"type":"Point","coordinates":[-72.942921,4.441529]}},{"type":"Feature","properties":{"clase":"parcela","texto":"P.1","cod_bp":"B.336-P.1"},"geometry":{"type":"Point","coordinates":[-72.915585,4.443845]}},{"type":"Feature","properties":{"clase":"parcela","texto":"P.10","cod_bp":"B.336-P.10"},"geometry":{"type":"Point","coordinates":[-72.910477,4.417188]}},{"type":"Feature","properties":{"clase":"parcela","texto":"P.11","cod_bp":"B.336-P.11"},"geometry":{"type":"Point","coordinates":[-72.917819,4.417552]}},{"type":"Feature","properties":{"clase":"parcela","texto":"P.12","cod_bp":"B.336-P.12"},"geometry":{"type":"Point","coordinates":[-72.91963,4.419621]}},{"type":"Feature","properties":{"clase":"parcela","texto":"P.13","cod_bp":"B.336-P.13"},"geometry":{"type":"Point","coordinates":[-72.908961,4.426873]}},{"type":"Feature","properties":{"clase":"parcela","texto":"P.14","cod_bp":"B.336-P.14"},"geometry":{"type":"Point","coordinates":[-72.912458,4.428965]}},{"type":"Feature","properties":{"clase":"parcela","texto":"P.15","cod_bp":"B.336-P.15"},"geometry":{"type":"Point","coordinates":[-72.914576,4.435581]}},{"type":"Feature","properties":{"clase":"parcela","texto":"P.16","cod_bp":"B.336-P.16"},"geometry":{"type":"Point","coordinates":[-72.918962,4.434697]}},{"type":"Feature","properties":{"clase":"parcela","texto":"P.17","cod_bp":"B.336-P.17"},"geometry":{"type":"Point","coordinates":[-72.919022,4.438645]}},{"type":"Feature","properties":{"clase":"parcela","texto":"P.18","cod_bp":"B.336-P.18"},"geometry":{"type":"Point","coordinates":[-72.92143,4.440804]}},{"type":"Feature","properties":{"clase":"parcela","texto":"P.19","cod_bp":"B.336-P.19"},"geometry":{"type":"Point","coordinates":[-72.926064,4.438772]}},{"type":"Feature","properties":{"clase":"parcela","texto":"P.2","cod_bp":"B.336-P.2"},"geometry":{"type":"Point","coordinates":[-72.913981,4.440686]}},{"type":"Feature","properties":{"clase":"parcela","texto":"P.20","cod_bp":"B.336-P.20"},"geometry":{"type":"Point","coordinates":[-72.915074,4.431611]}},{"type":"Feature","properties":{"clase":"parcela","texto":"P.3","cod_bp":"B.336-P.3"},"geometry":{"type":"Point","coordinates":[-72.91206,4.437559]}},{"type":"Feature","properties":{"clase":"parcela","texto":"P.4","cod_bp":"B.336-P.4"},"geometry":{"type":"Point","coordinates":[-72.909019,4.435214]}},{"type":"Feature","properties":{"clase":"parcela","texto":"P.5","cod_bp":"B.336-P.5"},"geometry":{"type":"Point","coordinates":[-72.905289,4.433219]}},{"type":"Feature","properties":{"clase":"parcela","texto":"P.6","cod_bp":"B.336-P.6"},"geometry":{"type":"Point","coordinates":[-72.904712,4.429389]}},{"type":"Feature","properties":{"clase":"parcela","texto":"P.7","cod_bp":"B.336-P.7"},"geometry":{"type":"Point","coordinates":[-72.90386,4.426491]}},{"type":"Feature","properties":{"clase":"parcela","texto":"P.8","cod_bp":"B.336-P.8"},"geometry":{"type":"Point","coordinates":[-72.90635,4.42355]}},{"type":"Feature","properties":{"clase":"parcela","texto":"P.9","cod_bp":"B.336-P.9"},"geometry":{"type":"Point","coordinates":[-72.910025,4.42207]}},{"type":"Feature","properties":{"clase":"parcela","texto":"P.1","cod_bp":"B.337-P.1"},"geometry":{"type":"Point","coordinates":[-72.933851,4.405706]}},{"type":"Feature","properties":{"clase":"parcela","texto":"P.10","cod_bp":"B.337-P.10"},"geometry":{"type":"Point","coordinates":[-72.955057,4.410308]}},{"type":"Feature","properties":{"clase":"parcela","texto":"P.11","cod_bp":"B.337-P.11"},"geometry":{"type":"Point","coordinates":[-72.946975,4.409737]}},{"type":"Feature","properties":{"clase":"parcela","texto":"P.12","cod_bp":"B.337-P.12"},"geometry":{"type":"Point","coordinates":[-72.948074,4.412784]}},{"type":"Feature","properties":{"clase":"parcela","texto":"P.13","cod_bp":"B.337-P.13"},"geometry":{"type":"Point","coordinates":[-72.944733,4.415028]}},{"type":"Feature","properties":{"clase":"parcela","texto":"P.14","cod_bp":"B.337-P.14"},"geometry":{"type":"Point","coordinates":[-72.946392,4.417679]}},{"type":"Feature","properties":{"clase":"parcela","texto":"P.15","cod_bp":"B.337-P.15"},"geometry":{"type":"Point","coordinates":[-72.948119,4.406066]}},{"type":"Feature","properties":{"clase":"parcela","texto":"P.16","cod_bp":"B.337-P.16"},"geometry":{"type":"Point","coordinates":[-72.953544,4.405421]}},{"type":"Feature","properties":{"clase":"parcela","texto":"P.17","cod_bp":"B.337-P.17"},"geometry":{"type":"Point","coordinates":[-72.940997,4.397118]}},{"type":"Feature","properties":{"clase":"parcela","texto":"P.2","cod_bp":"B.337-P.2"},"geometry":{"type":"Point","coordinates":[-72.93805,4.40257]}},{"type":"Feature","properties":{"clase":"parcela","texto":"P.3","cod_bp":"B.337-P.3"},"geometry":{"type":"Point","coordinates":[-72.942947,4.401389]}},{"type":"Feature","properties":{"clase":"parcela","texto":"P.4","cod_bp":"B.337-P.4"},"geometry":{"type":"Point","coordinates":[-72.942398,4.40757]}},{"type":"Feature","properties":{"clase":"parcela","texto":"P.5","cod_bp":"B.337-P.5"},"geometry":{"type":"Point","coordinates":[-72.95969,4.408778]}},{"type":"Feature","properties":{"clase":"parcela","texto":"P.6","cod_bp":"B.337-P.6"},"geometry":{"type":"Point","coordinates":[-72.952057,4.417327]}},{"type":"Feature","properties":{"clase":"parcela","texto":"P.7","cod_bp":"B.337-P.7"},"geometry":{"type":"Point","coordinates":[-72.959735,4.413453]}},{"type":"Feature","properties":{"clase":"parcela","texto":"P.8","cod_bp":"B.337-P.8"},"geometry":{"type":"Point","coordinates":[-72.956866,4.417636]}},{"type":"Feature","properties":{"clase":"parcela","texto":"P.9","cod_bp":"B.337-P.9"},"geometry":{"type":"Point","coordinates":[-72.954395,4.414344]}},{"type":"Feature","properties":{"clase":"parcela","texto":"P.1","cod_bp":"B.339-P.1"},"geometry":{"type":"Point","coordinates":[-73.070029,4.392169]}},{"type":"Feature","properties":{"clase":"parcela","texto":"P.10","cod_bp":"B.339-P.10"},"geometry":{"type":"Point","coordinates":[-73.045661,4.395243]}},{"type":"Feature","properties":{"clase":"parcela","texto":"P.11","cod_bp":"B.339-P.11"},"geometry":{"type":"Point","coordinates":[-73.038613,4.399854]}},{"type":"Feature","properties":{"clase":"parcela","texto":"P.12","cod_bp":"B.339-P.12"},"geometry":{"type":"Point","coordinates":[-73.035769,4.397818]}},{"type":"Feature","properties":{"clase":"parcela","texto":"P.13","cod_bp":"B.339-P.13"},"geometry":{"type":"Point","coordinates":[-73.027714,4.395218]}},{"type":"Feature","properties":{"clase":"parcela","texto":"P.14","cod_bp":"B.339-P.14"},"geometry":{"type":"Point","coordinates":[-73.030874,4.394215]}},{"type":"Feature","properties":{"clase":"parcela","texto":"P.15","cod_bp":"B.339-P.15"},"geometry":{"type":"Point","coordinates":[-73.026638,4.389114]}},{"type":"Feature","properties":{"clase":"parcela","texto":"P.16","cod_bp":"B.339-P.16"},"geometry":{"type":"Point","coordinates":[-73.030028,4.38957]}},{"type":"Feature","properties":{"clase":"parcela","texto":"P.17","cod_bp":"B.339-P.17"},"geometry":{"type":"Point","coordinates":[-73.033609,4.390027]}},{"type":"Feature","properties":{"clase":"parcela","texto":"P.18","cod_bp":"B.339-P.18"},"geometry":{"type":"Point","coordinates":[-73.03718,4.389627]}},{"type":"Feature","properties":{"clase":"parcela","texto":"P.19","cod_bp":"B.339-P.19"},"geometry":{"type":"Point","coordinates":[-73.040778,4.389984]}},{"type":"Feature","properties":{"clase":"parcela","texto":"P.2","cod_bp":"B.339-P.2"},"geometry":{"type":"Point","coordinates":[-73.066091,4.392819]}},{"type":"Feature","properties":{"clase":"parcela","texto":"P.20","cod_bp":"B.339-P.20"},"geometry":{"type":"Point","coordinates":[-73.044328,4.389155]}},{"type":"Feature","properties":{"clase":"parcela","texto":"P.21","cod_bp":"B.339-P.21"},"geometry":{"type":"Point","coordinates":[-73.047432,4.389202]}},{"type":"Feature","properties":{"clase":"parcela","texto":"P.22","cod_bp":"B.339-P.22"},"geometry":{"type":"Point","coordinates":[-73.049672,4.386379]}},{"type":"Feature","properties":{"clase":"parcela","texto":"P.3","cod_bp":"B.339-P.3"},"geometry":{"type":"Point","coordinates":[-73.062786,4.392515]}},{"type":"Feature","properties":{"clase":"parcela","texto":"P.4","cod_bp":"B.339-P.4"},"geometry":{"type":"Point","coordinates":[-73.059491,4.391678]}},{"type":"Feature","properties":{"clase":"parcela","texto":"P.5","cod_bp":"B.339-P.5"},"geometry":{"type":"Point","coordinates":[-73.056143,4.390882]}},{"type":"Feature","properties":{"clase":"parcela","texto":"P.6","cod_bp":"B.339-P.6"},"geometry":{"type":"Point","coordinates":[-73.053455,4.389805]}},{"type":"Feature","properties":{"clase":"parcela","texto":"P.7","cod_bp":"B.339-P.7"},"geometry":{"type":"Point","coordinates":[-73.055028,4.394064]}},{"type":"Feature","properties":{"clase":"parcela","texto":"P.8","cod_bp":"B.339-P.8"},"geometry":{"type":"Point","coordinates":[-73.051884,4.391957]}},{"type":"Feature","properties":{"clase":"parcela","texto":"P.9","cod_bp":"B.339-P.9"},"geometry":{"type":"Point","coordinates":[-73.047797,4.392235]}},{"type":"Feature","properties":{"clase":"parcela","texto":"P.1","cod_bp":"B.340-P.1"},"geometry":{"type":"Point","coordinates":[-73.004132,4.420316]}},{"type":"Feature","properties":{"clase":"parcela","texto":"P.10","cod_bp":"B.340-P.10"},"geometry":{"type":"Point","coordinates":[-72.993297,4.425579]}},{"type":"Feature","properties":{"clase":"parcela","texto":"P.11","cod_bp":"B.340-P.11"},"geometry":{"type":"Point","coordinates":[-72.997319,4.427012]}},{"type":"Feature","properties":{"clase":"parcela","texto":"P.12","cod_bp":"B.340-P.12"},"geometry":{"type":"Point","coordinates":[-72.99766,4.431082]}},{"type":"Feature","properties":{"clase":"parcela","texto":"P.13","cod_bp":"B.340-P.13"},"geometry":{"type":"Point","coordinates":[-72.995852,4.432484]}},{"type":"Feature","properties":{"clase":"parcela","texto":"P.14","cod_bp":"B.340-P.14"},"geometry":{"type":"Point","coordinates":[-72.991849,4.431047]}},{"type":"Feature","properties":{"clase":"parcela","texto":"P.15","cod_bp":"B.340-P.15"},"geometry":{"type":"Point","coordinates":[-72.990725,4.42347]}},{"type":"Feature","properties":{"clase":"parcela","texto":"P.16","cod_bp":"B.340-P.16"},"geometry":{"type":"Point","coordinates":[-72.99072,4.415052]}},{"type":"Feature","properties":{"clase":"parcela","texto":"P.17","cod_bp":"B.340-P.17"},"geometry":{"type":"Point","coordinates":[-72.988265,4.417269]}},{"type":"Feature","properties":{"clase":"parcela","texto":"P.18","cod_bp":"B.340-P.18"},"geometry":{"type":"Point","coordinates":[-72.986377,4.410466]}},{"type":"Feature","properties":{"clase":"parcela","texto":"P.19","cod_bp":"B.340-P.19"},"geometry":{"type":"Point","coordinates":[-72.986002,4.418163]}},{"type":"Feature","properties":{"clase":"parcela","texto":"P.2","cod_bp":"B.340-P.2"},"geometry":{"type":"Point","coordinates":[-73.001886,4.426206]}},{"type":"Feature","properties":{"clase":"parcela","texto":"P.20","cod_bp":"B.340-P.20"},"geometry":{"type":"Point","coordinates":[-72.985845,4.422275]}},{"type":"Feature","properties":{"clase":"parcela","texto":"P.21","cod_bp":"B.340-P.21"},"geometry":{"type":"Point","coordinates":[-72.983869,4.423069]}},{"type":"Feature","properties":{"clase":"parcela","texto":"P.22","cod_bp":"B.340-P.22"},"geometry":{"type":"Point","coordinates":[-72.983873,4.419984]}},{"type":"Feature","properties":{"clase":"parcela","texto":"P.23","cod_bp":"B.340-P.23"},"geometry":{"type":"Point","coordinates":[-72.981827,4.416372]}},{"type":"Feature","properties":{"clase":"parcela","texto":"P.24 / P.25","cod_bp":"B.340-P.24 / P.25"},"geometry":{"type":"Point","coordinates":[-72.981828,4.422476]}},{"type":"Feature","properties":{"clase":"parcela","texto":"P.26","cod_bp":"B.340-P.26"},"geometry":{"type":"Point","coordinates":[-72.979779,4.414687]}},{"type":"Feature","properties":{"clase":"parcela","texto":"P.27","cod_bp":"B.340-P.27"},"geometry":{"type":"Point","coordinates":[-72.977226,4.416987]}},{"type":"Feature","properties":{"clase":"parcela","texto":"P.28","cod_bp":"B.340-P.28"},"geometry":{"type":"Point","coordinates":[-72.991702,4.407934]}},{"type":"Feature","properties":{"clase":"parcela","texto":"P.3","cod_bp":"B.340-P.3"},"geometry":{"type":"Point","coordinates":[-73.002281,4.429863]}},{"type":"Feature","properties":{"clase":"parcela","texto":"P.4","cod_bp":"B.340-P.4"},"geometry":{"type":"Point","coordinates":[-72.999783,4.430497]}},{"type":"Feature","properties":{"clase":"parcela","texto":"P.5","cod_bp":"B.340-P.5"},"geometry":{"type":"Point","coordinates":[-72.999792,4.420982]}},{"type":"Feature","properties":{"clase":"parcela","texto":"P.6","cod_bp":"B.340-P.6"},"geometry":{"type":"Point","coordinates":[-72.997758,4.420221]}},{"type":"Feature","properties":{"clase":"parcela","texto":"P.7","cod_bp":"B.340-P.7"},"geometry":{"type":"Point","coordinates":[-72.995719,4.41773]}},{"type":"Feature","properties":{"clase":"parcela","texto":"P.8","cod_bp":"B.340-P.8"},"geometry":{"type":"Point","coordinates":[-72.994417,4.419838]}},{"type":"Feature","properties":{"clase":"parcela","texto":"P.9","cod_bp":"B.340-P.9"},"geometry":{"type":"Point","coordinates":[-72.992625,4.418144]}},{"type":"Feature","properties":{"clase":"parcela","texto":"P.1","cod_bp":"B.341-P.1"},"geometry":{"type":"Point","coordinates":[-72.999884,4.44098]}},{"type":"Feature","properties":{"clase":"parcela","texto":"P.1","cod_bp":"B.342-P.1"},"geometry":{"type":"Point","coordinates":[-72.91791,4.448786]}},{"type":"Feature","properties":{"clase":"parcela","texto":"P.10","cod_bp":"B.342-P.10"},"geometry":{"type":"Point","coordinates":[-72.927215,4.434317]}},{"type":"Feature","properties":{"clase":"parcela","texto":"P.11","cod_bp":"B.342-P.11"},"geometry":{"type":"Point","coordinates":[-72.928057,4.430567]}},{"type":"Feature","properties":{"clase":"parcela","texto":"P.2","cod_bp":"B.342-P.2"},"geometry":{"type":"Point","coordinates":[-72.920731,4.447068]}},{"type":"Feature","properties":{"clase":"parcela","texto":"P.3","cod_bp":"B.342-P.3"},"geometry":{"type":"Point","coordinates":[-72.919605,4.445055]}},{"type":"Feature","properties":{"clase":"parcela","texto":"P.4","cod_bp":"B.342-P.4"},"geometry":{"type":"Point","coordinates":[-72.922432,4.443749]}},{"type":"Feature","properties":{"clase":"parcela","texto":"P.5","cod_bp":"B.342-P.5"},"geometry":{"type":"Point","coordinates":[-72.920669,4.433287]}},{"type":"Feature","properties":{"clase":"parcela","texto":"P.6","cod_bp":"B.342-P.6"},"geometry":{"type":"Point","coordinates":[-72.920897,4.429164]}},{"type":"Feature","properties":{"clase":"parcela","texto":"P.7","cod_bp":"B.342-P.7"},"geometry":{"type":"Point","coordinates":[-72.91958,4.422376]}},{"type":"Feature","properties":{"clase":"parcela","texto":"P.8","cod_bp":"B.342-P.8"},"geometry":{"type":"Point","coordinates":[-72.923043,4.435909]}},{"type":"Feature","properties":{"clase":"parcela","texto":"P.9","cod_bp":"B.342-P.9"},"geometry":{"type":"Point","coordinates":[-72.924833,4.431577]}},{"type":"Feature","properties":{"clase":"parcela","texto":"P.1","cod_bp":"B.343-P.1"},"geometry":{"type":"Point","coordinates":[-72.957981,4.554995]}},{"type":"Feature","properties":{"clase":"parcela","texto":"P.1","cod_bp":"B.344-P.1"},"geometry":{"type":"Point","coordinates":[-73.004817,4.433792]}},{"type":"Feature","properties":{"clase":"parcela","texto":"P.10","cod_bp":"B.344-P.10"},"geometry":{"type":"Point","coordinates":[-73.017592,4.428634]}},{"type":"Feature","properties":{"clase":"parcela","texto":"P.11","cod_bp":"B.344-P.11"},"geometry":{"type":"Point","coordinates":[-73.015319,4.42322]}},{"type":"Feature","properties":{"clase":"parcela","texto":"P.13","cod_bp":"B.344-P.13"},"geometry":{"type":"Point","coordinates":[-73.019634,4.425269]}},{"type":"Feature","properties":{"clase":"parcela","texto":"P.14","cod_bp":"B.344-P.14"},"geometry":{"type":"Point","coordinates":[-73.019196,4.422417]}},{"type":"Feature","properties":{"clase":"parcela","texto":"P.15","cod_bp":"B.344-P.15"},"geometry":{"type":"Point","coordinates":[-73.021854,4.422898]}},{"type":"Feature","properties":{"clase":"parcela","texto":"P.2","cod_bp":"B.344-P.2"},"geometry":{"type":"Point","coordinates":[-73.009921,4.437351]}},{"type":"Feature","properties":{"clase":"parcela","texto":"P.3","cod_bp":"B.344-P.3"},"geometry":{"type":"Point","coordinates":[-73.007191,4.428083]}},{"type":"Feature","properties":{"clase":"parcela","texto":"P.4","cod_bp":"B.344-P.4"},"geometry":{"type":"Point","coordinates":[-73.011287,4.430711]}},{"type":"Feature","properties":{"clase":"parcela","texto":"P.5","cod_bp":"B.344-P.5"},"geometry":{"type":"Point","coordinates":[-73.011664,4.426795]}},{"type":"Feature","properties":{"clase":"parcela","texto":"P.6","cod_bp":"B.344-P.6"},"geometry":{"type":"Point","coordinates":[-73.012468,4.424046]}},{"type":"Feature","properties":{"clase":"parcela","texto":"P.7","cod_bp":"B.344-P.7"},"geometry":{"type":"Point","coordinates":[-73.008522,4.423933]}},{"type":"Feature","properties":{"clase":"parcela","texto":"P.8","cod_bp":"B.344-P.8"},"geometry":{"type":"Point","coordinates":[-73.006213,4.423048]}},{"type":"Feature","properties":{"clase":"parcela","texto":"P.9","cod_bp":"B.344-P.9"},"geometry":{"type":"Point","coordinates":[-73.016143,4.430076]}},{"type":"Feature","properties":{"clase":"parcela","texto":"P.1","cod_bp":"B.4-P.1"},"geometry":{"type":"Point","coordinates":[-72.988684,4.48898]}},{"type":"Feature","properties":{"clase":"parcela","texto":"P.2","cod_bp":"B.4-P.2"},"geometry":{"type":"Point","coordinates":[-72.985032,4.491312]}},{"type":"Feature","properties":{"clase":"parcela","texto":"P.3","cod_bp":"B.4-P.3"},"geometry":{"type":"Point","coordinates":[-72.982422,4.497029]}},{"type":"Feature","properties":{"clase":"parcela","texto":"P.4","cod_bp":"B.4-P.4"},"geometry":{"type":"Point","coordinates":[-72.985511,4.502415]}},{"type":"Feature","properties":{"clase":"parcela","texto":"P.5","cod_bp":"B.4-P.5"},"geometry":{"type":"Point","coordinates":[-72.988285,4.512723]}},{"type":"Feature","properties":{"clase":"parcela","texto":"P.6","cod_bp":"B.4-P.6"},"geometry":{"type":"Point","coordinates":[-72.985103,4.511756]}},{"type":"Feature","properties":{"clase":"parcela","texto":"P.7","cod_bp":"B.4-P.7"},"geometry":{"type":"Point","coordinates":[-72.983151,4.506365]}},{"type":"Feature","properties":{"clase":"parcela","texto":"P.8","cod_bp":"B.4-P.8"},"geometry":{"type":"Point","coordinates":[-72.981005,4.506957]}},{"type":"Feature","properties":{"clase":"parcela","texto":"P.9","cod_bp":"B.4-P.9"},"geometry":{"type":"Point","coordinates":[-72.982672,4.488241]}},{"type":"Feature","properties":{"clase":"parcela","texto":"P.1","cod_bp":"B.5-P.1"},"geometry":{"type":"Point","coordinates":[-72.999034,4.505173]}},{"type":"Feature","properties":{"clase":"parcela","texto":"P.2","cod_bp":"B.5-P.2"},"geometry":{"type":"Point","coordinates":[-72.996498,4.509133]}},{"type":"Feature","properties":{"clase":"parcela","texto":"P.3","cod_bp":"B.5-P.3"},"geometry":{"type":"Point","coordinates":[-72.994896,4.505457]}},{"type":"Feature","properties":{"clase":"parcela","texto":"P.4","cod_bp":"B.5-P.4"},"geometry":{"type":"Point","coordinates":[-72.992727,4.51014]}},{"type":"Feature","properties":{"clase":"parcela","texto":"P.5","cod_bp":"B.5-P.5"},"geometry":{"type":"Point","coordinates":[-72.990736,4.51216]}},{"type":"Feature","properties":{"clase":"parcela","texto":"P.1","cod_bp":"B.6-P.1"},"geometry":{"type":"Point","coordinates":[-72.998847,4.500194]}},{"type":"Feature","properties":{"clase":"parcela","texto":"P.2","cod_bp":"B.6-P.2"},"geometry":{"type":"Point","coordinates":[-72.996292,4.495716]}},{"type":"Feature","properties":{"clase":"parcela","texto":"P.3","cod_bp":"B.6-P.3"},"geometry":{"type":"Point","coordinates":[-72.993958,4.490175]}},{"type":"Feature","properties":{"clase":"parcela","texto":"P.4","cod_bp":"B.6-P.4"},"geometry":{"type":"Point","coordinates":[-72.99195,4.49211]}},{"type":"Feature","properties":{"clase":"parcela","texto":"P.5","cod_bp":"B.6-P.5"},"geometry":{"type":"Point","coordinates":[-72.990297,4.50135]}},{"type":"Feature","properties":{"clase":"parcela","texto":"P.6","cod_bp":"B.6-P.6"},"geometry":{"type":"Point","coordinates":[-72.990586,4.503125]}},{"type":"Feature","properties":{"clase":"parcela","texto":"P.1","cod_bp":"B.7-P.1"},"geometry":{"type":"Point","coordinates":[-72.99645,4.473757]}},{"type":"Feature","properties":{"clase":"parcela","texto":"P.2","cod_bp":"B.7-P.2"},"geometry":{"type":"Point","coordinates":[-72.993314,4.471889]}},{"type":"Feature","properties":{"clase":"parcela","texto":"P.3","cod_bp":"B.7-P.3"},"geometry":{"type":"Point","coordinates":[-72.991002,4.470709]}},{"type":"Feature","properties":{"clase":"parcela","texto":"P.4","cod_bp":"B.7-P.4"},"geometry":{"type":"Point","coordinates":[-72.989363,4.479586]}},{"type":"Feature","properties":{"clase":"parcela","texto":"P.5","cod_bp":"B.7-P.5"},"geometry":{"type":"Point","coordinates":[-72.986779,4.470674]}},{"type":"Feature","properties":{"clase":"parcela","texto":"P.6","cod_bp":"B.7-P.6"},"geometry":{"type":"Point","coordinates":[-72.985258,4.486019]}},{"type":"Feature","properties":{"clase":"parcela","texto":"P.7","cod_bp":"B.7-P.7"},"geometry":{"type":"Point","coordinates":[-72.98218,4.482924]}},{"type":"Feature","properties":{"clase":"parcela","texto":"P.8","cod_bp":"B.7-P.8"},"geometry":{"type":"Point","coordinates":[-72.980062,4.485868]}},{"type":"Feature","properties":{"clase":"parcela","texto":"P.1","cod_bp":"B.9-P.1"},"geometry":{"type":"Point","coordinates":[-72.968813,4.454969]}},{"type":"Feature","properties":{"clase":"parcela","texto":"P.2","cod_bp":"B.9-P.2"},"geometry":{"type":"Point","coordinates":[-72.966093,4.454641]}},{"type":"Feature","properties":{"clase":"parcela","texto":"P.3","cod_bp":"B.9-P.3"},"geometry":{"type":"Point","coordinates":[-72.969914,4.466157]}},{"type":"Feature","properties":{"clase":"parcela","texto":"P.4","cod_bp":"B.9-P.4"},"geometry":{"type":"Point","coordinates":[-72.96743,4.46007]}},{"type":"Feature","properties":{"clase":"parcela","texto":"P.5","cod_bp":"B.9-P.5"},"geometry":{"type":"Point","coordinates":[-72.965044,4.460767]}},{"type":"Feature","properties":{"clase":"parcela","texto":"P.6","cod_bp":"B.9-P.6"},"geometry":{"type":"Point","coordinates":[-72.962777,4.465103]}},{"type":"Feature","properties":{"clase":"parcela","texto":"P.591","cod_bp":"B.90-P.591"},"geometry":{"type":"Point","coordinates":[-72.952382,4.474404]}},{"type":"Feature","properties":{"clase":"parcela","texto":"P.592","cod_bp":"B.90-P.592"},"geometry":{"type":"Point","coordinates":[-72.958555,4.47176]}},{"type":"Feature","properties":{"clase":"parcela","texto":"P.593","cod_bp":"B.90-P.593"},"geometry":{"type":"Point","coordinates":[-72.956547,4.475026]}},{"type":"Feature","properties":{"clase":"parcela","texto":"P.594","cod_bp":"B.90-P.594"},"geometry":{"type":"Point","coordinates":[-72.952281,4.484198]}},{"type":"Feature","properties":{"clase":"parcela","texto":"P.595","cod_bp":"B.90-P.595"},"geometry":{"type":"Point","coordinates":[-72.954543,4.482989]}},{"type":"Feature","properties":{"clase":"parcela","texto":"P.596","cod_bp":"B.90-P.596"},"geometry":{"type":"Point","coordinates":[-72.95712,4.478044]}},{"type":"Feature","properties":{"clase":"parcela","texto":"P.601","cod_bp":"B.90-P.601"},"geometry":{"type":"Point","coordinates":[-72.959599,4.486961]}},{"type":"Feature","properties":{"clase":"parcela","texto":"P.602","cod_bp":"B.90-P.602"},"geometry":{"type":"Point","coordinates":[-72.95799,4.49037]}},{"type":"Feature","properties":{"clase":"parcela","texto":"P.603","cod_bp":"B.90-P.603"},"geometry":{"type":"Point","coordinates":[-72.953509,4.492883]}},{"type":"Feature","properties":{"clase":"parcela","texto":"P.604","cod_bp":"B.90-P.604"},"geometry":{"type":"Point","coordinates":[-72.967235,4.474121]}},{"type":"Feature","properties":{"clase":"parcela","texto":"P.605","cod_bp":"B.90-P.605"},"geometry":{"type":"Point","coordinates":[-72.971121,4.47715]}},{"type":"Feature","properties":{"clase":"parcela","texto":"P.606","cod_bp":"B.90-P.606"},"geometry":{"type":"Point","coordinates":[-72.970304,4.474166]}},{"type":"Feature","properties":{"clase":"parcela","texto":"P.607","cod_bp":"B.90-P.607"},"geometry":{"type":"Point","coordinates":[-72.950019,4.472484]}},{"type":"Feature","properties":{"clase":"parcela","texto":"Caimos 1 Limon Tahiti 2019","cod_bp":"Caimos 1 Limon Tahiti 2019"},"geometry":{"type":"Point","coordinates":[-72.963507,4.536411]}},{"type":"Feature","properties":{"clase":"parcela","texto":"Caimos 1 Limon Tahiti 2021","cod_bp":"Caimos 1 Limon Tahiti 2021"},"geometry":{"type":"Point","coordinates":[-72.965609,4.531335]}},{"type":"Feature","properties":{"clase":"parcela","texto":"Caimos 2 N. Valencia 1999","cod_bp":"Caimos 2 N. Valencia 1999"},"geometry":{"type":"Point","coordinates":[-72.961625,4.539579]}},{"type":"Feature","properties":{"clase":"parcela","texto":"Caimos 2 N. Valencia 2009","cod_bp":"Caimos 2 N. Valencia 2009"},"geometry":{"type":"Point","coordinates":[-72.95817,4.537217]}},{"type":"Feature","properties":{"clase":"parcela","texto":"Caimos 3 Limon Tahiti 2021 Caimos 3 Limon Tahiti 2019","cod_bp":"Caimos 3 Limon Tahiti 2021 Caimos 3 Limon Tahiti 2019"},"geometry":{"type":"Point","coordinates":[-72.977963,4.539793]}},{"type":"Feature","properties":{"clase":"parcela","texto":"Caimos 3 Limon de","cod_bp":"Caimos 3 Limon de"},"geometry":{"type":"Point","coordinates":[-72.974685,4.542818]}},{"type":"Feature","properties":{"clase":"parcela","texto":"Caimos 3 N. Valencia 2009","cod_bp":"Caimos 3 N. Valencia 2009"},"geometry":{"type":"Point","coordinates":[-72.975461,4.537211]}},{"type":"Feature","properties":{"clase":"parcela","texto":"Caimos 4 N. Valencia 2006","cod_bp":"Caimos 4 N. Valencia 2006"},"geometry":{"type":"Point","coordinates":[-72.987471,4.525899]}},{"type":"Feature","properties":{"clase":"parcela","texto":"Caravanes (R.)","cod_bp":"Caravanes (R.)"},"geometry":{"type":"Point","coordinates":[-72.957304,4.495563]}},{"type":"Feature","properties":{"clase":"parcela","texto":"Chiguiros 1 (R.)","cod_bp":"Chiguiros 1 (R.)"},"geometry":{"type":"Point","coordinates":[-72.971621,4.472144]}},{"type":"Feature","properties":{"clase":"parcela","texto":"Chiguiros 2 (R.)","cod_bp":"Chiguiros 2 (R.)"},"geometry":{"type":"Point","coordinates":[-72.974816,4.476911]}},{"type":"Feature","properties":{"clase":"parcela","texto":"Chiguiros 3 (R.)","cod_bp":"Chiguiros 3 (R.)"},"geometry":{"type":"Point","coordinates":[-72.973227,4.477921]}},{"type":"Feature","properties":{"clase":"parcela","texto":"Chiriguaro","cod_bp":"Chiriguaro"},"geometry":{"type":"Point","coordinates":[-72.962478,4.481342]}},{"type":"Feature","properties":{"clase":"parcela","texto":"Chirimata Guarataro (R.) Guarataro","cod_bp":"Chirimata Guarataro (R.) Guarataro"},"geometry":{"type":"Point","coordinates":[-72.963936,4.484515]}},{"type":"Feature","properties":{"clase":"parcela","texto":"Citricos","cod_bp":"Citricos"},"geometry":{"type":"Point","coordinates":[-72.966621,4.535063]}},{"type":"Feature","properties":{"clase":"parcela","texto":"FRUTALES","cod_bp":"FRUTALES"},"geometry":{"type":"Point","coordinates":[-73.010097,4.419197]}},{"type":"Feature","properties":{"clase":"parcela","texto":"Lejanias","cod_bp":"Lejanias"},"geometry":{"type":"Point","coordinates":[-72.972842,4.420157]}},{"type":"Feature","properties":{"clase":"parcela","texto":"Limon Tahiti 2019 San Juanito","cod_bp":"Limon Tahiti 2019 San Juanito"},"geometry":{"type":"Point","coordinates":[-72.967461,4.508207]}},{"type":"Feature","properties":{"clase":"parcela","texto":"Manantial (R.)","cod_bp":"Manantial (R.)"},"geometry":{"type":"Point","coordinates":[-72.954596,4.487418]}},{"type":"Feature","properties":{"clase":"parcela","texto":"Matapalo 1 (R.)","cod_bp":"Matapalo 1 (R.)"},"geometry":{"type":"Point","coordinates":[-72.967965,4.480043]}},{"type":"Feature","properties":{"clase":"parcela","texto":"Matapalo 2 (R.)","cod_bp":"Matapalo 2 (R.)"},"geometry":{"type":"Point","coordinates":[-72.963937,4.476856]}},{"type":"Feature","properties":{"clase":"parcela","texto":"Pior es Nada (R.)","cod_bp":"Pior es Nada (R.)"},"geometry":{"type":"Point","coordinates":[-72.96147,4.492551]}},{"type":"Feature","properties":{"clase":"parcela","texto":"San Juanito N. Valencia 92-07 Erradicado","cod_bp":"San Juanito N. Valencia 92-07 Erradicado"},"geometry":{"type":"Point","coordinates":[-72.962626,4.513611]}},{"type":"Feature","properties":{"clase":"parcela","texto":"Sorgo (R.)","cod_bp":"Sorgo (R.)"},"geometry":{"type":"Point","coordinates":[-72.964034,4.471344]}},{"type":"Feature","properties":{"clase":"parcela","texto":"Sorgo (R.) 2","cod_bp":"Sorgo (R.) 2"},"geometry":{"type":"Point","coordinates":[-72.963118,4.473657]}},{"type":"Feature","properties":{"clase":"parcela","texto":"Vivero 1 (Playa Rica)","cod_bp":"Vivero 1 (Playa Rica)"},"geometry":{"type":"Point","coordinates":[-72.95179,4.478179]}},{"type":"Feature","properties":{"clase":"parcela","texto":"Vivero 2 (Cancha","cod_bp":"Vivero 2 (Cancha"},"geometry":{"type":"Point","coordinates":[-72.954066,4.472803]}},{"type":"Feature","properties":{"clase":"bloque","texto":"B.1"},"geometry":{"type":"Point","coordinates":[-72.967728,4.522713]}},{"type":"Feature","properties":{"clase":"bloque","texto":"B.2"},"geometry":{"type":"Point","coordinates":[-72.961625,4.539579]}},{"type":"Feature","properties":{"clase":"bloque","texto":"B.3"},"geometry":{"type":"Point","coordinates":[-72.977125,4.505897]}},{"type":"Feature","properties":{"clase":"bloque","texto":"B.4"},"geometry":{"type":"Point","coordinates":[-72.985626,4.500489]}},{"type":"Feature","properties":{"clase":"bloque","texto":"B.5"},"geometry":{"type":"Point","coordinates":[-72.962626,4.513611]}},{"type":"Feature","properties":{"clase":"bloque","texto":"B.6"},"geometry":{"type":"Point","coordinates":[-72.996292,4.495716]}},{"type":"Feature","properties":{"clase":"bloque","texto":"B.7"},"geometry":{"type":"Point","coordinates":[-72.988717,4.478812]}},{"type":"Feature","properties":{"clase":"bloque","texto":"B.9"},"geometry":{"type":"Point","coordinates":[-72.966711,4.462509]}},{"type":"Feature","properties":{"clase":"bloque","texto":"B.10"},"geometry":{"type":"Point","coordinates":[-72.997274,4.454724]}},{"type":"Feature","properties":{"clase":"bloque","texto":"B.11"},"geometry":{"type":"Point","coordinates":[-72.97738,4.44101]}},{"type":"Feature","properties":{"clase":"bloque","texto":"B.12"},"geometry":{"type":"Point","coordinates":[-72.985484,4.436138]}},{"type":"Feature","properties":{"clase":"bloque","texto":"B.13"},"geometry":{"type":"Point","coordinates":[-72.990715,4.461522]}},{"type":"Feature","properties":{"clase":"bloque","texto":"B.14"},"geometry":{"type":"Point","coordinates":[-72.976331,4.526967]}},{"type":"Feature","properties":{"clase":"bloque","texto":"B.15"},"geometry":{"type":"Point","coordinates":[-72.961019,4.527155]}},{"type":"Feature","properties":{"clase":"bloque","texto":"B.16"},"geometry":{"type":"Point","coordinates":[-72.969591,4.42452]}},{"type":"Feature","properties":{"clase":"bloque","texto":"B.17"},"geometry":{"type":"Point","coordinates":[-72.951505,4.531641]}},{"type":"Feature","properties":{"clase":"bloque","texto":"B.18"},"geometry":{"type":"Point","coordinates":[-72.983765,4.517981]}},{"type":"Feature","properties":{"clase":"bloque","texto":"B.19"},"geometry":{"type":"Point","coordinates":[-72.996587,4.512424]}},{"type":"Feature","properties":{"clase":"bloque","texto":"B.20"},"geometry":{"type":"Point","coordinates":[-72.945255,4.516943]}},{"type":"Feature","properties":{"clase":"bloque","texto":"B.21"},"geometry":{"type":"Point","coordinates":[-72.977274,4.457245]}},{"type":"Feature","properties":{"clase":"bloque","texto":"B.30"},"geometry":{"type":"Point","coordinates":[-72.97021,4.412461]}},{"type":"Feature","properties":{"clase":"bloque","texto":"B.31"},"geometry":{"type":"Point","coordinates":[-73.094528,4.421392]}},{"type":"Feature","properties":{"clase":"bloque","texto":"B.90"},"geometry":{"type":"Point","coordinates":[-72.959599,4.486961]}},{"type":"Feature","properties":{"clase":"bloque","texto":"B.231"},"geometry":{"type":"Point","coordinates":[-72.899132,4.406974]}},{"type":"Feature","properties":{"clase":"bloque","texto":"B.323"},"geometry":{"type":"Point","coordinates":[-72.979146,4.467654]}},{"type":"Feature","properties":{"clase":"bloque","texto":"B.324"},"geometry":{"type":"Point","coordinates":[-72.957894,4.522094]}},{"type":"Feature","properties":{"clase":"bloque","texto":"B.325"},"geometry":{"type":"Point","coordinates":[-72.957285,4.506126]}},{"type":"Feature","properties":{"clase":"bloque","texto":"B.326"},"geometry":{"type":"Point","coordinates":[-72.969139,4.449984]}},{"type":"Feature","properties":{"clase":"bloque","texto":"B.327"},"geometry":{"type":"Point","coordinates":[-72.937943,4.449257]}},{"type":"Feature","properties":{"clase":"bloque","texto":"B.328"},"geometry":{"type":"Point","coordinates":[-72.97927,4.434561]}},{"type":"Feature","properties":{"clase":"bloque","texto":"B.329"},"geometry":{"type":"Point","coordinates":[-72.917294,4.40311]}},{"type":"Feature","properties":{"clase":"bloque","texto":"B.330"},"geometry":{"type":"Point","coordinates":[-72.90361,4.381801]}},{"type":"Feature","properties":{"clase":"bloque","texto":"B.332"},"geometry":{"type":"Point","coordinates":[-72.967295,4.418868]}},{"type":"Feature","properties":{"clase":"bloque","texto":"B.334"},"geometry":{"type":"Point","coordinates":[-72.899639,4.370678]}},{"type":"Feature","properties":{"clase":"bloque","texto":"B.335"},"geometry":{"type":"Point","coordinates":[-72.936599,4.433241]}},{"type":"Feature","properties":{"clase":"bloque","texto":"B.336"},"geometry":{"type":"Point","coordinates":[-72.91208,4.430133]}},{"type":"Feature","properties":{"clase":"bloque","texto":"B.337"},"geometry":{"type":"Point","coordinates":[-72.94802,4.409111]}},{"type":"Feature","properties":{"clase":"bloque","texto":"B.339"},"geometry":{"type":"Point","coordinates":[-73.044487,4.392661]}},{"type":"Feature","properties":{"clase":"bloque","texto":"B.340"},"geometry":{"type":"Point","coordinates":[-72.991658,4.421106]}},{"type":"Feature","properties":{"clase":"bloque","texto":"B.341"},"geometry":{"type":"Point","coordinates":[-72.997136,4.439587]}},{"type":"Feature","properties":{"clase":"bloque","texto":"B.342"},"geometry":{"type":"Point","coordinates":[-72.92265,4.434939]}},{"type":"Feature","properties":{"clase":"bloque","texto":"B.343"},"geometry":{"type":"Point","coordinates":[-72.957536,4.55337]}},{"type":"Feature","properties":{"clase":"bloque","texto":"B.344"},"geometry":{"type":"Point","coordinates":[-73.011267,4.429119]}}]}