{"type":"FeatureCollection","features":[{"type":"Feature","properties":{"clase":"parcela","texto":"P.9","cod_bp":"B.10-P.9"},"geometry":{"type":"Point","coordinates":[-72.995722,4.45093]}},{"type":"Feature","properties":{"clase":"parcela","texto":"P.8","cod_bp":"B.10-P.8"},"geometry":{"type":"Point","coordinates":[-72.997569,4.452433]}},{"type":"Feature","properties":{"clase":"parcela","texto":"P.6","cod_bp":"B.10-P.6"},"geometry":{"type":"Point","coordinates":[-72.995504,4.4576]}},{"type":"Feature","properties":{"clase":"parcela","texto":"P.7","cod_bp":"B.10-P.7"},"geometry":{"type":"Point","coordinates":[-72.998667,4.45548]}},{"type":"Feature","properties":{"clase":"parcela","texto":"P.1","cod_bp":"B.4-P.1"},"geometry":{"type":"Point","coordinates":[-72.989746,4.494608]}},{"type":"Feature","properties":{"clase":"parcela","texto":"P.3","cod_bp":"B.4-P.3"},"geometry":{"type":"Point","coordinates":[-72.98229,4.494169]}},{"type":"Feature","properties":{"clase":"parcela","texto":"P.1","cod_bp":"B.12-P.1"},"geometry":{"type":"Point","coordinates":[-72.987922,4.444813]}},{"type":"Feature","properties":{"clase":"parcela","texto":"P.6","cod_bp":"B.4-P.6"},"geometry":{"type":"Point","coordinates":[-72.985711,4.512169]}},{"type":"Feature","properties":{"clase":"parcela","texto":"P.1","cod_bp":"B.1-P.1"},"geometry":{"type":"Point","coordinates":[-72.975012,4.516562]}},{"type":"Feature","properties":{"clase":"parcela","texto":"P.3","cod_bp":"B.21-P.3"},"geometry":{"type":"Point","coordinates":[-72.974057,4.459968]}},{"type":"Feature","properties":{"clase":"parcela","texto":"P.10","cod_bp":"B.323-P.10"},"geometry":{"type":"Point","coordinates":[-72.983419,4.472027]}},{"type":"Feature","properties":{"clase":"parcela","texto":"P.2","cod_bp":"B.1-P.2"},"geometry":{"type":"Point","coordinates":[-72.969499,4.510394]}},{"type":"Feature","properties":{"clase":"parcela","texto":"P.1","cod_bp":"B.2-P.1"},"geometry":{"type":"Point","coordinates":[-72.968564,4.485311]}},{"type":"Feature","properties":{"clase":"parcela","texto":"P.465","cod_bp":"B.90-P.465"},"geometry":{"type":"Point","coordinates":[-72.963466,4.485982]}},{"type":"Feature","properties":{"clase":"parcela","texto":"P.136","cod_bp":"B.5-P.136"},"geometry":{"type":"Point","coordinates":[-72.963303,4.514644]}},{"type":"Feature","properties":{"clase":"parcela","texto":"P.5","cod_bp":"B.2-P.5"},"geometry":{"type":"Point","coordinates":[-72.971367,4.4981]}},{"type":"Feature","properties":{"clase":"parcela","texto":"P.7","cod_bp":"B.3-P.7"},"geometry":{"type":"Point","coordinates":[-72.975077,4.506554]}},{"type":"Feature","properties":{"clase":"parcela","texto":"P.9","cod_bp":"B.13-P.9"},"geometry":{"type":"Point","coordinates":[-72.993305,4.457374]}},{"type":"Feature","properties":{"clase":"parcela","texto":"P.9","cod_bp":"B.11-P.9"},"geometry":{"type":"Point","coordinates":[-72.983516,4.443619]}},{"type":"Feature","properties":{"clase":"parcela","texto":"P.2","cod_bp":"B.6-P.2"},"geometry":{"type":"Point","coordinates":[-72.996691,4.494737]}},{"type":"Feature","properties":{"clase":"parcela","texto":"P.7","cod_bp":"B.12-P.7"},"geometry":{"type":"Point","coordinates":[-72.986137,4.432542]}},{"type":"Feature","properties":{"clase":"parcela","texto":"P.5","cod_bp":"B.21-P.5"},"geometry":{"type":"Point","coordinates":[-72.974899,4.455887]}},{"type":"Feature","properties":{"clase":"parcela","texto":"P.2","cod_bp":"B.323-P.2"},"geometry":{"type":"Point","coordinates":[-72.9844,4.465599]}},{"type":"Feature","properties":{"clase":"parcela","texto":"P.5","cod_bp":"B.12-P.5"},"geometry":{"type":"Point","coordinates":[-72.986746,4.437104]}},{"type":"Feature","properties":{"clase":"parcela","texto":"P.6","cod_bp":"B.12-P.6"},"geometry":{"type":"Point","coordinates":[-72.985085,4.434621]}},{"type":"Feature","properties":{"clase":"parcela","texto":"P.8","cod_bp":"B.12-P.8"},"geometry":{"type":"Point","coordinates":[-72.983103,4.432185]}},{"type":"Feature","properties":{"clase":"parcela","texto":"P.5","cod_bp":"B.15-P.5"},"geometry":{"type":"Point","coordinates":[-72.957254,4.533218]}},{"type":"Feature","properties":{"clase":"parcela","texto":"P.140","cod_bp":"B.2-P.140"},"geometry":{"type":"Point","coordinates":[-72.96262,4.540713]}},{"type":"Feature","properties":{"clase":"parcela","texto":"P.2","cod_bp":"B.12-P.2"},"geometry":{"type":"Point","coordinates":[-72.990582,4.441465]}},{"type":"Feature","properties":{"clase":"parcela","texto":"P.4","cod_bp":"B.1-P.4"},"geometry":{"type":"Point","coordinates":[-72.969291,4.519276]}},{"type":"Feature","properties":{"clase":"parcela","texto":"P.3","cod_bp":"B.20-P.3"},"geometry":{"type":"Point","coordinates":[-72.946019,4.526391]}},{"type":"Feature","properties":{"clase":"parcela","texto":"P.2","cod_bp":"B.20-P.2"},"geometry":{"type":"Point","coordinates":[-72.945188,4.527201]}},{"type":"Feature","properties":{"clase":"parcela","texto":"P.4","cod_bp":"B.21-P.4"},"geometry":{"type":"Point","coordinates":[-72.97516,4.455269]}},{"type":"Feature","properties":{"clase":"parcela","texto":"P.20","cod_bp":"B.11-P.20"},"geometry":{"type":"Point","coordinates":[-72.970513,4.42921]}},{"type":"Feature","properties":{"clase":"parcela","texto":"P.6","cod_bp":"B.19-P.6"},"geometry":{"type":"Point","coordinates":[-72.999574,4.508323]}},{"type":"Feature","properties":{"clase":"parcela","texto":"P.2","cod_bp":"B.7-P.2"},"geometry":{"type":"Point","coordinates":[-72.993784,4.478139]}},{"type":"Feature","properties":{"clase":"parcela","texto":"P.5","cod_bp":"B.17-P.5"},"geometry":{"type":"Point","coordinates":[-72.949683,4.531342]}},{"type":"Feature","properties":{"clase":"parcela","texto":"P.2","cod_bp":"B.17-P.2"},"geometry":{"type":"Point","coordinates":[-72.955704,4.535502]}},{"type":"Feature","properties":{"clase":"parcela","texto":"P.1","cod_bp":"B.15-P.1"},"geometry":{"type":"Point","coordinates":[-72.964599,4.529014]}},{"type":"Feature","properties":{"clase":"parcela","texto":"P.4","cod_bp":"B.7-P.4"},"geometry":{"type":"Point","coordinates":[-72.989401,4.482837]}},{"type":"Feature","properties":{"clase":"parcela","texto":"P.6","cod_bp":"B.7-P.6"},"geometry":{"type":"Point","coordinates":[-72.984524,4.486295]}},{"type":"Feature","properties":{"clase":"parcela","texto":"P.2","cod_bp":"B.3-P.2"},"geometry":{"type":"Point","coordinates":[-72.973009,4.487899]}},{"type":"Feature","properties":{"clase":"parcela","texto":"P.35","cod_bp":"B.119-P.35"},"geometry":{"type":"Point","coordinates":[-72.979703,4.48278]}},{"type":"Feature","properties":{"clase":"parcela","texto":"P.604","cod_bp":"B.90-P.604"},"geometry":{"type":"Point","coordinates":[-72.966666,4.475869]}},{"type":"Feature","properties":{"clase":"parcela","texto":"P.504","cod_bp":"B.90-P.504"},"geometry":{"type":"Point","coordinates":[-72.97128,4.472887]}},{"type":"Feature","properties":{"clase":"parcela","texto":"P.6","cod_bp":"B.11-P.6"},"geometry":{"type":"Point","coordinates":[-72.980959,4.44934]}},{"type":"Feature","properties":{"clase":"parcela","texto":"P.2","cod_bp":"B.11-P.2"},"geometry":{"type":"Point","coordinates":[-72.973966,4.450313]}},{"type":"Feature","properties":{"clase":"parcela","texto":"P.588","cod_bp":"B.90-P.588"},"geometry":{"type":"Point","coordinates":[-72.968105,4.48067]}},{"type":"Feature","properties":{"clase":"parcela","texto":"P.1","cod_bp":"B.17-P.1"},"geometry":{"type":"Point","coordinates":[-72.95524,4.536614]}},{"type":"Feature","properties":{"clase":"parcela","texto":"P.13","cod_bp":"B.20-P.13"},"geometry":{"type":"Point","coordinates":[-72.948471,4.524097]}},{"type":"Feature","properties":{"clase":"parcela","texto":"P.10","cod_bp":"B.20-P.10"},"geometry":{"type":"Point","coordinates":[-72.947052,4.509654]}},{"type":"Feature","properties":{"clase":"parcela","texto":"P.3","cod_bp":"B.14-P.3"},"geometry":{"type":"Point","coordinates":[-72.982109,4.529011]}},{"type":"Feature","properties":{"clase":"parcela","texto":"P.4","cod_bp":"B.14-P.4"},"geometry":{"type":"Point","coordinates":[-72.981303,4.527773]}},{"type":"Feature","properties":{"clase":"parcela","texto":"P.11","cod_bp":"B.14-P.11"},"geometry":{"type":"Point","coordinates":[-72.976981,4.52826]}},{"type":"Feature","properties":{"clase":"parcela","texto":"P.7","cod_bp":"B.14-P.7"},"geometry":{"type":"Point","coordinates":[-72.978309,4.522248]}},{"type":"Feature","properties":{"clase":"parcela","texto":"P.17","cod_bp":"B.14-P.17"},"geometry":{"type":"Point","coordinates":[-72.972356,4.534127]}},{"type":"Feature","properties":{"clase":"parcela","texto":"P.9","cod_bp":"B.14-P.9"},"geometry":{"type":"Point","coordinates":[-72.975307,4.531652]}},{"type":"Feature","properties":{"clase":"parcela","texto":"P.12","cod_bp":"B.14-P.12"},"geometry":{"type":"Point","coordinates":[-72.976515,4.524828]}},{"type":"Feature","properties":{"clase":"parcela","texto":"P.1","cod_bp":"B.325-P.1"},"geometry":{"type":"Point","coordinates":[-72.952149,4.507014]}},{"type":"Feature","properties":{"clase":"parcela","texto":"P.7","cod_bp":"B.231-P.7"},"geometry":{"type":"Point","coordinates":[-72.891889,4.399717]}},{"type":"Feature","properties":{"clase":"parcela","texto":"P.4","cod_bp":"B.330-P.4"},"geometry":{"type":"Point","coordinates":[-72.901746,4.379978]}},{"type":"Feature","properties":{"clase":"parcela","texto":"P.7","cod_bp":"B.324-P.7"},"geometry":{"type":"Point","coordinates":[-72.958391,4.523168]}},{"type":"Feature","properties":{"clase":"parcela","texto":"P.2","cod_bp":"B.15-P.2"},"geometry":{"type":"Point","coordinates":[-72.961457,4.529108]}},{"type":"Feature","properties":{"clase":"parcela","texto":"P.6","cod_bp":"B.323-P.6"},"geometry":{"type":"Point","coordinates":[-72.977489,4.472643]}},{"type":"Feature","properties":{"clase":"parcela","texto":"P.9","cod_bp":"B.12-P.9"},"geometry":{"type":"Point","coordinates":[-72.982578,4.429958]}},{"type":"Feature","properties":{"clase":"parcela","texto":"P.10","cod_bp":"B.329-P.10"},"geometry":{"type":"Point","coordinates":[-72.920205,4.391594]}},{"type":"Feature","properties":{"clase":"parcela","texto":"P.10","cod_bp":"B.13-P.10"},"geometry":{"type":"Point","coordinates":[-72.987285,4.452241]}},{"type":"Feature","properties":{"clase":"parcela","texto":"P.10","cod_bp":"B.31-P.10"},"geometry":{"type":"Point","coordinates":[-73.070582,4.421852]}},{"type":"Feature","properties":{"clase":"parcela","texto":"P.26","cod_bp":"B.329-P.26"},"geometry":{"type":"Point","coordinates":[-72.910409,4.410837]}},{"type":"Feature","properties":{"clase":"parcela","texto":"P.116","cod_bp":"B.91-P.116"},"geometry":{"type":"Point","coordinates":[-72.971896,4.418619]}},{"type":"Feature","properties":{"clase":"parcela","texto":"P.19","cod_bp":"B.332-P.19"},"geometry":{"type":"Point","coordinates":[-72.959664,4.43202]}},{"type":"Feature","properties":{"clase":"parcela","texto":"P.15","cod_bp":"B.329-P.15"},"geometry":{"type":"Point","coordinates":[-72.925102,4.408247]}},{"type":"Feature","properties":{"clase":"parcela","texto":"P.3","cod_bp":"B.330-P.3"},"geometry":{"type":"Point","coordinates":[-72.907833,4.384293]}},{"type":"Feature","properties":{"clase":"parcela","texto":"P.23","cod_bp":"B.339-P.23"},"geometry":{"type":"Point","coordinates":[-73.012733,4.390661]}},{"type":"Feature","properties":{"clase":"parcela","texto":"P.13","cod_bp":"B.11-P.13"},"geometry":{"type":"Point","coordinates":[-72.977536,4.442238]}},{"type":"Feature","properties":{"clase":"parcela","texto":"P.12","cod_bp":"B.11-P.12"},"geometry":{"type":"Point","coordinates":[-72.978725,4.444266]}},{"type":"Feature","properties":{"clase":"parcela","texto":"P.5","cod_bp":"B.11-P.5"},"geometry":{"type":"Point","coordinates":[-72.978827,4.451532]}},{"type":"Feature","properties":{"clase":"parcela","texto":"P.15","cod_bp":"B.11-P.15"},"geometry":{"type":"Point","coordinates":[-72.972647,4.4438]}},{"type":"Feature","properties":{"clase":"parcela","texto":"P.19","cod_bp":"B.14-P.19"},"geometry":{"type":"Point","coordinates":[-72.969027,4.528258]}},{"type":"Feature","properties":{"clase":"parcela","texto":"P.15","cod_bp":"B.14-P.15"},"geometry":{"type":"Point","coordinates":[-72.973352,4.522105]}},{"type":"Feature","properties":{"clase":"parcela","texto":"P.60","cod_bp":"B.11-P.60"},"geometry":{"type":"Point","coordinates":[-72.990335,4.455294]}},{"type":"Feature","properties":{"clase":"parcela","texto":"P.5","cod_bp":"B.13-P.5"},"geometry":{"type":"Point","coordinates":[-72.991358,4.459742]}},{"type":"Feature","properties":{"clase":"parcela","texto":"P.3","cod_bp":"B.13-P.3"},"geometry":{"type":"Point","coordinates":[-72.992699,4.462429]}},{"type":"Feature","properties":{"clase":"parcela","texto":"P.6","cod_bp":"B.13-P.6"},"geometry":{"type":"Point","coordinates":[-72.987858,4.464678]}},{"type":"Feature","properties":{"clase":"parcela","texto":"P.7","cod_bp":"B.13-P.7"},"geometry":{"type":"Point","coordinates":[-72.986513,4.462902]}},{"type":"Feature","properties":{"clase":"parcela","texto":"P.6","cod_bp":"B.9-P.6"},"geometry":{"type":"Point","coordinates":[-72.962918,4.464898]}},{"type":"Feature","properties":{"clase":"parcela","texto":"P.17","cod_bp":"B.11-P.17"},"geometry":{"type":"Point","coordinates":[-72.975816,4.436035]}},{"type":"Feature","properties":{"clase":"parcela","texto":"P.2","cod_bp":"B.328-P.2"},"geometry":{"type":"Point","coordinates":[-72.980522,4.433448]}},{"type":"Feature","properties":{"clase":"parcela","texto":"P.14","cod_bp":"B.14-P.14"},"geometry":{"type":"Point","coordinates":[-72.971927,4.525682]}},{"type":"Feature","properties":{"clase":"parcela","texto":"P.6","cod_bp":"B.17-P.6"},"geometry":{"type":"Point","coordinates":[-72.950694,4.528183]}},{"type":"Feature","properties":{"clase":"parcela","texto":"P.7","cod_bp":"B.17-P.7"},"geometry":{"type":"Point","coordinates":[-72.947326,4.530154]}},{"type":"Feature","properties":{"clase":"parcela","texto":"P.16","cod_bp":"B.11-P.16"},"geometry":{"type":"Point","coordinates":[-72.972108,4.439219]}},{"type":"Feature","properties":{"clase":"parcela","texto":"P.8","cod_bp":"B.13-P.8"},"geometry":{"type":"Point","coordinates":[-72.986974,4.459107]}},{"type":"Feature","properties":{"clase":"parcela","texto":"P.1","cod_bp":"B.323-P.1"},"geometry":{"type":"Point","coordinates":[-72.98538,4.46633]}},{"type":"Feature","properties":{"clase":"parcela","texto":"P.3","cod_bp":"B.5-P.3"},"geometry":{"type":"Point","coordinates":[-72.993638,4.512205]}},{"type":"Feature","properties":{"clase":"parcela","texto":"P.1","cod_bp":"B.13-P.1"},"geometry":{"type":"Point","coordinates":[-72.991255,4.467674]}},{"type":"Feature","properties":{"clase":"parcela","texto":"P.593","cod_bp":"B.90-P.593"},"geometry":{"type":"Point","coordinates":[-72.9567,4.476807]}},{"type":"Feature","properties":{"clase":"parcela","texto":"P.506","cod_bp":"B.90-P.506"},"geometry":{"type":"Point","coordinates":[-72.963189,4.477473]}},{"type":"Feature","properties":{"clase":"parcela","texto":"P.3","cod_bp":"B.1-P.3"},"geometry":{"type":"Point","coordinates":[-72.970127,4.519244]}},{"type":"Feature","properties":{"clase":"parcela","texto":"P.1","cod_bp":"B.326-P.1"},"geometry":{"type":"Point","coordinates":[-72.971806,4.452654]}},{"type":"Feature","properties":{"clase":"parcela","texto":"P.2","cod_bp":"B.326-P.2"},"geometry":{"type":"Point","coordinates":[-72.970141,4.451045]}},{"type":"Feature","properties":{"clase":"parcela","texto":"P.23","cod_bp":"B.329-P.23"},"geometry":{"type":"Point","coordinates":[-72.912402,4.409124]}},{"type":"Feature","properties":{"clase":"parcela","texto":"P.3","cod_bp":"B.3-P.3"},"geometry":{"type":"Point","coordinates":[-72.978012,4.48966]}},{"type":"Feature","properties":{"clase":"parcela","texto":"P.10","cod_bp":"B.3-P.10"},"geometry":{"type":"Point","coordinates":[-72.978536,4.514229]}},{"type":"Feature","properties":{"clase":"parcela","texto":"P.592","cod_bp":"B.90-P.592"},"geometry":{"type":"Point","coordinates":[-72.959559,4.470069]}},{"type":"Feature","properties":{"clase":"parcela","texto":"P.15","cod_bp":"B.90-P.15"},"geometry":{"type":"Point","coordinates":[-72.962975,4.485875]}},{"type":"Feature","properties":{"clase":"parcela","texto":"P.601","cod_bp":"B.90-P.601"},"geometry":{"type":"Point","coordinates":[-72.959939,4.486403]}},{"type":"Feature","properties":{"clase":"parcela","texto":"P.3","cod_bp":"B.325-P.3"},"geometry":{"type":"Point","coordinates":[-72.9562,4.506976]}},{"type":"Feature","properties":{"clase":"parcela","texto":"P.6","cod_bp":"B.1-P.6"},"geometry":{"type":"Point","coordinates":[-72.965352,4.519084]}},{"type":"Feature","properties":{"clase":"parcela","texto":"P.5","cod_bp":"B.1-P.5"},"geometry":{"type":"Point","coordinates":[-72.967078,4.517198]}},{"type":"Feature","properties":{"clase":"parcela","texto":"P.19","cod_bp":"B.336-P.19"},"geometry":{"type":"Point","coordinates":[-72.926575,4.439326]}},{"type":"Feature","properties":{"clase":"parcela","texto":"P.1","cod_bp":"B.20-P.1"},"geometry":{"type":"Point","coordinates":[-72.943746,4.531838]}},{"type":"Feature","properties":{"clase":"parcela","texto":"P.1","cod_bp":"B.337-P.1"},"geometry":{"type":"Point","coordinates":[-72.93472,4.406732]}},{"type":"Feature","properties":{"clase":"parcela","texto":"P.1","cod_bp":"B.341-P.1"},"geometry":{"type":"Point","coordinates":[-72.996156,4.438385]}},{"type":"Feature","properties":{"clase":"parcela","texto":"P.9","cod_bp":"B.3-P.9"},"geometry":{"type":"Point","coordinates":[-72.978634,4.501975]}},{"type":"Feature","properties":{"clase":"parcela","texto":"P.304","cod_bp":"B.123-P.304"},"geometry":{"type":"Point","coordinates":[-72.960595,4.47874]}},{"type":"Feature","properties":{"clase":"parcela","texto":"P.2","cod_bp":"B.4-P.2"},"geometry":{"type":"Point","coordinates":[-72.98446,4.490554]}},{"type":"Feature","properties":{"clase":"parcela","texto":"P.596","cod_bp":"B.90-P.596"},"geometry":{"type":"Point","coordinates":[-72.95761,4.479976]}},{"type":"Feature","properties":{"clase":"parcela","texto":"P.606","cod_bp":"B.90-P.606"},"geometry":{"type":"Point","coordinates":[-72.969726,4.47231]}},{"type":"Feature","properties":{"clase":"parcela","texto":"P.4","cod_bp":"B.10-P.4"},"geometry":{"type":"Point","coordinates":[-72.996548,4.462049]}},{"type":"Feature","properties":{"clase":"parcela","texto":"P.2","cod_bp":"B.10-P.2"},"geometry":{"type":"Point","coordinates":[-72.996314,4.466991]}},{"type":"Feature","properties":{"clase":"parcela","texto":"P.4","cod_bp":"B.11-P.4"},"geometry":{"type":"Point","coordinates":[-72.976993,4.449091]}},{"type":"Feature","properties":{"clase":"parcela","texto":"P.14","cod_bp":"B.11-P.14"},"geometry":{"type":"Point","coordinates":[-72.975251,4.442118]}},{"type":"Feature","properties":{"clase":"parcela","texto":"P.3","cod_bp":"B.323-P.3"},"geometry":{"type":"Point","coordinates":[-72.982195,4.465288]}},{"type":"Feature","properties":{"clase":"parcela","texto":"P.1","cod_bp":"B.9-P.1"},"geometry":{"type":"Point","coordinates":[-72.969553,4.455693]}},{"type":"Feature","properties":{"clase":"parcela","texto":"P.1","cod_bp":"B.122-P.1"},"geometry":{"type":"Point","coordinates":[-72.953563,4.463799]}},{"type":"Feature","properties":{"clase":"parcela","texto":"P.603","cod_bp":"B.90-P.603"},"geometry":{"type":"Point","coordinates":[-72.953248,4.495176]}},{"type":"Feature","properties":{"clase":"parcela","texto":"P.18","cod_bp":"B.336-P.18"},"geometry":{"type":"Point","coordinates":[-72.92195,4.441136]}},{"type":"Feature","properties":{"clase":"parcela","texto":"P.1","cod_bp":"B.332-P.1"},"geometry":{"type":"Point","coordinates":[-72.945538,4.438379]}},{"type":"Feature","properties":{"clase":"parcela","texto":"P.15","cod_bp":"B.337-P.15"},"geometry":{"type":"Point","coordinates":[-72.951365,4.40854]}},{"type":"Feature","properties":{"clase":"parcela","texto":"P.2","cod_bp":"B.339-P.2"},"geometry":{"type":"Point","coordinates":[-73.066146,4.393815]}},{"type":"Feature","properties":{"clase":"parcela","texto":"P.0","cod_bp":"B.-P.0"},"geometry":{"type":"Point","coordinates":[-73.018635,4.49161]}},{"type":"Feature","properties":{"clase":"parcela","texto":"P.2","cod_bp":"B.16-P.2"},"geometry":{"type":"Point","coordinates":[-72.967712,4.427536]}},{"type":"Feature","properties":{"clase":"parcela","texto":"P.3","cod_bp":"B.16-P.3"},"geometry":{"type":"Point","coordinates":[-72.969688,4.42631]}},{"type":"Feature","properties":{"clase":"parcela","texto":"P.4","cod_bp":"B.16-P.4"},"geometry":{"type":"Point","coordinates":[-72.967373,4.42508]}},{"type":"Feature","properties":{"clase":"parcela","texto":"P.7","cod_bp":"B.16-P.7"},"geometry":{"type":"Point","coordinates":[-72.972669,4.423737]}},{"type":"Feature","properties":{"clase":"parcela","texto":"P.5","cod_bp":"B.16-P.5"},"geometry":{"type":"Point","coordinates":[-72.968812,4.423939]}},{"type":"Feature","properties":{"clase":"parcela","texto":"P.6","cod_bp":"B.16-P.6"},"geometry":{"type":"Point","coordinates":[-72.969211,4.421339]}},{"type":"Feature","properties":{"clase":"parcela","texto":"P.2","cod_bp":"B.14-P.2"},"geometry":{"type":"Point","coordinates":[-72.980109,4.531817]}},{"type":"Feature","properties":{"clase":"parcela","texto":"P.2","cod_bp":"B.18-P.2"},"geometry":{"type":"Point","coordinates":[-72.984278,4.518493]}},{"type":"Feature","properties":{"clase":"parcela","texto":"P.3","cod_bp":"B.19-P.3"},"geometry":{"type":"Point","coordinates":[-73.003162,4.510513]}},{"type":"Feature","properties":{"clase":"parcela","texto":"P.2","cod_bp":"B.9-P.2"},"geometry":{"type":"Point","coordinates":[-72.966895,4.457418]}},{"type":"Feature","properties":{"clase":"parcela","texto":"P.3","cod_bp":"B.9-P.3"},"geometry":{"type":"Point","coordinates":[-72.969132,4.468085]}},{"type":"Feature","properties":{"clase":"parcela","texto":"P.507","cod_bp":"B.90-P.507"},"geometry":{"type":"Point","coordinates":[-72.961951,4.467999]}},{"type":"Feature","properties":{"clase":"parcela","texto":"P.595","cod_bp":"B.90-P.595"},"geometry":{"type":"Point","coordinates":[-72.954215,4.482074]}},{"type":"Feature","properties":{"clase":"parcela","texto":"P.141","cod_bp":"B.3-P.141"},"geometry":{"type":"Point","coordinates":[-72.978429,4.540849]}},{"type":"Feature","properties":{"clase":"parcela","texto":"P.143","cod_bp":"B.3-P.143"},"geometry":{"type":"Point","coordinates":[-72.976045,4.543011]}},{"type":"Feature","properties":{"clase":"parcela","texto":"P.137","cod_bp":"B.1-P.137"},"geometry":{"type":"Point","coordinates":[-72.966306,4.538195]}},{"type":"Feature","properties":{"clase":"parcela","texto":"P.14","cod_bp":"B.329-P.14"},"geometry":{"type":"Point","coordinates":[-72.926444,4.412154]}},{"type":"Feature","properties":{"clase":"parcela","texto":"P.1","cod_bp":"B.14-P.1"},"geometry":{"type":"Point","coordinates":[-72.980311,4.534354]}},{"type":"Feature","properties":{"clase":"parcela","texto":"P.612","cod_bp":"B.5-P.612"},"geometry":{"type":"Point","coordinates":[-72.967743,4.508798]}},{"type":"Feature","properties":{"clase":"parcela","texto":"P.5","cod_bp":"B.19-P.5"},"geometry":{"type":"Point","coordinates":[-73.003849,4.50799]}},{"type":"Feature","properties":{"clase":"parcela","texto":"P.7","cod_bp":"B.19-P.7"},"geometry":{"type":"Point","coordinates":[-73.003779,4.505562]}},{"type":"Feature","properties":{"clase":"parcela","texto":"P.1","cod_bp":"B.19-P.1"},"geometry":{"type":"Point","coordinates":[-73.00163,4.511259]}},{"type":"Feature","properties":{"clase":"parcela","texto":"P.4","cod_bp":"B.19-P.4"},"geometry":{"type":"Point","coordinates":[-72.99747,4.510476]}},{"type":"Feature","properties":{"clase":"parcela","texto":"P.3","cod_bp":"B.12-P.3"},"geometry":{"type":"Point","coordinates":[-72.990701,4.440144]}},{"type":"Feature","properties":{"clase":"parcela","texto":"P.4","cod_bp":"B.12-P.4"},"geometry":{"type":"Point","coordinates":[-72.990447,4.43902]}},{"type":"Feature","properties":{"clase":"parcela","texto":"P.1","cod_bp":"B.18-P.1"},"geometry":{"type":"Point","coordinates":[-72.984167,4.515026]}},{"type":"Feature","properties":{"clase":"parcela","texto":"P.4","cod_bp":"B.13-P.4"},"geometry":{"type":"Point","coordinates":[-72.994399,4.459848]}},{"type":"Feature","properties":{"clase":"parcela","texto":"P.12","cod_bp":"B.20-P.12"},"geometry":{"type":"Point","coordinates":[-72.946106,4.506278]}},{"type":"Feature","properties":{"clase":"parcela","texto":"P.531","cod_bp":"B.90-P.531"},"geometry":{"type":"Point","coordinates":[-72.962859,4.474635]}},{"type":"Feature","properties":{"clase":"parcela","texto":"P.11","cod_bp":"B.323-P.11"},"geometry":{"type":"Point","coordinates":[-72.978914,4.478403]}},{"type":"Feature","properties":{"clase":"parcela","texto":"P.8","cod_bp":"B.15-P.8"},"geometry":{"type":"Point","coordinates":[-72.961393,4.521788]}},{"type":"Feature","properties":{"clase":"parcela","texto":"P.8","cod_bp":"B.21-P.8"},"geometry":{"type":"Point","coordinates":[-72.976734,4.460204]}},{"type":"Feature","properties":{"clase":"parcela","texto":"P.7","cod_bp":"B.21-P.7"},"geometry":{"type":"Point","coordinates":[-72.97421,4.460654]}},{"type":"Feature","properties":{"clase":"parcela","texto":"P.9","cod_bp":"B.323-P.9"},"geometry":{"type":"Point","coordinates":[-72.979891,4.473892]}},{"type":"Feature","properties":{"clase":"parcela","texto":"P.8","cod_bp":"B.7-P.8"},"geometry":{"type":"Point","coordinates":[-72.980552,4.486596]}},{"type":"Feature","properties":{"clase":"parcela","texto":"P.10","cod_bp":"B.11-P.10"},"geometry":{"type":"Point","coordinates":[-72.979292,4.439714]}},{"type":"Feature","properties":{"clase":"parcela","texto":"P.1","cod_bp":"B.119-P.1"},"geometry":{"type":"Point","coordinates":[-72.958213,4.399968]}},{"type":"Feature","properties":{"clase":"parcela","texto":"P.4","cod_bp":"B.6-P.4"},"geometry":{"type":"Point","coordinates":[-72.992447,4.495016]}},{"type":"Feature","properties":{"clase":"parcela","texto":"P.5","cod_bp":"B.5-P.5"},"geometry":{"type":"Point","coordinates":[-72.991486,4.509247]}},{"type":"Feature","properties":{"clase":"parcela","texto":"P.1","cod_bp":"B.6-P.1"},"geometry":{"type":"Point","coordinates":[-72.998548,4.502213]}},{"type":"Feature","properties":{"clase":"parcela","texto":"P.8","cod_bp":"B.14-P.8"},"geometry":{"type":"Point","coordinates":[-72.976704,4.535178]}},{"type":"Feature","properties":{"clase":"parcela","texto":"P.1","cod_bp":"B.16-P.1"},"geometry":{"type":"Point","coordinates":[-72.967225,4.428875]}},{"type":"Feature","properties":{"clase":"parcela","texto":"P.3","cod_bp":"B.15-P.3"},"geometry":{"type":"Point","coordinates":[-72.960502,4.530405]}},{"type":"Feature","properties":{"clase":"parcela","texto":"P.4","cod_bp":"B.15-P.4"},"geometry":{"type":"Point","coordinates":[-72.958494,4.534127]}},{"type":"Feature","properties":{"clase":"parcela","texto":"P.6","cod_bp":"B.15-P.6"},"geometry":{"type":"Point","coordinates":[-72.965758,4.525636]}},{"type":"Feature","properties":{"clase":"parcela","texto":"P.3","cod_bp":"B.334-P.3"},"geometry":{"type":"Point","coordinates":[-72.894406,4.382096]}},{"type":"Feature","properties":{"clase":"parcela","texto":"P.2","cod_bp":"B.334-P.2"},"geometry":{"type":"Point","coordinates":[-72.896518,4.386515]}},{"type":"Feature","properties":{"clase":"parcela","texto":"P.11","cod_bp":"B.21-P.11"},"geometry":{"type":"Point","coordinates":[-72.980494,4.453427]}},{"type":"Feature","properties":{"clase":"parcela","texto":"P.17","cod_bp":"B.332-P.17"},"geometry":{"type":"Point","coordinates":[-72.959558,4.435311]}},{"type":"Feature","properties":{"clase":"parcela","texto":"P.16","cod_bp":"B.332-P.16"},"geometry":{"type":"Point","coordinates":[-72.958166,4.441344]}},{"type":"Feature","properties":{"clase":"parcela","texto":"P.9","cod_bp":"B.20-P.9"},"geometry":{"type":"Point","coordinates":[-72.946614,4.512058]}},{"type":"Feature","properties":{"clase":"parcela","texto":"P.21","cod_bp":"B.11-P.21"},"geometry":{"type":"Point","coordinates":[-72.969417,4.431179]}},{"type":"Feature","properties":{"clase":"parcela","texto":"P.2","cod_bp":"B.2-P.2"},"geometry":{"type":"Point","coordinates":[-72.96947,4.488916]}},{"type":"Feature","properties":{"clase":"parcela","texto":"P.3","cod_bp":"B.2-P.3"},"geometry":{"type":"Point","coordinates":[-72.967666,4.489996]}},{"type":"Feature","properties":{"clase":"parcela","texto":"P.2","cod_bp":"B.327-P.2"},"geometry":{"type":"Point","coordinates":[-72.938078,4.454999]}},{"type":"Feature","properties":{"clase":"parcela","texto":"P.5","cod_bp":"B.327-P.5"},"geometry":{"type":"Point","coordinates":[-72.937647,4.442471]}},{"type":"Feature","properties":{"clase":"parcela","texto":"P.7","cod_bp":"B.11-P.7"},"geometry":{"type":"Point","coordinates":[-72.983729,4.448287]}},{"type":"Feature","properties":{"clase":"parcela","texto":"P.11","cod_bp":"B.11-P.11"},"geometry":{"type":"Point","coordinates":[-72.981549,4.444207]}},{"type":"Feature","properties":{"clase":"parcela","texto":"P.19","cod_bp":"B.11-P.19"},"geometry":{"type":"Point","coordinates":[-72.972132,4.432626]}},{"type":"Feature","properties":{"clase":"parcela","texto":"P.5","cod_bp":"B.3-P.5"},"geometry":{"type":"Point","coordinates":[-72.975954,4.493715]}},{"type":"Feature","properties":{"clase":"parcela","texto":"P.1","cod_bp":"B.3-P.1"},"geometry":{"type":"Point","coordinates":[-72.976595,4.482053]}},{"type":"Feature","properties":{"clase":"parcela","texto":"P.466","cod_bp":"B.90-P.466"},"geometry":{"type":"Point","coordinates":[-72.962424,4.490562]}},{"type":"Feature","properties":{"clase":"parcela","texto":"P.135","cod_bp":"B.1-P.135"},"geometry":{"type":"Point","coordinates":[-72.936781,4.420846]}},{"type":"Feature","properties":{"clase":"parcela","texto":"P.4","cod_bp":"B.17-P.4"},"geometry":{"type":"Point","coordinates":[-72.951079,4.533124]}},{"type":"Feature","properties":{"clase":"parcela","texto":"P.3","cod_bp":"B.11-P.3"},"geometry":{"type":"Point","coordinates":[-72.97509,4.452142]}},{"type":"Feature","properties":{"clase":"parcela","texto":"P.2","cod_bp":"B.231-P.2"},"geometry":{"type":"Point","coordinates":[-72.896845,4.398896]}},{"type":"Feature","properties":{"clase":"parcela","texto":"P.1","cod_bp":"B.231-P.1"},"geometry":{"type":"Point","coordinates":[-72.895929,4.394419]}},{"type":"Feature","properties":{"clase":"parcela","texto":"P.5","cod_bp":"B.330-P.5"},"geometry":{"type":"Point","coordinates":[-72.901719,4.375442]}},{"type":"Feature","properties":{"clase":"parcela","texto":"P.6","cod_bp":"B.330-P.6"},"geometry":{"type":"Point","coordinates":[-72.906101,4.367873]}},{"type":"Feature","properties":{"clase":"parcela","texto":"P.2","cod_bp":"B.330-P.2"},"geometry":{"type":"Point","coordinates":[-72.902327,4.387521]}},{"type":"Feature","properties":{"clase":"parcela","texto":"P.1","cod_bp":"B.330-P.1"},"geometry":{"type":"Point","coordinates":[-72.901619,4.397755]}},{"type":"Feature","properties":{"clase":"parcela","texto":"P.32","cod_bp":"B.329-P.32"},"geometry":{"type":"Point","coordinates":[-72.904095,4.396094]}},{"type":"Feature","properties":{"clase":"parcela","texto":"P.30","cod_bp":"B.329-P.30"},"geometry":{"type":"Point","coordinates":[-72.909693,4.400971]}},{"type":"Feature","properties":{"clase":"parcela","texto":"P.31","cod_bp":"B.329-P.31"},"geometry":{"type":"Point","coordinates":[-72.906446,4.402604]}},{"type":"Feature","properties":{"clase":"parcela","texto":"P.4","cod_bp":"B.20-P.4"},"geometry":{"type":"Point","coordinates":[-72.943596,4.522464]}},{"type":"Feature","properties":{"clase":"parcela","texto":"P.18","cod_bp":"B.332-P.18"},"geometry":{"type":"Point","coordinates":[-72.962712,4.427371]}},{"type":"Feature","properties":{"clase":"parcela","texto":"P.5","cod_bp":"B.329-P.5"},"geometry":{"type":"Point","coordinates":[-72.930354,4.409386]}},{"type":"Feature","properties":{"clase":"parcela","texto":"P.13","cod_bp":"B.329-P.13"},"geometry":{"type":"Point","coordinates":[-72.924243,4.41306]}},{"type":"Feature","properties":{"clase":"parcela","texto":"P.12","cod_bp":"B.329-P.12"},"geometry":{"type":"Point","coordinates":[-72.922133,4.415518]}},{"type":"Feature","properties":{"clase":"parcela","texto":"P.3","cod_bp":"B.336-P.3"},"geometry":{"type":"Point","coordinates":[-72.910054,4.43905]}},{"type":"Feature","properties":{"clase":"parcela","texto":"P.15","cod_bp":"B.332-P.15"},"geometry":{"type":"Point","coordinates":[-72.953977,4.442915]}},{"type":"Feature","properties":{"clase":"parcela","texto":"P.1","cod_bp":"B.334-P.1"},"geometry":{"type":"Point","coordinates":[-72.898497,4.389123]}},{"type":"Feature","properties":{"clase":"parcela","texto":"P.7","cod_bp":"B.337-P.7"},"geometry":{"type":"Point","coordinates":[-72.961783,4.411689]}},{"type":"Feature","properties":{"clase":"parcela","texto":"P.12","cod_bp":"B.336-P.12"},"geometry":{"type":"Point","coordinates":[-72.91654,4.42163]}},{"type":"Feature","properties":{"clase":"parcela","texto":"P.5","cod_bp":"B.334-P.5"},"geometry":{"type":"Point","coordinates":[-72.89535,4.372748]}},{"type":"Feature","properties":{"clase":"parcela","texto":"P.14","cod_bp":"B.20-P.14"},"geometry":{"type":"Point","coordinates":[-72.950088,4.521271]}},{"type":"Feature","properties":{"clase":"parcela","texto":"P.24","cod_bp":"B.329-P.24"},"geometry":{"type":"Point","coordinates":[-72.911192,4.40035]}},{"type":"Feature","properties":{"clase":"parcela","texto":"P.27","cod_bp":"B.329-P.27"},"geometry":{"type":"Point","coordinates":[-72.911883,4.387895]}},{"type":"Feature","properties":{"clase":"parcela","texto":"P.1","cod_bp":"B.327-P.1"},"geometry":{"type":"Point","coordinates":[-72.938312,4.458194]}},{"type":"Feature","properties":{"clase":"parcela","texto":"P.6","cod_bp":"B.327-P.6"},"geometry":{"type":"Point","coordinates":[-72.931135,4.438937]}},{"type":"Feature","properties":{"clase":"parcela","texto":"P.4","cod_bp":"B.327-P.4"},"geometry":{"type":"Point","coordinates":[-72.938852,4.446464]}},{"type":"Feature","properties":{"clase":"parcela","texto":"P.3","cod_bp":"B.327-P.3"},"geometry":{"type":"Point","coordinates":[-72.938309,4.451103]}},{"type":"Feature","properties":{"clase":"parcela","texto":"P.2","cod_bp":"B.336-P.2"},"geometry":{"type":"Point","coordinates":[-72.913179,4.441996]}},{"type":"Feature","properties":{"clase":"parcela","texto":"P.17","cod_bp":"B.336-P.17"},"geometry":{"type":"Point","coordinates":[-72.918385,4.440316]}},{"type":"Feature","properties":{"clase":"parcela","texto":"P.4","cod_bp":"B.336-P.4"},"geometry":{"type":"Point","coordinates":[-72.909701,4.434756]}},{"type":"Feature","properties":{"clase":"parcela","texto":"P.9","cod_bp":"B.336-P.9"},"geometry":{"type":"Point","coordinates":[-72.911425,4.42007]}},{"type":"Feature","properties":{"clase":"parcela","texto":"P.10","cod_bp":"B.336-P.10"},"geometry":{"type":"Point","coordinates":[-72.910896,4.416722]}},{"type":"Feature","properties":{"clase":"parcela","texto":"P.8","cod_bp":"B.324-P.8"},"geometry":{"type":"Point","coordinates":[-72.959368,4.524001]}},{"type":"Feature","properties":{"clase":"parcela","texto":"P.20","cod_bp":"B.329-P.20"},"geometry":{"type":"Point","coordinates":[-72.917076,4.390109]}},{"type":"Feature","properties":{"clase":"parcela","texto":"P.15","cod_bp":"B.336-P.15"},"geometry":{"type":"Point","coordinates":[-72.914488,4.43699]}},{"type":"Feature","properties":{"clase":"parcela","texto":"P.11","cod_bp":"B.336-P.11"},"geometry":{"type":"Point","coordinates":[-72.91768,4.417886]}},{"type":"Feature","properties":{"clase":"parcela","texto":"P.7","cod_bp":"B.15-P.7"},"geometry":{"type":"Point","coordinates":[-72.963555,4.520551]}},{"type":"Feature","properties":{"clase":"parcela","texto":"P.28","cod_bp":"B.329-P.28"},"geometry":{"type":"Point","coordinates":[-72.904892,4.407787]}},{"type":"Feature","properties":{"clase":"parcela","texto":"P.7","cod_bp":"B.336-P.7"},"geometry":{"type":"Point","coordinates":[-72.904064,4.425611]}},{"type":"Feature","properties":{"clase":"parcela","texto":"P.8","cod_bp":"B.336-P.8"},"geometry":{"type":"Point","coordinates":[-72.907476,4.421221]}},{"type":"Feature","properties":{"clase":"parcela","texto":"P.6","cod_bp":"B.21-P.6"},"geometry":{"type":"Point","coordinates":[-72.974888,4.459648]}},{"type":"Feature","properties":{"clase":"parcela","texto":"P.20","cod_bp":"B.336-P.20"},"geometry":{"type":"Point","coordinates":[-72.913454,4.432399]}},{"type":"Feature","properties":{"clase":"parcela","texto":"P.14","cod_bp":"B.336-P.14"},"geometry":{"type":"Point","coordinates":[-72.910535,4.430103]}},{"type":"Feature","properties":{"clase":"parcela","texto":"P.6","cod_bp":"B.6-P.6"},"geometry":{"type":"Point","coordinates":[-72.991086,4.502872]}},{"type":"Feature","properties":{"clase":"parcela","texto":"P.5","cod_bp":"B.332-P.5"},"geometry":{"type":"Point","coordinates":[-72.96648,4.422505]}},{"type":"Feature","properties":{"clase":"parcela","texto":"P.7","cod_bp":"B.334-P.7"},"geometry":{"type":"Point","coordinates":[-72.893565,4.364328]}},{"type":"Feature","properties":{"clase":"parcela","texto":"P.10","cod_bp":"B.339-P.10"},"geometry":{"type":"Point","coordinates":[-73.045113,4.396096]}},{"type":"Feature","properties":{"clase":"parcela","texto":"P.3","cod_bp":"B.337-P.3"},"geometry":{"type":"Point","coordinates":[-72.942432,4.402396]}},{"type":"Feature","properties":{"clase":"parcela","texto":"P.16","cod_bp":"B.31-P.16"},"geometry":{"type":"Point","coordinates":[-73.094966,4.423299]}},{"type":"Feature","properties":{"clase":"parcela","texto":"P.16","cod_bp":"B.329-P.16"},"geometry":{"type":"Point","coordinates":[-72.921627,4.405376]}},{"type":"Feature","properties":{"clase":"parcela","texto":"P.3","cod_bp":"B.335-P.3"},"geometry":{"type":"Point","coordinates":[-72.935867,4.432585]}},{"type":"Feature","properties":{"clase":"parcela","texto":"P.14","cod_bp":"B.334-P.14"},"geometry":{"type":"Point","coordinates":[-72.909029,4.359476]}},{"type":"Feature","properties":{"clase":"parcela","texto":"P.4","cod_bp":"B.323-P.4"},"geometry":{"type":"Point","coordinates":[-72.981079,4.463975]}},{"type":"Feature","properties":{"clase":"parcela","texto":"P.5","cod_bp":"B.323-P.5"},"geometry":{"type":"Point","coordinates":[-72.978242,4.467075]}},{"type":"Feature","properties":{"clase":"parcela","texto":"P.7","cod_bp":"B.323-P.7"},"geometry":{"type":"Point","coordinates":[-72.974826,4.471481]}},{"type":"Feature","properties":{"clase":"parcela","texto":"P.9","cod_bp":"B.21-P.9"},"geometry":{"type":"Point","coordinates":[-72.978205,4.459546]}},{"type":"Feature","properties":{"clase":"parcela","texto":"P.10","cod_bp":"B.21-P.10"},"geometry":{"type":"Point","coordinates":[-72.979289,4.456227]}},{"type":"Feature","properties":{"clase":"parcela","texto":"P.33","cod_bp":"B.329-P.33"},"geometry":{"type":"Point","coordinates":[-72.913815,4.408695]}},{"type":"Feature","properties":{"clase":"parcela","texto":"P.3","cod_bp":"B.30-P.3"},"geometry":{"type":"Point","coordinates":[-72.973803,4.410733]}},{"type":"Feature","properties":{"clase":"parcela","texto":"P.3","cod_bp":"B.339-P.3"},"geometry":{"type":"Point","coordinates":[-73.062364,4.394765]}},{"type":"Feature","properties":{"clase":"parcela","texto":"P.13","cod_bp":"B.231-P.13"},"geometry":{"type":"Point","coordinates":[-72.899771,4.417221]}},{"type":"Feature","properties":{"clase":"parcela","texto":"P.12","cod_bp":"B.231-P.12"},"geometry":{"type":"Point","coordinates":[-72.906379,4.416096]}},{"type":"Feature","properties":{"clase":"parcela","texto":"P.2","cod_bp":"B.119-P.2"},"geometry":{"type":"Point","coordinates":[-72.888105,4.40019]}},{"type":"Feature","properties":{"clase":"parcela","texto":"P.118","cod_bp":"B.123-P.118"},"geometry":{"type":"Point","coordinates":[-72.961011,4.477475]}},{"type":"Feature","properties":{"clase":"parcela","texto":"P.4","cod_bp":"B.335-P.4"},"geometry":{"type":"Point","coordinates":[-72.935209,4.428804]}},{"type":"Feature","properties":{"clase":"parcela","texto":"P.22","cod_bp":"B.11-P.22"},"geometry":{"type":"Point","coordinates":[-72.966439,4.435719]}},{"type":"Feature","properties":{"clase":"parcela","texto":"P.10","cod_bp":"B.332-P.10"},"geometry":{"type":"Point","coordinates":[-72.95107,4.424524]}},{"type":"Feature","properties":{"clase":"parcela","texto":"P.11","cod_bp":"B.339-P.11"},"geometry":{"type":"Point","coordinates":[-73.03857,4.398338]}},{"type":"Feature","properties":{"clase":"parcela","texto":"P.4","cod_bp":"B.339-P.4"},"geometry":{"type":"Point","coordinates":[-73.059215,4.39391]}},{"type":"Feature","properties":{"clase":"parcela","texto":"P.5","cod_bp":"B.339-P.5"},"geometry":{"type":"Point","coordinates":[-73.05617,4.392065]}},{"type":"Feature","properties":{"clase":"parcela","texto":"P.6","cod_bp":"B.339-P.6"},"geometry":{"type":"Point","coordinates":[-73.052698,4.390344]}},{"type":"Feature","properties":{"clase":"parcela","texto":"P.9","cod_bp":"B.339-P.9"},"geometry":{"type":"Point","coordinates":[-73.047325,4.392264]}},{"type":"Feature","properties":{"clase":"parcela","texto":"P.7","cod_bp":"B.20-P.7"},"geometry":{"type":"Point","coordinates":[-72.945873,4.516799]}},{"type":"Feature","properties":{"clase":"parcela","texto":"P.6","cod_bp":"B.20-P.6"},"geometry":{"type":"Point","coordinates":[-72.9437,4.518837]}},{"type":"Feature","properties":{"clase":"parcela","texto":"P.8","cod_bp":"B.20-P.8"},"geometry":{"type":"Point","coordinates":[-72.944788,4.514136]}},{"type":"Feature","properties":{"clase":"parcela","texto":"P.467","cod_bp":"B.90-P.467"},"geometry":{"type":"Point","coordinates":[-72.972462,4.47612]}},{"type":"Feature","properties":{"clase":"parcela","texto":"P.27","cod_bp":"B.11-P.27"},"geometry":{"type":"Point","coordinates":[-72.992286,4.453196]}},{"type":"Feature","properties":{"clase":"parcela","texto":"P.4","cod_bp":"B.9-P.4"},"geometry":{"type":"Point","coordinates":[-72.968013,4.468246]}},{"type":"Feature","properties":{"clase":"parcela","texto":"P.7","cod_bp":"B.329-P.7"},"geometry":{"type":"Point","coordinates":[-72.927149,4.402756]}},{"type":"Feature","properties":{"clase":"parcela","texto":"P.101","cod_bp":"B.123-P.101"},"geometry":{"type":"Point","coordinates":[-72.927185,4.404897]}},{"type":"Feature","properties":{"clase":"parcela","texto":"P.6","cod_bp":"B.337-P.6"},"geometry":{"type":"Point","coordinates":[-72.953069,4.415371]}},{"type":"Feature","properties":{"clase":"parcela","texto":"P.25","cod_bp":"B.11-P.25"},"geometry":{"type":"Point","coordinates":[-72.972032,4.435177]}},{"type":"Feature","properties":{"clase":"parcela","texto":"P.23","cod_bp":"B.11-P.23"},"geometry":{"type":"Point","coordinates":[-72.973737,4.433796]}},{"type":"Feature","properties":{"clase":"parcela","texto":"P.7","cod_bp":"B.327-P.7"},"geometry":{"type":"Point","coordinates":[-72.944044,4.447798]}},{"type":"Feature","properties":{"clase":"parcela","texto":"P.8","cod_bp":"B.323-P.8"},"geometry":{"type":"Point","coordinates":[-72.974612,4.4722]}},{"type":"Feature","properties":{"clase":"parcela","texto":"P.25","cod_bp":"B.329-P.25"},"geometry":{"type":"Point","coordinates":[-72.913768,4.38635]}},{"type":"Feature","properties":{"clase":"parcela","texto":"P.3","cod_bp":"B.231-P.3"},"geometry":{"type":"Point","coordinates":[-72.894728,4.40232]}},{"type":"Feature","properties":{"clase":"parcela","texto":"P.5","cod_bp":"B.9-P.5"},"geometry":{"type":"Point","coordinates":[-72.964418,4.463939]}},{"type":"Feature","properties":{"clase":"parcela","texto":"P.1","cod_bp":"B.336-P.1"},"geometry":{"type":"Point","coordinates":[-72.914174,4.444025]}},{"type":"Feature","properties":{"clase":"parcela","texto":"P.8","cod_bp":"B.231-P.8"},"geometry":{"type":"Point","coordinates":[-72.893012,4.401235]}},{"type":"Feature","properties":{"clase":"parcela","texto":"P.2","cod_bp":"B.329-P.2"},"geometry":{"type":"Point","coordinates":[-72.929054,4.418209]}},{"type":"Feature","properties":{"clase":"parcela","texto":"P.1","cod_bp":"B.329-P.1"},"geometry":{"type":"Point","coordinates":[-72.93012,4.422954]}},{"type":"Feature","properties":{"clase":"parcela","texto":"P.116","cod_bp":"B.123-P.116"},"geometry":{"type":"Point","coordinates":[-72.947634,4.434065]}},{"type":"Feature","properties":{"clase":"parcela","texto":"P.15","cod_bp":"B.339-P.15"},"geometry":{"type":"Point","coordinates":[-73.026649,4.389807]}},{"type":"Feature","properties":{"clase":"parcela","texto":"P.16","cod_bp":"B.339-P.16"},"geometry":{"type":"Point","coordinates":[-73.030338,4.392162]}},{"type":"Feature","properties":{"clase":"parcela","texto":"P.17","cod_bp":"B.339-P.17"},"geometry":{"type":"Point","coordinates":[-73.032921,4.392401]}},{"type":"Feature","properties":{"clase":"parcela","texto":"P.18","cod_bp":"B.339-P.18"},"geometry":{"type":"Point","coordinates":[-73.037388,4.391768]}},{"type":"Feature","properties":{"clase":"parcela","texto":"P.19","cod_bp":"B.339-P.19"},"geometry":{"type":"Point","coordinates":[-73.040576,4.391455]}},{"type":"Feature","properties":{"clase":"parcela","texto":"P.16","cod_bp":"B.14-P.16"},"geometry":{"type":"Point","coordinates":[-72.97567,4.519647]}},{"type":"Feature","properties":{"clase":"parcela","texto":"P.20","cod_bp":"B.14-P.20"},"geometry":{"type":"Point","coordinates":[-72.970671,4.526923]}},{"type":"Feature","properties":{"clase":"parcela","texto":"P.7","cod_bp":"B.7-P.7"},"geometry":{"type":"Point","coordinates":[-72.981882,4.480828]}},{"type":"Feature","properties":{"clase":"parcela","texto":"P.10","cod_bp":"B.334-P.10"},"geometry":{"type":"Point","coordinates":[-72.900114,4.366409]}},{"type":"Feature","properties":{"clase":"parcela","texto":"P.7","cod_bp":"B.339-P.7"},"geometry":{"type":"Point","coordinates":[-73.055306,4.394125]}},{"type":"Feature","properties":{"clase":"parcela","texto":"P.22","cod_bp":"B.339-P.22"},"geometry":{"type":"Point","coordinates":[-73.045624,4.386631]}},{"type":"Feature","properties":{"clase":"parcela","texto":"P.21","cod_bp":"B.339-P.21"},"geometry":{"type":"Point","coordinates":[-73.04927,4.389974]}},{"type":"Feature","properties":{"clase":"parcela","texto":"P.20","cod_bp":"B.339-P.20"},"geometry":{"type":"Point","coordinates":[-73.04439,4.390513]}},{"type":"Feature","properties":{"clase":"parcela","texto":"P.23","cod_bp":"B.31-P.23"},"geometry":{"type":"Point","coordinates":[-73.09782,4.419704]}},{"type":"Feature","properties":{"clase":"parcela","texto":"P.133","cod_bp":"B.1-P.133"},"geometry":{"type":"Point","coordinates":[-72.97019,4.5371]}},{"type":"Feature","properties":{"clase":"parcela","texto":"P.139","cod_bp":"B.1-P.139"},"geometry":{"type":"Point","coordinates":[-72.965629,4.537387]}},{"type":"Feature","properties":{"clase":"parcela","texto":"P.3","cod_bp":"B.17-P.3"},"geometry":{"type":"Point","coordinates":[-72.953239,4.53439]}},{"type":"Feature","properties":{"clase":"parcela","texto":"P.5","cod_bp":"B.325-P.5"},"geometry":{"type":"Point","coordinates":[-72.962611,4.505691]}},{"type":"Feature","properties":{"clase":"parcela","texto":"P.6","cod_bp":"B.14-P.6"},"geometry":{"type":"Point","coordinates":[-72.980921,4.523645]}},{"type":"Feature","properties":{"clase":"parcela","texto":"P.5","cod_bp":"B.14-P.5"},"geometry":{"type":"Point","coordinates":[-72.980212,4.525943]}},{"type":"Feature","properties":{"clase":"parcela","texto":"P.24","cod_bp":"B.31-P.24"},"geometry":{"type":"Point","coordinates":[-73.094896,4.411006]}},{"type":"Feature","properties":{"clase":"parcela","texto":"P.8","cod_bp":"B.31-P.8"},"geometry":{"type":"Point","coordinates":[-73.053549,4.413034]}},{"type":"Feature","properties":{"clase":"parcela","texto":"P.9","cod_bp":"B.31-P.9"},"geometry":{"type":"Point","coordinates":[-73.055449,4.41811]}},{"type":"Feature","properties":{"clase":"parcela","texto":"P.14","cod_bp":"B.339-P.14"},"geometry":{"type":"Point","coordinates":[-73.032158,4.392723]}},{"type":"Feature","properties":{"clase":"parcela","texto":"P.2","cod_bp":"B.5-P.2"},"geometry":{"type":"Point","coordinates":[-72.996024,4.51102]}},{"type":"Feature","properties":{"clase":"parcela","texto":"P.3","cod_bp":"B.6-P.3"},"geometry":{"type":"Point","coordinates":[-72.993316,4.496487]}},{"type":"Feature","properties":{"clase":"parcela","texto":"P.17","cod_bp":"B.20-P.17"},"geometry":{"type":"Point","coordinates":[-72.952897,4.520823]}},{"type":"Feature","properties":{"clase":"parcela","texto":"P.1","cod_bp":"B.7-P.1"},"geometry":{"type":"Point","coordinates":[-72.995481,4.479299]}},{"type":"Feature","properties":{"clase":"parcela","texto":"P.14","cod_bp":"B.21-P.14"},"geometry":{"type":"Point","coordinates":[-72.972786,4.460994]}},{"type":"Feature","properties":{"clase":"parcela","texto":"P.13","cod_bp":"B.21-P.13"},"geometry":{"type":"Point","coordinates":[-72.983437,4.453216]}},{"type":"Feature","properties":{"clase":"parcela","texto":"P.12","cod_bp":"B.21-P.12"},"geometry":{"type":"Point","coordinates":[-72.983805,4.455894]}},{"type":"Feature","properties":{"clase":"parcela","texto":"P.2","cod_bp":"B.31-P.2"},"geometry":{"type":"Point","coordinates":[-73.057089,4.397783]}},{"type":"Feature","properties":{"clase":"parcela","texto":"P.4","cod_bp":"B.31-P.4"},"geometry":{"type":"Point","coordinates":[-73.05081,4.395773]}},{"type":"Feature","properties":{"clase":"parcela","texto":"P.5","cod_bp":"B.31-P.5"},"geometry":{"type":"Point","coordinates":[-73.045452,4.409811]}},{"type":"Feature","properties":{"clase":"parcela","texto":"P.1","cod_bp":"B.328-P.1"},"geometry":{"type":"Point","coordinates":[-72.978946,4.433003]}},{"type":"Feature","properties":{"clase":"parcela","texto":"P.6","cod_bp":"B.231-P.6"},"geometry":{"type":"Point","coordinates":[-72.892505,4.394471]}},{"type":"Feature","properties":{"clase":"parcela","texto":"P.7","cod_bp":"B.31-P.7"},"geometry":{"type":"Point","coordinates":[-73.048985,4.412743]}},{"type":"Feature","properties":{"clase":"parcela","texto":"P.15","cod_bp":"B.31-P.15"},"geometry":{"type":"Point","coordinates":[-73.08787,4.426843]}},{"type":"Feature","properties":{"clase":"parcela","texto":"P.0","cod_bp":"B.340-P.0"},"geometry":{"type":"Point","coordinates":[-73.055446,4.430226]}},{"type":"Feature","properties":{"clase":"parcela","texto":"P.4","cod_bp":"B.329-P.4"},"geometry":{"type":"Point","coordinates":[-72.930226,4.41351]}},{"type":"Feature","properties":{"clase":"parcela","texto":"P.3","cod_bp":"B.329-P.3"},"geometry":{"type":"Point","coordinates":[-72.932304,4.417435]}},{"type":"Feature","properties":{"clase":"parcela","texto":"P.8","cod_bp":"B.329-P.8"},"geometry":{"type":"Point","coordinates":[-72.92382,4.396519]}},{"type":"Feature","properties":{"clase":"parcela","texto":"P.29","cod_bp":"B.329-P.29"},"geometry":{"type":"Point","coordinates":[-72.909565,4.395091]}},{"type":"Feature","properties":{"clase":"parcela","texto":"P.14","cod_bp":"B.31-P.14"},"geometry":{"type":"Point","coordinates":[-73.080404,4.426324]}},{"type":"Feature","properties":{"clase":"parcela","texto":"P.13","cod_bp":"B.31-P.13"},"geometry":{"type":"Point","coordinates":[-73.077955,4.42665]}},{"type":"Feature","properties":{"clase":"parcela","texto":"P.4","cod_bp":"B.332-P.4"},"geometry":{"type":"Point","coordinates":[-72.95002,4.432341]}},{"type":"Feature","properties":{"clase":"parcela","texto":"P.11","cod_bp":"B.332-P.11"},"geometry":{"type":"Point","coordinates":[-72.956389,4.432394]}},{"type":"Feature","properties":{"clase":"parcela","texto":"P.17","cod_bp":"B.31-P.17"},"geometry":{"type":"Point","coordinates":[-73.090138,4.418279]}},{"type":"Feature","properties":{"clase":"parcela","texto":"P.18","cod_bp":"B.31-P.18"},"geometry":{"type":"Point","coordinates":[-73.087058,4.418584]}},{"type":"Feature","properties":{"clase":"parcela","texto":"P.12","cod_bp":"B.31-P.12"},"geometry":{"type":"Point","coordinates":[-73.080024,4.42276]}},{"type":"Feature","properties":{"clase":"parcela","texto":"P.602","cod_bp":"B.90-P.602"},"geometry":{"type":"Point","coordinates":[-72.956951,4.494114]}},{"type":"Feature","properties":{"clase":"parcela","texto":"P.552","cod_bp":"B.90-P.552"},"geometry":{"type":"Point","coordinates":[-72.95561,4.485153]}},{"type":"Feature","properties":{"clase":"parcela","texto":"P.4","cod_bp":"B.337-P.4"},"geometry":{"type":"Point","coordinates":[-72.942309,4.411009]}},{"type":"Feature","properties":{"clase":"parcela","texto":"P.8","cod_bp":"B.337-P.8"},"geometry":{"type":"Point","coordinates":[-72.957679,4.419724]}},{"type":"Feature","properties":{"clase":"parcela","texto":"P.10","cod_bp":"B.10-P.10"},"geometry":{"type":"Point","coordinates":[-72.993413,4.443368]}},{"type":"Feature","properties":{"clase":"parcela","texto":"P.138","cod_bp":"B.2-P.138"},"geometry":{"type":"Point","coordinates":[-72.958356,4.54297]}},{"type":"Feature","properties":{"clase":"parcela","texto":"P.5","cod_bp":"B.20-P.5"},"geometry":{"type":"Point","coordinates":[-72.943757,4.520946]}},{"type":"Feature","properties":{"clase":"parcela","texto":"P.15","cod_bp":"B.334-P.15"},"geometry":{"type":"Point","coordinates":[-72.899906,4.39364]}},{"type":"Feature","properties":{"clase":"parcela","texto":"P.8","cod_bp":"B.19-P.8"},"geometry":{"type":"Point","coordinates":[-73.001449,4.506753]}},{"type":"Feature","properties":{"clase":"parcela","texto":"P.9","cod_bp":"B.231-P.9"},"geometry":{"type":"Point","coordinates":[-72.896261,4.407235]}},{"type":"Feature","properties":{"clase":"parcela","texto":"P.4","cod_bp":"B.231-P.4"},"geometry":{"type":"Point","coordinates":[-72.89853,4.407349]}},{"type":"Feature","properties":{"clase":"parcela","texto":"P.5","cod_bp":"B.231-P.5"},"geometry":{"type":"Point","coordinates":[-72.903601,4.412609]}},{"type":"Feature","properties":{"clase":"parcela","texto":"P.591","cod_bp":"B.90-P.591"},"geometry":{"type":"Point","coordinates":[-72.951595,4.474772]}},{"type":"Feature","properties":{"clase":"parcela","texto":"P.8","cod_bp":"B.339-P.8"},"geometry":{"type":"Point","coordinates":[-73.052135,4.391885]}},{"type":"Feature","properties":{"clase":"parcela","texto":"P.13","cod_bp":"B.336-P.13"},"geometry":{"type":"Point","coordinates":[-72.908483,4.427023]}},{"type":"Feature","properties":{"clase":"parcela","texto":"P.6","cod_bp":"B.336-P.6"},"geometry":{"type":"Point","coordinates":[-72.904771,4.429353]}},{"type":"Feature","properties":{"clase":"parcela","texto":"P.5","cod_bp":"B.336-P.5"},"geometry":{"type":"Point","coordinates":[-72.906138,4.432704]}},{"type":"Feature","properties":{"clase":"parcela","texto":"P.10","cod_bp":"B.231-P.10"},"geometry":{"type":"Point","coordinates":[-72.895256,4.411709]}},{"type":"Feature","properties":{"clase":"parcela","texto":"P.2","cod_bp":"B.30-P.2"},"geometry":{"type":"Point","coordinates":[-72.97262,4.414069]}},{"type":"Feature","properties":{"clase":"parcela","texto":"P.6","cod_bp":"B.332-P.6"},"geometry":{"type":"Point","coordinates":[-72.959868,4.42199]}},{"type":"Feature","properties":{"clase":"parcela","texto":"P.7","cod_bp":"B.332-P.7"},"geometry":{"type":"Point","coordinates":[-72.96644,4.41537]}},{"type":"Feature","properties":{"clase":"parcela","texto":"P.6","cod_bp":"B.329-P.6"},"geometry":{"type":"Point","coordinates":[-72.926198,4.400161]}},{"type":"Feature","properties":{"clase":"parcela","texto":"P.28","cod_bp":"B.340-P.28"},"geometry":{"type":"Point","coordinates":[-72.990854,4.408558]}},{"type":"Feature","properties":{"clase":"parcela","texto":"P.4","cod_bp":"B.334-P.4"},"geometry":{"type":"Point","coordinates":[-72.894802,4.37751]}},{"type":"Feature","properties":{"clase":"parcela","texto":"P.6","cod_bp":"B.334-P.6"},"geometry":{"type":"Point","coordinates":[-72.895012,4.368245]}},{"type":"Feature","properties":{"clase":"parcela","texto":"P.12","cod_bp":"B.334-P.12"},"geometry":{"type":"Point","coordinates":[-72.90515,4.363853]}},{"type":"Feature","properties":{"clase":"parcela","texto":"P.9","cod_bp":"B.334-P.9"},"geometry":{"type":"Point","coordinates":[-72.89851,4.370705]}},{"type":"Feature","properties":{"clase":"parcela","texto":"P.8","cod_bp":"B.334-P.8"},"geometry":{"type":"Point","coordinates":[-72.897485,4.375177]}},{"type":"Feature","properties":{"clase":"parcela","texto":"P.13","cod_bp":"B.334-P.13"},"geometry":{"type":"Point","coordinates":[-72.907748,4.36381]}},{"type":"Feature","properties":{"clase":"parcela","texto":"P.17","cod_bp":"B.337-P.17"},"geometry":{"type":"Point","coordinates":[-72.940365,4.397277]}},{"type":"Feature","properties":{"clase":"parcela","texto":"P.22","cod_bp":"B.329-P.22"},"geometry":{"type":"Point","coordinates":[-72.91578,4.385321]}},{"type":"Feature","properties":{"clase":"parcela","texto":"P.19","cod_bp":"B.329-P.19"},"geometry":{"type":"Point","coordinates":[-72.914444,4.393309]}},{"type":"Feature","properties":{"clase":"parcela","texto":"P.17","cod_bp":"B.329-P.17"},"geometry":{"type":"Point","coordinates":[-72.917919,4.401404]}},{"type":"Feature","properties":{"clase":"parcela","texto":"P.9","cod_bp":"B.332-P.9"},"geometry":{"type":"Point","coordinates":[-72.948003,4.424865]}},{"type":"Feature","properties":{"clase":"parcela","texto":"P.8","cod_bp":"B.332-P.8"},"geometry":{"type":"Point","coordinates":[-72.950437,4.429391]}},{"type":"Feature","properties":{"clase":"parcela","texto":"P.1","cod_bp":"B.31-P.1"},"geometry":{"type":"Point","coordinates":[-73.062879,4.398934]}},{"type":"Feature","properties":{"clase":"parcela","texto":"P.3","cod_bp":"B.31-P.3"},"geometry":{"type":"Point","coordinates":[-73.053191,4.397809]}},{"type":"Feature","properties":{"clase":"parcela","texto":"P.6","cod_bp":"B.31-P.6"},"geometry":{"type":"Point","coordinates":[-73.046866,4.411071]}},{"type":"Feature","properties":{"clase":"parcela","texto":"P.13","cod_bp":"B.332-P.13"},"geometry":{"type":"Point","coordinates":[-72.958597,4.434785]}},{"type":"Feature","properties":{"clase":"parcela","texto":"P.9","cod_bp":"B.329-P.9"},"geometry":{"type":"Point","coordinates":[-72.922191,4.392982]}},{"type":"Feature","properties":{"clase":"parcela","texto":"P.18","cod_bp":"B.329-P.18"},"geometry":{"type":"Point","coordinates":[-72.914711,4.396987]}},{"type":"Feature","properties":{"clase":"parcela","texto":"P.21","cod_bp":"B.329-P.21"},"geometry":{"type":"Point","coordinates":[-72.914494,4.397661]}},{"type":"Feature","properties":{"clase":"parcela","texto":"P.5","cod_bp":"B.4-P.5"},"geometry":{"type":"Point","coordinates":[-72.988293,4.509289]}},{"type":"Feature","properties":{"clase":"parcela","texto":"P.11","cod_bp":"B.231-P.11"},"geometry":{"type":"Point","coordinates":[-72.900674,4.41191]}},{"type":"Feature","properties":{"clase":"parcela","texto":"P.24","cod_bp":"B.11-P.24"},"geometry":{"type":"Point","coordinates":[-72.969159,4.434004]}},{"type":"Feature","properties":{"clase":"parcela","texto":"P.26","cod_bp":"B.11-P.26"},"geometry":{"type":"Point","coordinates":[-72.97821,4.426179]}},{"type":"Feature","properties":{"clase":"parcela","texto":"P.37","cod_bp":"B.11-P.37"},"geometry":{"type":"Point","coordinates":[-72.976169,4.42608]}},{"type":"Feature","properties":{"clase":"parcela","texto":"P.2","cod_bp":"B.13-P.2"},"geometry":{"type":"Point","coordinates":[-72.993551,4.464627]}},{"type":"Feature","properties":{"clase":"parcela","texto":"P.102","cod_bp":"B.123-P.102"},"geometry":{"type":"Point","coordinates":[-72.979157,4.483136]}},{"type":"Feature","properties":{"clase":"parcela","texto":"P.7","cod_bp":"B.2-P.7"},"geometry":{"type":"Point","coordinates":[-72.97043,4.504218]}},{"type":"Feature","properties":{"clase":"parcela","texto":"P.11","cod_bp":"B.20-P.11"},"geometry":{"type":"Point","coordinates":[-72.948706,4.507459]}},{"type":"Feature","properties":{"clase":"parcela","texto":"P.15","cod_bp":"B.20-P.15"},"geometry":{"type":"Point","coordinates":[-72.950697,4.519586]}},{"type":"Feature","properties":{"clase":"parcela","texto":"P.2","cod_bp":"B.324-P.2"},"geometry":{"type":"Point","coordinates":[-72.956087,4.524686]}},{"type":"Feature","properties":{"clase":"parcela","texto":"P.4","cod_bp":"B.324-P.4"},"geometry":{"type":"Point","coordinates":[-72.960551,4.519891]}},{"type":"Feature","properties":{"clase":"parcela","texto":"P.6","cod_bp":"B.324-P.6"},"geometry":{"type":"Point","coordinates":[-72.958285,4.522293]}},{"type":"Feature","properties":{"clase":"parcela","texto":"P.3","cod_bp":"B.18-P.3"},"geometry":{"type":"Point","coordinates":[-72.98514,4.52042]}},{"type":"Feature","properties":{"clase":"parcela","texto":"P.4","cod_bp":"B.18-P.4"},"geometry":{"type":"Point","coordinates":[-72.985621,4.526737]}},{"type":"Feature","properties":{"clase":"parcela","texto":"P.2","cod_bp":"B.325-P.2"},"geometry":{"type":"Point","coordinates":[-72.959001,4.505087]}},{"type":"Feature","properties":{"clase":"parcela","texto":"P.1","cod_bp":"B.324-P.1"},"geometry":{"type":"Point","coordinates":[-72.956801,4.525757]}},{"type":"Feature","properties":{"clase":"parcela","texto":"P.13","cod_bp":"B.14-P.13"},"geometry":{"type":"Point","coordinates":[-72.973015,4.52965]}},{"type":"Feature","properties":{"clase":"parcela","texto":"P.594","cod_bp":"B.90-P.594"},"geometry":{"type":"Point","coordinates":[-72.952034,4.481402]}},{"type":"Feature","properties":{"clase":"parcela","texto":"P.5","cod_bp":"B.10-P.5"},"geometry":{"type":"Point","coordinates":[-72.995611,4.46018]}},{"type":"Feature","properties":{"clase":"parcela","texto":"P.3","cod_bp":"B.10-P.3"},"geometry":{"type":"Point","coordinates":[-72.995817,4.465552]}},{"type":"Feature","properties":{"clase":"parcela","texto":"P.1","cod_bp":"B.10-P.1"},"geometry":{"type":"Point","coordinates":[-72.996185,4.470688]}},{"type":"Feature","properties":{"clase":"parcela","texto":"P.1","cod_bp":"B.21-P.1"},"geometry":{"type":"Point","coordinates":[-72.974,4.454964]}},{"type":"Feature","properties":{"clase":"parcela","texto":"P.2","cod_bp":"B.21-P.2"},"geometry":{"type":"Point","coordinates":[-72.974371,4.457342]}},{"type":"Feature","properties":{"clase":"parcela","texto":"P.36","cod_bp":"B.119-P.36"},"geometry":{"type":"Point","coordinates":[-72.97933,4.480624]}},{"type":"Feature","properties":{"clase":"parcela","texto":"P.3","cod_bp":"B.7-P.3"},"geometry":{"type":"Point","coordinates":[-72.992047,4.484819]}},{"type":"Feature","properties":{"clase":"parcela","texto":"P.4","cod_bp":"B.4-P.4"},"geometry":{"type":"Point","coordinates":[-72.985393,4.502587]}},{"type":"Feature","properties":{"clase":"parcela","texto":"P.1","cod_bp":"B.5-P.1"},"geometry":{"type":"Point","coordinates":[-72.997731,4.508162]}},{"type":"Feature","properties":{"clase":"parcela","texto":"P.16","cod_bp":"B.21-P.16"},"geometry":{"type":"Point","coordinates":[-72.972096,4.456443]}},{"type":"Feature","properties":{"clase":"parcela","texto":"P.5","cod_bp":"B.7-P.5"},"geometry":{"type":"Point","coordinates":[-72.9879,4.478989]}},{"type":"Feature","properties":{"clase":"parcela","texto":"P.2","cod_bp":"B.19-P.2"},"geometry":{"type":"Point","coordinates":[-72.996161,4.512951]}},{"type":"Feature","properties":{"clase":"parcela","texto":"P.9","cod_bp":"B.19-P.9"},"geometry":{"type":"Point","coordinates":[-73.003042,4.503496]}},{"type":"Feature","properties":{"clase":"parcela","texto":"P.4","cod_bp":"B.5-P.4"},"geometry":{"type":"Point","coordinates":[-72.992837,4.511748]}},{"type":"Feature","properties":{"clase":"parcela","texto":"P.8","cod_bp":"B.4-P.8"},"geometry":{"type":"Point","coordinates":[-72.981565,4.506596]}},{"type":"Feature","properties":{"clase":"parcela","texto":"P.4","cod_bp":"B.3-P.4"},"geometry":{"type":"Point","coordinates":[-72.981303,4.494094]}},{"type":"Feature","properties":{"clase":"parcela","texto":"P.6","cod_bp":"B.3-P.6"},"geometry":{"type":"Point","coordinates":[-72.980843,4.499613]}},{"type":"Feature","properties":{"clase":"parcela","texto":"P.7","cod_bp":"B.4-P.7"},"geometry":{"type":"Point","coordinates":[-72.98321,4.51446]}},{"type":"Feature","properties":{"clase":"parcela","texto":"P.3","cod_bp":"B.332-P.3"},"geometry":{"type":"Point","coordinates":[-72.951526,4.43544]}},{"type":"Feature","properties":{"clase":"parcela","texto":"P.2","cod_bp":"B.332-P.2"},"geometry":{"type":"Point","coordinates":[-72.951366,4.441471]}},{"type":"Feature","properties":{"clase":"parcela","texto":"P.5","cod_bp":"B.335-P.5"},"geometry":{"type":"Point","coordinates":[-72.934701,4.425506]}},{"type":"Feature","properties":{"clase":"parcela","texto":"P.1","cod_bp":"B.30-P.1"},"geometry":{"type":"Point","coordinates":[-72.971225,4.417651]}},{"type":"Feature","properties":{"clase":"parcela","texto":"P.25","cod_bp":"B.31-P.25"},"geometry":{"type":"Point","coordinates":[-73.090793,4.404421]}},{"type":"Feature","properties":{"clase":"parcela","texto":"P.14","cod_bp":"B.332-P.14"},"geometry":{"type":"Point","coordinates":[-72.956761,4.440129]}},{"type":"Feature","properties":{"clase":"parcela","texto":"P.9","cod_bp":"B.337-P.9"},"geometry":{"type":"Point","coordinates":[-72.954188,4.413452]}},{"type":"Feature","properties":{"clase":"parcela","texto":"P.36","cod_bp":"B.11-P.36"},"geometry":{"type":"Point","coordinates":[-72.980444,4.429669]}},{"type":"Feature","properties":{"clase":"parcela","texto":"P.10","cod_bp":"B.14-P.10"},"geometry":{"type":"Point","coordinates":[-72.977726,4.529992]}},{"type":"Feature","properties":{"clase":"parcela","texto":"P.5","cod_bp":"B.6-P.5"},"geometry":{"type":"Point","coordinates":[-72.990829,4.498603]}},{"type":"Feature","properties":{"clase":"parcela","texto":"P.16","cod_bp":"B.336-P.16"},"geometry":{"type":"Point","coordinates":[-72.9194,4.43413]}},{"type":"Feature","properties":{"clase":"parcela","texto":"P.10","cod_bp":"B.337-P.10"},"geometry":{"type":"Point","coordinates":[-72.955881,4.411215]}},{"type":"Feature","properties":{"clase":"parcela","texto":"P.13","cod_bp":"B.337-P.13"},"geometry":{"type":"Point","coordinates":[-72.943963,4.415061]}},{"type":"Feature","properties":{"clase":"parcela","texto":"P.14","cod_bp":"B.337-P.14"},"geometry":{"type":"Point","coordinates":[-72.945404,4.418345]}},{"type":"Feature","properties":{"clase":"parcela","texto":"P.12","cod_bp":"B.337-P.12"},"geometry":{"type":"Point","coordinates":[-72.946954,4.411703]}},{"type":"Feature","properties":{"clase":"parcela","texto":"P.2","cod_bp":"B.337-P.2"},"geometry":{"type":"Point","coordinates":[-72.93782,4.406275]}},{"type":"Feature","properties":{"clase":"parcela","texto":"P.1","cod_bp":"B.339-P.1"},"geometry":{"type":"Point","coordinates":[-73.071054,4.392087]}},{"type":"Feature","properties":{"clase":"parcela","texto":"P.12","cod_bp":"B.339-P.12"},"geometry":{"type":"Point","coordinates":[-73.037298,4.395315]}},{"type":"Feature","properties":{"clase":"parcela","texto":"P.11","cod_bp":"B.329-P.11"},"geometry":{"type":"Point","coordinates":[-72.914942,4.380155]}},{"type":"Feature","properties":{"clase":"parcela","texto":"P.20","cod_bp":"B.31-P.20"},"geometry":{"type":"Point","coordinates":[-73.084212,4.413347]}},{"type":"Feature","properties":{"clase":"parcela","texto":"P.22","cod_bp":"B.31-P.22"},"geometry":{"type":"Point","coordinates":[-73.085719,4.411203]}},{"type":"Feature","properties":{"clase":"parcela","texto":"P.19","cod_bp":"B.31-P.19"},"geometry":{"type":"Point","coordinates":[-73.081523,4.418653]}},{"type":"Feature","properties":{"clase":"parcela","texto":"P.135","cod_bp":"B.5-P.135"},"geometry":{"type":"Point","coordinates":[-72.962717,4.510021]}},{"type":"Feature","properties":{"clase":"parcela","texto":"P.11","cod_bp":"B.334-P.11"},"geometry":{"type":"Point","coordinates":[-72.897503,4.361848]}},{"type":"Feature","properties":{"clase":"parcela","texto":"P.21","cod_bp":"B.31-P.21"},"geometry":{"type":"Point","coordinates":[-73.077447,4.409215]}},{"type":"Feature","properties":{"clase":"parcela","texto":"P.11","cod_bp":"B.31-P.11"},"geometry":{"type":"Point","coordinates":[-73.075209,4.418102]}},{"type":"Feature","properties":{"clase":"parcela","texto":"P.6","cod_bp":"B.2-P.6"},"geometry":{"type":"Point","coordinates":[-72.967731,4.500732]}},{"type":"Feature","properties":{"clase":"parcela","texto":"B.-P.","cod_bp":"B.-P."},"geometry":{"type":"Point","coordinates":[-72.994945,4.532301]}},{"type":"Feature","properties":{"clase":"parcela","texto":"P.16","cod_bp":"B.337-P.16"},"geometry":{"type":"Point","coordinates":[-72.955074,4.406769]}},{"type":"Feature","properties":{"clase":"parcela","texto":"P.5","cod_bp":"B.337-P.5"},"geometry":{"type":"Point","coordinates":[-72.959353,4.408002]}},{"type":"Feature","properties":{"clase":"parcela","texto":"P.11","cod_bp":"B.337-P.11"},"geometry":{"type":"Point","coordinates":[-72.947518,4.410796]}},{"type":"Feature","properties":{"clase":"parcela","texto":"P.13","cod_bp":"B.339-P.13"},"geometry":{"type":"Point","coordinates":[-73.030035,4.395696]}},{"type":"Feature","properties":{"clase":"parcela","texto":"P.2","cod_bp":"B.335-P.2"},"geometry":{"type":"Point","coordinates":[-72.93712,4.436025]}},{"type":"Feature","properties":{"clase":"parcela","texto":"P.1","cod_bp":"B.335-P.1"},"geometry":{"type":"Point","coordinates":[-72.942516,4.439864]}},{"type":"Feature","properties":{"clase":"parcela","texto":"P.17","cod_bp":"B.340-P.17"},"geometry":{"type":"Point","coordinates":[-72.987816,4.416764]}},{"type":"Feature","properties":{"clase":"parcela","texto":"P.27","cod_bp":"B.340-P.27"},"geometry":{"type":"Point","coordinates":[-72.979098,4.418726]}},{"type":"Feature","properties":{"clase":"parcela","texto":"P.24","cod_bp":"B.340-P.24"},"geometry":{"type":"Point","coordinates":[-72.980795,4.421821]}},{"type":"Feature","properties":{"clase":"parcela","texto":"P.20","cod_bp":"B.340-P.20"},"geometry":{"type":"Point","coordinates":[-72.984867,4.424027]}},{"type":"Feature","properties":{"clase":"parcela","texto":"P.18","cod_bp":"B.340-P.18"},"geometry":{"type":"Point","coordinates":[-72.987056,4.409944]}},{"type":"Feature","properties":{"clase":"parcela","texto":"P.22","cod_bp":"B.340-P.22"},"geometry":{"type":"Point","coordinates":[-72.983597,4.418384]}},{"type":"Feature","properties":{"clase":"parcela","texto":"P.23","cod_bp":"B.340-P.23"},"geometry":{"type":"Point","coordinates":[-72.981327,4.418053]}},{"type":"Feature","properties":{"clase":"parcela","texto":"P.10","cod_bp":"B.340-P.10"},"geometry":{"type":"Point","coordinates":[-72.992786,4.424723]}},{"type":"Feature","properties":{"clase":"parcela","texto":"P.11","cod_bp":"B.340-P.11"},"geometry":{"type":"Point","coordinates":[-72.996643,4.42479]}},{"type":"Feature","properties":{"clase":"parcela","texto":"P.1","cod_bp":"B.340-P.1"},"geometry":{"type":"Point","coordinates":[-73.004386,4.425789]}},{"type":"Feature","properties":{"clase":"parcela","texto":"P.2","cod_bp":"B.340-P.2"},"geometry":{"type":"Point","coordinates":[-73.00113,4.426348]}},{"type":"Feature","properties":{"clase":"parcela","texto":"P.8","cod_bp":"B.340-P.8"},"geometry":{"type":"Point","coordinates":[-72.993224,4.420503]}},{"type":"Feature","properties":{"clase":"parcela","texto":"P.6","cod_bp":"B.340-P.6"},"geometry":{"type":"Point","coordinates":[-72.996745,4.417094]}},{"type":"Feature","properties":{"clase":"parcela","texto":"P.14","cod_bp":"B.340-P.14"},"geometry":{"type":"Point","coordinates":[-72.992553,4.434246]}},{"type":"Feature","properties":{"clase":"parcela","texto":"P.13","cod_bp":"B.340-P.13"},"geometry":{"type":"Point","coordinates":[-72.994374,4.428614]}},{"type":"Feature","properties":{"clase":"parcela","texto":"P.8","cod_bp":"B.2-P.8"},"geometry":{"type":"Point","coordinates":[-72.973602,4.492854]}},{"type":"Feature","properties":{"clase":"parcela","texto":"B.340-P.","cod_bp":"B.340-P."},"geometry":{"type":"Point","coordinates":[-72.990161,4.405055]}},{"type":"Feature","properties":{"clase":"parcela","texto":"P.9","cod_bp":"B.340-P.9"},"geometry":{"type":"Point","coordinates":[-72.992672,4.420974]}},{"type":"Feature","properties":{"clase":"parcela","texto":"P.4","cod_bp":"B.340-P.4"},"geometry":{"type":"Point","coordinates":[-73.000803,4.431514]}},{"type":"Feature","properties":{"clase":"parcela","texto":"P.3","cod_bp":"B.340-P.3"},"geometry":{"type":"Point","coordinates":[-73.002727,4.432438]}},{"type":"Feature","properties":{"clase":"parcela","texto":"P.12","cod_bp":"B.340-P.12"},"geometry":{"type":"Point","coordinates":[-72.997156,4.431418]}},{"type":"Feature","properties":{"clase":"parcela","texto":"P.19","cod_bp":"B.340-P.19"},"geometry":{"type":"Point","coordinates":[-72.98656,4.41899]}},{"type":"Feature","properties":{"clase":"parcela","texto":"P.15","cod_bp":"B.340-P.15"},"geometry":{"type":"Point","coordinates":[-72.991505,4.423783]}},{"type":"Feature","properties":{"clase":"parcela","texto":"P.26","cod_bp":"B.340-P.26"},"geometry":{"type":"Point","coordinates":[-72.979315,4.414919]}},{"type":"Feature","properties":{"clase":"parcela","texto":"P.16","cod_bp":"B.340-P.16"},"geometry":{"type":"Point","coordinates":[-72.991646,4.417587]}},{"type":"Feature","properties":{"clase":"parcela","texto":"P.5","cod_bp":"B.340-P.5"},"geometry":{"type":"Point","coordinates":[-73.000237,4.42214]}},{"type":"Feature","properties":{"clase":"parcela","texto":"P.16","cod_bp":"B.20-P.16"},"geometry":{"type":"Point","coordinates":[-72.9483,4.517462]}},{"type":"Feature","properties":{"clase":"parcela","texto":"P.139","cod_bp":"B.2-P.139"},"geometry":{"type":"Point","coordinates":[-72.964082,4.53495]}},{"type":"Feature","properties":{"clase":"parcela","texto":"P.18","cod_bp":"B.14-P.18"},"geometry":{"type":"Point","coordinates":[-72.972878,4.531732]}},{"type":"Feature","properties":{"clase":"parcela","texto":"P.468","cod_bp":"B.90-P.468"},"geometry":{"type":"Point","coordinates":[-72.975714,4.478931]}},{"type":"Feature","properties":{"clase":"parcela","texto":"P.15","cod_bp":"B.21-P.15"},"geometry":{"type":"Point","coordinates":[-72.971029,4.460992]}},{"type":"Feature","properties":{"clase":"parcela","texto":"P.7","cod_bp":"B.340-P.7"},"geometry":{"type":"Point","coordinates":[-72.996785,4.42357]}},{"type":"Feature","properties":{"clase":"parcela","texto":"P.21","cod_bp":"B.340-P.21"},"geometry":{"type":"Point","coordinates":[-72.98487,4.422149]}},{"type":"Feature","properties":{"clase":"parcela","texto":"P.25","cod_bp":"B.340-P.25"},"geometry":{"type":"Point","coordinates":[-72.980794,4.422965]}},{"type":"Feature","properties":{"clase":"parcela","texto":"P.20","cod_bp":"B.332-P.20"},"geometry":{"type":"Point","coordinates":[-72.957501,4.430776]}},{"type":"Feature","properties":{"clase":"parcela","texto":"P.4","cod_bp":"B.325-P.4"},"geometry":{"type":"Point","coordinates":[-72.9598,4.507347]}},{"type":"Feature","properties":{"clase":"parcela","texto":"P.4","cod_bp":"B.2-P.4"},"geometry":{"type":"Point","coordinates":[-72.968597,4.49097]}},{"type":"Feature","properties":{"clase":"parcela","texto":"P.8","cod_bp":"B.3-P.8"},"geometry":{"type":"Point","coordinates":[-72.975632,4.510508]}},{"type":"Feature","properties":{"clase":"parcela","texto":"P.995","cod_bp":"B.1-P.995"},"geometry":{"type":"Point","coordinates":[-72.966467,4.531298]}},{"type":"Feature","properties":{"clase":"parcela","texto":"P.1005","cod_bp":"B.3-P.1005"},"geometry":{"type":"Point","coordinates":[-72.97797,4.540732]}},{"type":"Feature","properties":{"clase":"parcela","texto":"P.1","cod_bp":"B.343-P.1"},"geometry":{"type":"Point","coordinates":[-72.958107,4.552199]}},{"type":"Feature","properties":{"clase":"bloque","texto":"B.10"},"geometry":{"type":"Point","coordinates":[-72.995176,4.454412]}},{"type":"Feature","properties":{"clase":"bloque","texto":"B.4"},"geometry":{"type":"Point","coordinates":[-72.986198,4.504727]}},{"type":"Feature","properties":{"clase":"bloque","texto":"B.12"},"geometry":{"type":"Point","coordinates":[-72.986635,4.437424]}},{"type":"Feature","properties":{"clase":"bloque","texto":"B.1"},"geometry":{"type":"Point","coordinates":[-72.969068,4.518157]}},{"type":"Feature","properties":{"clase":"bloque","texto":"B.21"},"geometry":{"type":"Point","coordinates":[-72.976527,4.457015]}},{"type":"Feature","properties":{"clase":"bloque","texto":"B.323"},"geometry":{"type":"Point","coordinates":[-72.979628,4.470348]}},{"type":"Feature","properties":{"clase":"bloque","texto":"B.2"},"geometry":{"type":"Point","coordinates":[-72.968348,4.499266]}},{"type":"Feature","properties":{"clase":"bloque","texto":"B.90"},"geometry":{"type":"Point","coordinates":[-72.961253,4.479594]}},{"type":"Feature","properties":{"clase":"bloque","texto":"B.5"},"geometry":{"type":"Point","coordinates":[-72.983025,4.511394]}},{"type":"Feature","properties":{"clase":"bloque","texto":"B.3"},"geometry":{"type":"Point","coordinates":[-72.978211,4.505248]}},{"type":"Feature","properties":{"clase":"bloque","texto":"B.13"},"geometry":{"type":"Point","coordinates":[-72.989427,4.46066]}},{"type":"Feature","properties":{"clase":"bloque","texto":"B.11"},"geometry":{"type":"Point","coordinates":[-72.976445,4.439981]}},{"type":"Feature","properties":{"clase":"bloque","texto":"B.6"},"geometry":{"type":"Point","coordinates":[-72.99274,4.498071]}},{"type":"Feature","properties":{"clase":"bloque","texto":"B.15"},"geometry":{"type":"Point","coordinates":[-72.962099,4.52714]}},{"type":"Feature","properties":{"clase":"bloque","texto":"B.20"},"geometry":{"type":"Point","coordinates":[-72.946892,4.518233]}},{"type":"Feature","properties":{"clase":"bloque","texto":"B.19"},"geometry":{"type":"Point","coordinates":[-73.000841,4.509616]}},{"type":"Feature","properties":{"clase":"bloque","texto":"B.7"},"geometry":{"type":"Point","coordinates":[-72.988335,4.481621]}},{"type":"Feature","properties":{"clase":"bloque","texto":"B.17"},"geometry":{"type":"Point","coordinates":[-72.951774,4.531413]}},{"type":"Feature","properties":{"clase":"bloque","texto":"B.119"},"geometry":{"type":"Point","coordinates":[-72.989766,4.408379]}},{"type":"Feature","properties":{"clase":"bloque","texto":"B.14"},"geometry":{"type":"Point","coordinates":[-72.977379,4.527899]}},{"type":"Feature","properties":{"clase":"bloque","texto":"B.325"},"geometry":{"type":"Point","coordinates":[-72.95725,4.506482]}},{"type":"Feature","properties":{"clase":"bloque","texto":"B.231"},"geometry":{"type":"Point","coordinates":[-72.898439,4.408316]}},{"type":"Feature","properties":{"clase":"bloque","texto":"B.330"},"geometry":{"type":"Point","coordinates":[-72.903509,4.38426]}},{"type":"Feature","properties":{"clase":"bloque","texto":"B.324"},"geometry":{"type":"Point","coordinates":[-72.957964,4.522951]}},{"type":"Feature","properties":{"clase":"bloque","texto":"B.329"},"geometry":{"type":"Point","coordinates":[-72.916559,4.400808]}},{"type":"Feature","properties":{"clase":"bloque","texto":"B.31"},"geometry":{"type":"Point","coordinates":[-73.075654,4.414192]}},{"type":"Feature","properties":{"clase":"bloque","texto":"B.91"},"geometry":{"type":"Point","coordinates":[-72.971896,4.418619]}},{"type":"Feature","properties":{"clase":"bloque","texto":"B.332"},"geometry":{"type":"Point","coordinates":[-72.956238,4.432646]}},{"type":"Feature","properties":{"clase":"bloque","texto":"B.339"},"geometry":{"type":"Point","coordinates":[-73.037198,4.392385]}},{"type":"Feature","properties":{"clase":"bloque","texto":"B.9"},"geometry":{"type":"Point","coordinates":[-72.965539,4.462843]}},{"type":"Feature","properties":{"clase":"bloque","texto":"B.328"},"geometry":{"type":"Point","coordinates":[-72.979695,4.433215]}},{"type":"Feature","properties":{"clase":"bloque","texto":"B.326"},"geometry":{"type":"Point","coordinates":[-72.971125,4.451996]}},{"type":"Feature","properties":{"clase":"bloque","texto":"B.336"},"geometry":{"type":"Point","coordinates":[-72.913959,4.430574]}},{"type":"Feature","properties":{"clase":"bloque","texto":"B.337"},"geometry":{"type":"Point","coordinates":[-72.950174,4.410544]}},{"type":"Feature","properties":{"clase":"bloque","texto":"B.341"},"geometry":{"type":"Point","coordinates":[-72.996156,4.438385]}},{"type":"Feature","properties":{"clase":"bloque","texto":"B.123"},"geometry":{"type":"Point","coordinates":[-72.950487,4.451295]}},{"type":"Feature","properties":{"clase":"bloque","texto":"B.122"},"geometry":{"type":"Point","coordinates":[-72.953563,4.463799]}},{"type":"Feature","properties":{"clase":"bloque","texto":"B.0"},"geometry":{"type":"Point","coordinates":[-73.007731,4.488543]}},{"type":"Feature","properties":{"clase":"bloque","texto":"B.16"},"geometry":{"type":"Point","coordinates":[-72.969205,4.425692]}},{"type":"Feature","properties":{"clase":"bloque","texto":"B.18"},"geometry":{"type":"Point","coordinates":[-72.98484,4.520267]}},{"type":"Feature","properties":{"clase":"bloque","texto":"B.334"},"geometry":{"type":"Point","coordinates":[-72.901032,4.370985]}},{"type":"Feature","properties":{"clase":"bloque","texto":"B.327"},"geometry":{"type":"Point","coordinates":[-72.937234,4.447016]}},{"type":"Feature","properties":{"clase":"bloque","texto":"B.335"},"geometry":{"type":"Point","coordinates":[-72.936339,4.431805]}},{"type":"Feature","properties":{"clase":"bloque","texto":"B.30"},"geometry":{"type":"Point","coordinates":[-72.972827,4.413382]}},{"type":"Feature","properties":{"clase":"bloque","texto":"B.340"},"geometry":{"type":"Point","coordinates":[-73.034606,4.426246]}},{"type":"Feature","properties":{"clase":"bloque","texto":"B.344"},"geometry":{"type":"Point","coordinates":[-73.013249,4.425685]}},{"type":"Feature","properties":{"clase":"bloque","texto":"B.342"},"geometry":{"type":"Point","coordinates":[-72.922594,4.436944]}},{"type":"Feature","properties":{"clase":"bloque","texto":"B.343"},"geometry":{"type":"Point","coordinates":[-72.958107,4.552199]}}]}